<?xml version="1.0" encoding="UTF-8" standalone="no" ?>

<gpx xmlns="http://www.topografix.com/GPX/1/1" xmlns:xsi="http://www.w3.org/2001/XMLSchema-instance" xsi:schemaLocation="http://www.topografix.com/GPX/1/1 http://www.topografix.com/GPX/1/1/gpx.xsd" version="1.1" creator="waymarkedtrails.org"><metadata><name>7-Seenblick-Wanderung &amp; 3-Gipfel-Tour</name><copyright author="OpenStreetMap and Contributors"><license>https://www.openstreetmap.org/copyright</license></copyright><link href="https://hiking.waymarkedtrails.org/#route?id=9744886&amp;type=relation"><text>WaymarkedTrails</text></link><time>2026-05-08T18:25:32.100Z</time></metadata><trk><trkseg><trkpt lat="47.6860161" lon="13.5829853"/><trkpt lat="47.6859764" lon="13.5828903"/><trkpt lat="47.6860331" lon="13.5826544"/><trkpt lat="47.6860156" lon="13.5824609"/><trkpt lat="47.6859445" lon="13.5822169"/><trkpt lat="47.6859331" lon="13.5821425"/><trkpt lat="47.6859323" lon="13.5821037"/><trkpt lat="47.6859527" lon="13.5819819"/><trkpt lat="47.6859457" lon="13.5819137"/><trkpt lat="47.6858794" lon="13.5817571"/><trkpt lat="47.6856992" lon="13.581472"/><trkpt lat="47.6856425" lon="13.581456"/><trkpt lat="47.6855948" lon="13.5813814"/><trkpt lat="47.6856148" lon="13.5812457"/><trkpt lat="47.6856132" lon="13.5812039"/><trkpt lat="47.6855943" lon="13.5810654"/><trkpt lat="47.6856755" lon="13.5808348"/><trkpt lat="47.6857068" lon="13.5806492"/><trkpt lat="47.6857483" lon="13.5805392"/><trkpt lat="47.6858588" lon="13.5796871"/><trkpt lat="47.6858342" lon="13.5794854"/><trkpt lat="47.6856409" lon="13.5791435"/><trkpt lat="47.6856781" lon="13.5791388"/><trkpt lat="47.6857555" lon="13.5792316"/><trkpt lat="47.6857595" lon="13.579149"/><trkpt lat="47.6858178" lon="13.5790881"/><trkpt lat="47.6858936" lon="13.579186"/><trkpt lat="47.6859102" lon="13.5791235"/><trkpt lat="47.6859659" lon="13.5792477"/><trkpt lat="47.6859884" lon="13.5791122"/><trkpt lat="47.6861248" lon="13.5788896"/><trkpt lat="47.6861934" lon="13.5786831"/><trkpt lat="47.6862033" lon="13.5787662"/><trkpt lat="47.6863306" lon="13.5784725"/><trkpt lat="47.6862764" lon="13.5782003"/><trkpt lat="47.6862635" lon="13.5780725"/><trkpt lat="47.6862981" lon="13.5779502"/><trkpt lat="47.6862716" lon="13.5778765"/><trkpt lat="47.6862605" lon="13.5777945"/><trkpt lat="47.6862347" lon="13.5774936"/><trkpt lat="47.6863181" lon="13.5772303"/><trkpt lat="47.6863446" lon="13.5770469"/><trkpt lat="47.6863681" lon="13.576847"/><trkpt lat="47.686389" lon="13.5764397"/><trkpt lat="47.6864961" lon="13.5766192"/><trkpt lat="47.6865732" lon="13.5767736"/><trkpt lat="47.686599" lon="13.5765336"/><trkpt lat="47.6866294" lon="13.5764234"/><trkpt lat="47.6866287" lon="13.5762015"/><trkpt lat="47.6866482" lon="13.5761006"/><trkpt lat="47.6868094" lon="13.5763458"/><trkpt lat="47.6868264" lon="13.5760009"/><trkpt lat="47.6868954" lon="13.5756564"/><trkpt lat="47.6869552" lon="13.5758091"/><trkpt lat="47.6870101" lon="13.5757413"/><trkpt lat="47.6870221" lon="13.5756782"/><trkpt lat="47.6870117" lon="13.5755239"/><trkpt lat="47.6869557" lon="13.5754699"/><trkpt lat="47.6869909" lon="13.5753232"/><trkpt lat="47.6869901" lon="13.5751528"/><trkpt lat="47.6869615" lon="13.5750017"/><trkpt lat="47.6868641" lon="13.5749158"/><trkpt lat="47.6868425" lon="13.5746656"/><trkpt lat="47.6868724" lon="13.5745234"/><trkpt lat="47.6868208" lon="13.5743246"/><trkpt lat="47.6868409" lon="13.5741397"/><trkpt lat="47.6867937" lon="13.5741266"/><trkpt lat="47.6868161" lon="13.5739106"/><trkpt lat="47.6870332" lon="13.5737842"/><trkpt lat="47.687008" lon="13.5734991"/><trkpt lat="47.6870854" lon="13.5734302"/><trkpt lat="47.6871983" lon="13.5734308"/><trkpt lat="47.687381" lon="13.573329"/><trkpt lat="47.6874886" lon="13.5732033"/><trkpt lat="47.6874712" lon="13.5731302"/><trkpt lat="47.6874767" lon="13.5729791"/><trkpt lat="47.6874776" lon="13.5728234"/><trkpt lat="47.6875111" lon="13.5727766"/><trkpt lat="47.6875528" lon="13.5728178"/><trkpt lat="47.6875879" lon="13.5727774"/><trkpt lat="47.6876944" lon="13.5727869"/><trkpt lat="47.6878494" lon="13.5726849"/><trkpt lat="47.6879678" lon="13.572685"/><trkpt lat="47.6880441" lon="13.5726411"/><trkpt lat="47.6881325" lon="13.5726144"/><trkpt lat="47.6881828" lon="13.5724812"/><trkpt lat="47.688218" lon="13.572339"/><trkpt lat="47.6882568" lon="13.572208"/><trkpt lat="47.6883688" lon="13.5720586"/><trkpt lat="47.6884083" lon="13.5719162"/><trkpt lat="47.6884321" lon="13.5718607"/><trkpt lat="47.6884313" lon="13.5717946"/><trkpt lat="47.6885007" lon="13.5716858"/><trkpt lat="47.688526" lon="13.5715823"/><trkpt lat="47.6885153" lon="13.5714902"/><trkpt lat="47.6885191" lon="13.571402"/><trkpt lat="47.6885488" lon="13.5713447"/><trkpt lat="47.688561" lon="13.5712411"/><trkpt lat="47.6885808" lon="13.571176"/><trkpt lat="47.6885701" lon="13.5711392"/><trkpt lat="47.6885798" lon="13.5711064"/><trkpt lat="47.6886115" lon="13.5710382"/><trkpt lat="47.6886381" lon="13.5709031"/><trkpt lat="47.6886682" lon="13.5708554"/><trkpt lat="47.6887095" lon="13.5707711"/><trkpt lat="47.6887851" lon="13.5707602"/><trkpt lat="47.6888338" lon="13.5707091"/><trkpt lat="47.6888169" lon="13.5704823"/><trkpt lat="47.6887964" lon="13.570263"/><trkpt lat="47.6887438" lon="13.5701859"/><trkpt lat="47.6886836" lon="13.5701572"/><trkpt lat="47.6886028" lon="13.5701937"/><trkpt lat="47.6885384" lon="13.5701264"/><trkpt lat="47.6884935" lon="13.5700746"/><trkpt lat="47.6884491" lon="13.5699304"/><trkpt lat="47.6883898" lon="13.5699242"/><trkpt lat="47.6883628" lon="13.5698976"/><trkpt lat="47.6883466" lon="13.5698544"/><trkpt lat="47.6883535" lon="13.5697793"/><trkpt lat="47.6883197" lon="13.5696918"/><trkpt lat="47.6882106" lon="13.5695132"/><trkpt lat="47.688112" lon="13.5694239"/><trkpt lat="47.6880509" lon="13.5693205"/><trkpt lat="47.6879172" lon="13.5693378"/><trkpt lat="47.6877967" lon="13.569247"/><trkpt lat="47.6876775" lon="13.5690428"/><trkpt lat="47.6876504" lon="13.5689046"/><trkpt lat="47.6876379" lon="13.5687536"/><trkpt lat="47.6876033" lon="13.5686077"/><trkpt lat="47.6876379" lon="13.5685024"/><trkpt lat="47.6876277" lon="13.5684198"/><trkpt lat="47.6876729" lon="13.5682579"/><trkpt lat="47.6876266" lon="13.5680812"/><trkpt lat="47.6875502" lon="13.56799"/><trkpt lat="47.6874803" lon="13.567746"/><trkpt lat="47.6874276" lon="13.5676731"/><trkpt lat="47.6873363" lon="13.567476"/><trkpt lat="47.6872829" lon="13.5673694"/><trkpt lat="47.6871792" lon="13.567324"/><trkpt lat="47.6871203" lon="13.5672353"/><trkpt lat="47.6870324" lon="13.5671703"/><trkpt lat="47.687012" lon="13.5671248"/><trkpt lat="47.6869666" lon="13.5671231"/><trkpt lat="47.6869246" lon="13.567017"/><trkpt lat="47.6868418" lon="13.5669111"/><trkpt lat="47.6868419" lon="13.5668111"/><trkpt lat="47.6868418" lon="13.5669111"/><trkpt lat="47.6869246" lon="13.567017"/><trkpt lat="47.6869666" lon="13.5671231"/><trkpt lat="47.687012" lon="13.5671248"/><trkpt lat="47.6870324" lon="13.5671703"/><trkpt lat="47.6871203" lon="13.5672353"/><trkpt lat="47.6871792" lon="13.567324"/><trkpt lat="47.6872829" lon="13.5673694"/><trkpt lat="47.6873363" lon="13.567476"/><trkpt lat="47.6874276" lon="13.5676731"/><trkpt lat="47.6874803" lon="13.567746"/><trkpt lat="47.6875502" lon="13.56799"/><trkpt lat="47.6876266" lon="13.5680812"/><trkpt lat="47.6876729" lon="13.5682579"/><trkpt lat="47.6876277" lon="13.5684198"/><trkpt lat="47.6876379" lon="13.5685024"/><trkpt lat="47.6876033" lon="13.5686077"/><trkpt lat="47.6876379" lon="13.5687536"/><trkpt lat="47.6876504" lon="13.5689046"/><trkpt lat="47.6876775" lon="13.5690428"/><trkpt lat="47.6877967" lon="13.569247"/><trkpt lat="47.6879172" lon="13.5693378"/><trkpt lat="47.6880509" lon="13.5693205"/><trkpt lat="47.688112" lon="13.5694239"/><trkpt lat="47.6882106" lon="13.5695132"/><trkpt lat="47.6883197" lon="13.5696918"/><trkpt lat="47.6883535" lon="13.5697793"/><trkpt lat="47.6883466" lon="13.5698544"/><trkpt lat="47.6883628" lon="13.5698976"/><trkpt lat="47.6883898" lon="13.5699242"/><trkpt lat="47.6884491" lon="13.5699304"/><trkpt lat="47.6884935" lon="13.5700746"/><trkpt lat="47.6885384" lon="13.5701264"/><trkpt lat="47.6886028" lon="13.5701937"/><trkpt lat="47.6886836" lon="13.5701572"/><trkpt lat="47.6887438" lon="13.5701859"/><trkpt lat="47.6887964" lon="13.570263"/><trkpt lat="47.6888169" lon="13.5704823"/><trkpt lat="47.6888338" lon="13.5707091"/><trkpt lat="47.6888842" lon="13.5708272"/><trkpt lat="47.688962" lon="13.5708819"/><trkpt lat="47.6890067" lon="13.5710681"/><trkpt lat="47.6890064" lon="13.571319"/><trkpt lat="47.6889892" lon="13.5716089"/><trkpt lat="47.6890782" lon="13.5717149"/><trkpt lat="47.6891315" lon="13.5718767"/><trkpt lat="47.6892256" lon="13.5719356"/><trkpt lat="47.6892331" lon="13.5720163"/><trkpt lat="47.6892287" lon="13.5724108"/><trkpt lat="47.6891391" lon="13.572566"/><trkpt lat="47.6890974" lon="13.5728475"/><trkpt lat="47.6889931" lon="13.5728959"/><trkpt lat="47.6889374" lon="13.5729829"/><trkpt lat="47.6889003" lon="13.5731879"/><trkpt lat="47.6888377" lon="13.5732682"/><trkpt lat="47.6887674" lon="13.5732783"/><trkpt lat="47.6887697" lon="13.5733405"/><trkpt lat="47.6887289" lon="13.5734484"/><trkpt lat="47.6886699" lon="13.5736657"/><trkpt lat="47.6886767" lon="13.5737685"/><trkpt lat="47.6886673" lon="13.573961"/><trkpt lat="47.6886881" lon="13.5740549"/><trkpt lat="47.688696" lon="13.5740903"/><trkpt lat="47.6886801" lon="13.5741593"/><trkpt lat="47.6887028" lon="13.5742553"/><trkpt lat="47.6886973" lon="13.5744591"/><trkpt lat="47.6886892" lon="13.5745417"/><trkpt lat="47.6885542" lon="13.5746698"/><trkpt lat="47.6885622" lon="13.5747624"/><trkpt lat="47.6885203" lon="13.5748408"/><trkpt lat="47.6884533" lon="13.5747776"/><trkpt lat="47.6883728" lon="13.5747894"/><trkpt lat="47.6882651" lon="13.5747641"/><trkpt lat="47.6882537" lon="13.5747102"/><trkpt lat="47.6881517" lon="13.5746361"/><trkpt lat="47.6880198" lon="13.5746448"/><trkpt lat="47.6879782" lon="13.5747641"/><trkpt lat="47.6879866" lon="13.574904"/><trkpt lat="47.6880428" lon="13.5750202"/><trkpt lat="47.6880258" lon="13.5750977"/><trkpt lat="47.6880554" lon="13.5751696"/><trkpt lat="47.688036" lon="13.5752661"/><trkpt lat="47.6879793" lon="13.5753082"/><trkpt lat="47.6879271" lon="13.575384"/><trkpt lat="47.6879053" lon="13.5756945"/><trkpt lat="47.6878012" lon="13.5757757"/><trkpt lat="47.6877151" lon="13.5758811"/><trkpt lat="47.6877189" lon="13.5760238"/><trkpt lat="47.6874652" lon="13.5762885"/><trkpt lat="47.6874622" lon="13.5763931"/><trkpt lat="47.6874406" lon="13.5765885"/><trkpt lat="47.6874486" lon="13.5766812"/><trkpt lat="47.6874123" lon="13.5768884"/><trkpt lat="47.6874283" lon="13.5769672"/><trkpt lat="47.6874022" lon="13.5770349"/><trkpt lat="47.687403" lon="13.5771105"/><trkpt lat="47.6874988" lon="13.577318"/><trkpt lat="47.6875019" lon="13.5774039"/><trkpt lat="47.6875099" lon="13.5774899"/><trkpt lat="47.6875053" lon="13.5775336"/><trkpt lat="47.6875032" lon="13.5776461"/><trkpt lat="47.6875251" lon="13.5778851"/><trkpt lat="47.6874385" lon="13.5780156"/><trkpt lat="47.687403" lon="13.5781029"/><trkpt lat="47.6874128" lon="13.5782132"/><trkpt lat="47.687469" lon="13.5781738"/><trkpt lat="47.6875336" lon="13.5781738"/><trkpt lat="47.6876507" lon="13.5782206"/><trkpt lat="47.6876825" lon="13.5783551"/><trkpt lat="47.6877377" lon="13.5783557"/><trkpt lat="47.6877808" lon="13.5784248"/><trkpt lat="47.6878262" lon="13.5783928"/><trkpt lat="47.6878732" lon="13.5784097"/><trkpt lat="47.6878557" lon="13.5785006"/><trkpt lat="47.6878682" lon="13.5786354"/><trkpt lat="47.6879375" lon="13.5788145"/><trkpt lat="47.6879872" lon="13.5788223"/><trkpt lat="47.6881715" lon="13.5791389"/><trkpt lat="47.6882333" lon="13.5791069"/><trkpt lat="47.6882242" lon="13.5791879"/><trkpt lat="47.6882328" lon="13.5793148"/><trkpt lat="47.6882787" lon="13.5793126"/><trkpt lat="47.6883258" lon="13.5793365"/><trkpt lat="47.6883376" lon="13.5794642"/><trkpt lat="47.6883759" lon="13.5796239"/><trkpt lat="47.6884166" lon="13.5796311"/><trkpt lat="47.6885932" lon="13.5794993"/><trkpt lat="47.6887435" lon="13.5794758"/><trkpt lat="47.6887829" lon="13.579434"/><trkpt lat="47.6888503" lon="13.5794322"/><trkpt lat="47.6888977" lon="13.579354"/><trkpt lat="47.6889449" lon="13.5793067"/><trkpt lat="47.6890332" lon="13.5792863"/><trkpt lat="47.6891428" lon="13.5792786"/><trkpt lat="47.6891913" lon="13.5793741"/><trkpt lat="47.6892029" lon="13.5794796"/><trkpt lat="47.689239" lon="13.5794843"/><trkpt lat="47.6892677" lon="13.5795062"/><trkpt lat="47.6893038" lon="13.5794995"/><trkpt lat="47.6893387" lon="13.5794347"/><trkpt lat="47.6893754" lon="13.5794101"/><trkpt lat="47.6894092" lon="13.5794029"/><trkpt lat="47.6894366" lon="13.5793785"/><trkpt lat="47.6894573" lon="13.5794033"/><trkpt lat="47.6894514" lon="13.5795328"/><trkpt lat="47.6894822" lon="13.5795837"/><trkpt lat="47.6895573" lon="13.5796179"/><trkpt lat="47.6895643" lon="13.5797147"/><trkpt lat="47.6896787" lon="13.5798313"/><trkpt lat="47.6896837" lon="13.5799024"/><trkpt lat="47.689764" lon="13.5799987"/><trkpt lat="47.6898266" lon="13.5800572"/><trkpt lat="47.6898581" lon="13.5800605"/><trkpt lat="47.6898266" lon="13.5800572"/><trkpt lat="47.689764" lon="13.5799987"/><trkpt lat="47.6896837" lon="13.5799024"/><trkpt lat="47.6896787" lon="13.5798313"/><trkpt lat="47.6895643" lon="13.5797147"/><trkpt lat="47.6895573" lon="13.5796179"/><trkpt lat="47.6894822" lon="13.5795837"/><trkpt lat="47.6894514" lon="13.5795328"/><trkpt lat="47.6894573" lon="13.5794033"/><trkpt lat="47.6894366" lon="13.5793785"/><trkpt lat="47.6894092" lon="13.5794029"/><trkpt lat="47.6893754" lon="13.5794101"/><trkpt lat="47.6893387" lon="13.5794347"/><trkpt lat="47.6893038" lon="13.5794995"/><trkpt lat="47.6892677" lon="13.5795062"/><trkpt lat="47.689239" lon="13.5794843"/><trkpt lat="47.6892029" lon="13.5794796"/><trkpt lat="47.6891913" lon="13.5793741"/><trkpt lat="47.6891428" lon="13.5792786"/><trkpt lat="47.6890332" lon="13.5792863"/><trkpt lat="47.6889449" lon="13.5793067"/><trkpt lat="47.6888977" lon="13.579354"/><trkpt lat="47.6888503" lon="13.5794322"/><trkpt lat="47.6887829" lon="13.579434"/><trkpt lat="47.6887435" lon="13.5794758"/><trkpt lat="47.6885932" lon="13.5794993"/><trkpt lat="47.6884166" lon="13.5796311"/><trkpt lat="47.6883759" lon="13.5796239"/><trkpt lat="47.6883023" lon="13.5797103"/><trkpt lat="47.6882063" lon="13.5797275"/><trkpt lat="47.6881392" lon="13.579805"/><trkpt lat="47.6881632" lon="13.5799581"/><trkpt lat="47.6881595" lon="13.5801142"/><trkpt lat="47.6881227" lon="13.5802254"/><trkpt lat="47.6880847" lon="13.5804621"/><trkpt lat="47.687892" lon="13.5806147"/><trkpt lat="47.6877392" lon="13.5806317"/><trkpt lat="47.6875973" lon="13.5808517"/><trkpt lat="47.6875156" lon="13.5808801"/><trkpt lat="47.6874506" lon="13.5808281"/><trkpt lat="47.6872789" lon="13.5808157"/><trkpt lat="47.6872222" lon="13.5806953"/><trkpt lat="47.6868" lon="13.5805213"/><trkpt lat="47.6868911" lon="13.5807539"/><trkpt lat="47.6870612" lon="13.5810063"/><trkpt lat="47.6868875" lon="13.5809838"/><trkpt lat="47.686773" lon="13.580874"/><trkpt lat="47.6866966" lon="13.5808535"/><trkpt lat="47.6865462" lon="13.5806982"/><trkpt lat="47.6865688" lon="13.5809548"/><trkpt lat="47.6867601" lon="13.5814088"/><trkpt lat="47.6868417" lon="13.5815555"/><trkpt lat="47.6868133" lon="13.5815801"/><trkpt lat="47.6868845" lon="13.5816616"/><trkpt lat="47.6868656" lon="13.5816852"/><trkpt lat="47.6867644" lon="13.5816873"/><trkpt lat="47.6867391" lon="13.5817169"/><trkpt lat="47.6866283" lon="13.5816638"/><trkpt lat="47.6865485" lon="13.5815582"/><trkpt lat="47.6864824" lon="13.5815532"/><trkpt lat="47.6864283" lon="13.5816273"/><trkpt lat="47.6863452" lon="13.5815781"/><trkpt lat="47.6862869" lon="13.5815226"/><trkpt lat="47.6861927" lon="13.5814234"/><trkpt lat="47.6861604" lon="13.5814305"/><trkpt lat="47.6861097" lon="13.5813536"/><trkpt lat="47.6860637" lon="13.5813062"/><trkpt lat="47.6860385" lon="13.5812952"/><trkpt lat="47.6860002" lon="13.581323"/><trkpt lat="47.6860037" lon="13.5813412"/><trkpt lat="47.6860294" lon="13.5813415"/><trkpt lat="47.686036" lon="13.5814587"/><trkpt lat="47.6860771" lon="13.5816841"/><trkpt lat="47.6860553" lon="13.5816742"/><trkpt lat="47.6859559" lon="13.5815683"/><trkpt lat="47.6858295" lon="13.5815562"/><trkpt lat="47.6857615" lon="13.5814797"/><trkpt lat="47.6856992" lon="13.581472"/><trkpt lat="47.6858794" lon="13.5817571"/><trkpt lat="47.6859457" lon="13.5819137"/><trkpt lat="47.6859527" lon="13.5819819"/><trkpt lat="47.6859323" lon="13.5821037"/><trkpt lat="47.6859331" lon="13.5821425"/><trkpt lat="47.6859445" lon="13.5822169"/><trkpt lat="47.6860156" lon="13.5824609"/><trkpt lat="47.6860331" lon="13.5826544"/><trkpt lat="47.6859764" lon="13.5828903"/><trkpt lat="47.6860161" lon="13.5829853"/></trkseg></trk><trk><trkseg><trkpt lat="47.6879866" lon="13.574904"/><trkpt lat="47.6878249" lon="13.5746788"/><trkpt lat="47.6875679" lon="13.5744409"/><trkpt lat="47.6874437" lon="13.5744788"/><trkpt lat="47.6873642" lon="13.5744439"/><trkpt lat="47.6873146" lon="13.5744573"/><trkpt lat="47.6872794" lon="13.5745391"/><trkpt lat="47.6871431" lon="13.5746129"/><trkpt lat="47.6870465" lon="13.5747032"/><trkpt lat="47.6868724" lon="13.5745234"/></trkseg></trk></gpx>