<?xml version="1.0" encoding="UTF-8" standalone="no" ?>

<gpx xmlns="http://www.topografix.com/GPX/1/1" xmlns:xsi="http://www.w3.org/2001/XMLSchema-instance" xsi:schemaLocation="http://www.topografix.com/GPX/1/1 http://www.topografix.com/GPX/1/1/gpx.xsd" version="1.1" creator="waymarkedtrails.org"><metadata><name>Seeuferweg Strobl-Abersee</name><copyright author="OpenStreetMap and Contributors"><license>https://www.openstreetmap.org/copyright</license></copyright><link href="https://hiking.waymarkedtrails.org/#route?id=6684548&amp;type=relation"><text>WaymarkedTrails</text></link><time>2026-05-23T20:22:41.684Z</time></metadata><trk><trkseg><trkpt lat="47.7169489" lon="13.480059"/><trkpt lat="47.7172288" lon="13.4796217"/><trkpt lat="47.7173581" lon="13.4794556"/><trkpt lat="47.717543" lon="13.4785448"/><trkpt lat="47.717537" lon="13.4784114"/><trkpt lat="47.7174041" lon="13.4778848"/><trkpt lat="47.7173881" lon="13.4772978"/><trkpt lat="47.7173928" lon="13.4770872"/><trkpt lat="47.7174139" lon="13.4768731"/><trkpt lat="47.7174637" lon="13.4764862"/><trkpt lat="47.7174956" lon="13.4763686"/><trkpt lat="47.7175616" lon="13.476027"/><trkpt lat="47.7176309" lon="13.4757889"/><trkpt lat="47.7176915" lon="13.4756397"/><trkpt lat="47.7179281" lon="13.475284"/><trkpt lat="47.7179524" lon="13.4752488"/><trkpt lat="47.7179663" lon="13.4752289"/><trkpt lat="47.7182056" lon="13.4748964"/><trkpt lat="47.718297" lon="13.4747626"/><trkpt lat="47.7184372" lon="13.4745677"/><trkpt lat="47.7193705" lon="13.47324"/><trkpt lat="47.7194684" lon="13.472887"/><trkpt lat="47.7194998" lon="13.4727188"/><trkpt lat="47.7194484" lon="13.4724439"/><trkpt lat="47.7194295" lon="13.4723594"/><trkpt lat="47.7194387" lon="13.4721548"/><trkpt lat="47.7195319" lon="13.4715316"/><trkpt lat="47.7195342" lon="13.4713934"/><trkpt lat="47.7194787" lon="13.4708369"/><trkpt lat="47.71944" lon="13.4703453"/><trkpt lat="47.7194372" lon="13.4699477"/><trkpt lat="47.7194174" lon="13.4697814"/><trkpt lat="47.7194306" lon="13.4696374"/><trkpt lat="47.7195399" lon="13.4691648"/><trkpt lat="47.7195555" lon="13.4689961"/><trkpt lat="47.7195321" lon="13.4680056"/><trkpt lat="47.7195135" lon="13.4677916"/><trkpt lat="47.7194416" lon="13.4675821"/><trkpt lat="47.7192164" lon="13.4672775"/><trkpt lat="47.7191139" lon="13.4671584"/><trkpt lat="47.7189963" lon="13.4670646"/><trkpt lat="47.7186941" lon="13.4669187"/><trkpt lat="47.7184208" lon="13.4667112"/><trkpt lat="47.7183399" lon="13.4666196"/><trkpt lat="47.7168397" lon="13.4644434"/><trkpt lat="47.7166905" lon="13.4641386"/><trkpt lat="47.7166284" lon="13.4639581"/><trkpt lat="47.7165704" lon="13.4636454"/><trkpt lat="47.716556" lon="13.4634101"/><trkpt lat="47.7165281" lon="13.4618421"/><trkpt lat="47.7165125" lon="13.4617109"/><trkpt lat="47.7165516" lon="13.4614911"/><trkpt lat="47.7167182" lon="13.4608307"/><trkpt lat="47.7167224" lon="13.4607151"/><trkpt lat="47.7166148" lon="13.4595207"/><trkpt lat="47.7165735" lon="13.4589909"/><trkpt lat="47.7165715" lon="13.4589646"/><trkpt lat="47.7165639" lon="13.4588206"/><trkpt lat="47.7165558" lon="13.4587535"/><trkpt lat="47.7165151" lon="13.4585976"/><trkpt lat="47.7163311" lon="13.4580052"/><trkpt lat="47.7163061" lon="13.4578767"/><trkpt lat="47.7162955" lon="13.4577396"/><trkpt lat="47.7163018" lon="13.4575164"/><trkpt lat="47.7163337" lon="13.4572952"/><trkpt lat="47.7163618" lon="13.4570738"/><trkpt lat="47.7163862" lon="13.4569132"/><trkpt lat="47.7165486" lon="13.4564283"/><trkpt lat="47.7166527" lon="13.4561807"/><trkpt lat="47.7169083" lon="13.4557309"/><trkpt lat="47.7169858" lon="13.4555819"/><trkpt lat="47.7170708" lon="13.4552283"/><trkpt lat="47.7170818" lon="13.4549627"/><trkpt lat="47.7170631" lon="13.4547117"/><trkpt lat="47.7169759" lon="13.4543394"/><trkpt lat="47.7168367" lon="13.4535565"/><trkpt lat="47.7168241" lon="13.45345"/><trkpt lat="47.7167397" lon="13.4529319"/><trkpt lat="47.7167234" lon="13.4528412"/><trkpt lat="47.7164739" lon="13.4514521"/><trkpt lat="47.7164269" lon="13.4508665"/><trkpt lat="47.7165527" lon="13.4503255"/><trkpt lat="47.7169641" lon="13.4483751"/><trkpt lat="47.7170185" lon="13.4480748"/><trkpt lat="47.7170646" lon="13.4479276"/><trkpt lat="47.7181836" lon="13.4452135"/><trkpt lat="47.7189563" lon="13.443312"/><trkpt lat="47.718942" lon="13.4432288"/><trkpt lat="47.720298" lon="13.4399383"/><trkpt lat="47.7204528" lon="13.4396214"/><trkpt lat="47.7205662" lon="13.4394607"/><trkpt lat="47.7206781" lon="13.4393269"/><trkpt lat="47.7208358" lon="13.4391803"/><trkpt lat="47.7209866" lon="13.439081"/><trkpt lat="47.7211724" lon="13.4390008"/><trkpt lat="47.7213402" lon="13.4389655"/><trkpt lat="47.7213817" lon="13.4389607"/></trkseg></trk><trk><trkseg><trkpt lat="47.7213817" lon="13.4389607"/><trkpt lat="47.7214655" lon="13.4389504"/><trkpt lat="47.7215259" lon="13.4389286"/><trkpt lat="47.7215692" lon="13.4388831"/><trkpt lat="47.7216051" lon="13.4388681"/></trkseg></trk><trk><trkseg><trkpt lat="47.7216051" lon="13.4388681"/><trkpt lat="47.7219937" lon="13.4389916"/><trkpt lat="47.7221751" lon="13.4390322"/><trkpt lat="47.7224129" lon="13.4390575"/><trkpt lat="47.7226225" lon="13.439078"/><trkpt lat="47.7234818" lon="13.4391493"/><trkpt lat="47.7237938" lon="13.4391749"/><trkpt lat="47.7238506" lon="13.4391798"/><trkpt lat="47.7244246" lon="13.4392317"/><trkpt lat="47.7247176" lon="13.4392378"/><trkpt lat="47.7249801" lon="13.4392188"/><trkpt lat="47.7251392" lon="13.4391753"/><trkpt lat="47.7253293" lon="13.4390915"/><trkpt lat="47.7255318" lon="13.4389459"/><trkpt lat="47.7263412" lon="13.438234"/></trkseg></trk><trk><trkseg><trkpt lat="47.7263412" lon="13.438234"/><trkpt lat="47.7263986" lon="13.4382168"/><trkpt lat="47.7265081" lon="13.4381593"/><trkpt lat="47.7266527" lon="13.4380703"/><trkpt lat="47.7267284" lon="13.437997"/><trkpt lat="47.7268236" lon="13.4377348"/><trkpt lat="47.7269152" lon="13.4376493"/><trkpt lat="47.7270464" lon="13.4375134"/><trkpt lat="47.7271623" lon="13.437398"/><trkpt lat="47.7271783" lon="13.4373073"/><trkpt lat="47.7272866" lon="13.4372068"/><trkpt lat="47.7275898" lon="13.4369205"/><trkpt lat="47.7276402" lon="13.4368732"/><trkpt lat="47.7278684" lon="13.4366586"/><trkpt lat="47.7285374" lon="13.4360295"/><trkpt lat="47.7287428" lon="13.435777"/><trkpt lat="47.7289741" lon="13.4354318"/><trkpt lat="47.7292433" lon="13.4347837"/><trkpt lat="47.7293298" lon="13.4345036"/><trkpt lat="47.7293921" lon="13.4342223"/><trkpt lat="47.7294866" lon="13.4337597"/><trkpt lat="47.7295568" lon="13.4335987"/><trkpt lat="47.7295645" lon="13.4333699"/><trkpt lat="47.7295718" lon="13.4332059"/><trkpt lat="47.7296235" lon="13.4331003"/><trkpt lat="47.7297561" lon="13.4324786"/><trkpt lat="47.7299939" lon="13.4314021"/><trkpt lat="47.730319" lon="13.4298367"/><trkpt lat="47.7304071" lon="13.4297003"/><trkpt lat="47.7306864" lon="13.4292771"/><trkpt lat="47.7307232" lon="13.429217"/><trkpt lat="47.7308043" lon="13.428958"/><trkpt lat="47.7308522" lon="13.4286972"/><trkpt lat="47.7308414" lon="13.4286577"/><trkpt lat="47.7306548" lon="13.4285476"/><trkpt lat="47.7306205" lon="13.4284468"/><trkpt lat="47.7309777" lon="13.4267451"/></trkseg></trk></gpx>