<gpx xmlns="http://www.topografix.com/GPX/1/1" xmlns:xsi="http://www.w3.org/2001/XMLSchema-instance" xmlns:geo="http://www.w3.org/2003/01/geo/wgs84_pos#" xmlns:georss="http://www.georss.org/georss" xmlns:ec="urn:schemas-econtent:rss" version="1.1" creator="TOURDATA" xsi:schemaLocation="http://www.topografix.com/GPX/1/1 http://www.topografix.com/GPX/1/1/gpx.xsd"><metadata><name>Königsbachalm</name><link href="https://www.oberoesterreich.at/oesterreich-tour/detail/430008512/koenigsbachalm.html"/></metadata><trk><name>Königsbachalm</name><trkseg><trkpt lat="47.727129" lon="13.414168"><time>2026-05-01T20:29:39Z</time></trkpt><trkpt lat="47.72708" lon="13.414098"><time>2026-05-01T20:29:49Z</time></trkpt><trkpt lat="47.727065" lon="13.414082"><time>2026-05-01T20:29:59Z</time></trkpt><trkpt lat="47.726988" lon="13.414049"><time>2026-05-01T20:30:09Z</time></trkpt><trkpt lat="47.726879" lon="13.414072"><time>2026-05-01T20:30:19Z</time></trkpt><trkpt lat="47.726974" lon="13.413708"><time>2026-05-01T20:30:29Z</time></trkpt><trkpt lat="47.727054" lon="13.4137"><time>2026-05-01T20:30:39Z</time></trkpt><trkpt lat="47.727008" lon="13.413324"><time>2026-05-01T20:30:49Z</time></trkpt><trkpt lat="47.727118" lon="13.412005"><time>2026-05-01T20:30:59Z</time></trkpt><trkpt lat="47.727181" lon="13.411644"><time>2026-05-01T20:31:09Z</time></trkpt><trkpt lat="47.727135" lon="13.411305"><time>2026-05-01T20:31:19Z</time></trkpt><trkpt lat="47.727022" lon="13.410912"><time>2026-05-01T20:31:29Z</time></trkpt><trkpt lat="47.726821" lon="13.410647"><time>2026-05-01T20:31:39Z</time></trkpt><trkpt lat="47.726579" lon="13.410534"><time>2026-05-01T20:31:49Z</time></trkpt><trkpt lat="47.726447" lon="13.410528"><time>2026-05-01T20:31:59Z</time></trkpt><trkpt lat="47.726243" lon="13.410554"><time>2026-05-01T20:32:09Z</time></trkpt><trkpt lat="47.725862" lon="13.410651"><time>2026-05-01T20:32:19Z</time></trkpt><trkpt lat="47.72558" lon="13.411132"><time>2026-05-01T20:32:29Z</time></trkpt><trkpt lat="47.725384" lon="13.411433"><time>2026-05-01T20:32:39Z</time></trkpt><trkpt lat="47.725337" lon="13.41152"><time>2026-05-01T20:32:49Z</time></trkpt><trkpt lat="47.724836" lon="13.411604"><time>2026-05-01T20:32:59Z</time></trkpt><trkpt lat="47.724036" lon="13.412081"><time>2026-05-01T20:33:09Z</time></trkpt><trkpt lat="47.723695" lon="13.412217"><time>2026-05-01T20:33:19Z</time></trkpt><trkpt lat="47.723267" lon="13.41254"><time>2026-05-01T20:33:29Z</time></trkpt><trkpt lat="47.722437" lon="13.412971"><time>2026-05-01T20:33:39Z</time></trkpt><trkpt lat="47.722071" lon="13.412953"><time>2026-05-01T20:33:49Z</time></trkpt><trkpt lat="47.721957" lon="13.412947"><time>2026-05-01T20:33:59Z</time></trkpt><trkpt lat="47.721488" lon="13.413111"><time>2026-05-01T20:34:09Z</time></trkpt><trkpt lat="47.72106" lon="13.413006"><time>2026-05-01T20:34:19Z</time></trkpt><trkpt lat="47.720316" lon="13.413353"><time>2026-05-01T20:34:29Z</time></trkpt><trkpt lat="47.719773" lon="13.413305"><time>2026-05-01T20:34:39Z</time></trkpt><trkpt lat="47.71964" lon="13.413402"><time>2026-05-01T20:34:49Z</time></trkpt><trkpt lat="47.719508" lon="13.414198"><time>2026-05-01T20:34:59Z</time></trkpt><trkpt lat="47.719417" lon="13.414353"><time>2026-05-01T20:35:09Z</time></trkpt><trkpt lat="47.718884" lon="13.414461"><time>2026-05-01T20:35:19Z</time></trkpt><trkpt lat="47.718626" lon="13.414523"><time>2026-05-01T20:35:29Z</time></trkpt><trkpt lat="47.71833" lon="13.414479"><time>2026-05-01T20:35:39Z</time></trkpt><trkpt lat="47.718233" lon="13.414456"><time>2026-05-01T20:35:49Z</time></trkpt><trkpt lat="47.718158" lon="13.414328"><time>2026-05-01T20:35:59Z</time></trkpt><trkpt lat="47.717842" lon="13.413528"><time>2026-05-01T20:36:09Z</time></trkpt><trkpt lat="47.716989" lon="13.413469"><time>2026-05-01T20:36:19Z</time></trkpt><trkpt lat="47.716384" lon="13.41361"><time>2026-05-01T20:36:29Z</time></trkpt><trkpt lat="47.716083" lon="13.413813"><time>2026-05-01T20:36:39Z</time></trkpt><trkpt lat="47.715725" lon="13.414178"><time>2026-05-01T20:36:49Z</time></trkpt><trkpt lat="47.71553" lon="13.414452"><time>2026-05-01T20:36:59Z</time></trkpt><trkpt lat="47.715104" lon="13.414309"><time>2026-05-01T20:37:09Z</time></trkpt><trkpt lat="47.714923" lon="13.414054"><time>2026-05-01T20:37:19Z</time></trkpt><trkpt lat="47.714815" lon="13.413421"><time>2026-05-01T20:37:29Z</time></trkpt><trkpt lat="47.714535" lon="13.413113"><time>2026-05-01T20:37:39Z</time></trkpt><trkpt lat="47.71438" lon="13.413185"><time>2026-05-01T20:37:49Z</time></trkpt><trkpt lat="47.714317" lon="13.4134"><time>2026-05-01T20:37:59Z</time></trkpt><trkpt lat="47.714324" lon="13.413679"><time>2026-05-01T20:38:09Z</time></trkpt><trkpt lat="47.714174" lon="13.413834"><time>2026-05-01T20:38:19Z</time></trkpt><trkpt lat="47.71334" lon="13.413835"><time>2026-05-01T20:38:29Z</time></trkpt><trkpt lat="47.71296" lon="13.414143"><time>2026-05-01T20:38:39Z</time></trkpt><trkpt lat="47.712425" lon="13.413864"><time>2026-05-01T20:38:49Z</time></trkpt><trkpt lat="47.712041" lon="13.413839"><time>2026-05-01T20:38:59Z</time></trkpt><trkpt lat="47.71177" lon="13.413595"><time>2026-05-01T20:39:09Z</time></trkpt><trkpt lat="47.711593" lon="13.413292"><time>2026-05-01T20:39:19Z</time></trkpt><trkpt lat="47.71163" lon="13.413027"><time>2026-05-01T20:39:29Z</time></trkpt><trkpt lat="47.712136" lon="13.412909"><time>2026-05-01T20:39:39Z</time></trkpt><trkpt lat="47.71249" lon="13.412426"><time>2026-05-01T20:39:49Z</time></trkpt><trkpt lat="47.71277" lon="13.412382"><time>2026-05-01T20:39:59Z</time></trkpt><trkpt lat="47.713039" lon="13.412172"><time>2026-05-01T20:40:09Z</time></trkpt><trkpt lat="47.713185" lon="13.412074"><time>2026-05-01T20:40:19Z</time></trkpt><trkpt lat="47.713291" lon="13.411929"><time>2026-05-01T20:40:29Z</time></trkpt><trkpt lat="47.713492" lon="13.411458"><time>2026-05-01T20:40:39Z</time></trkpt><trkpt lat="47.713539" lon="13.411175"><time>2026-05-01T20:40:49Z</time></trkpt><trkpt lat="47.713551" lon="13.410747"><time>2026-05-01T20:40:59Z</time></trkpt><trkpt lat="47.713646" lon="13.410641"><time>2026-05-01T20:41:09Z</time></trkpt><trkpt lat="47.71376" lon="13.410622"><time>2026-05-01T20:41:19Z</time></trkpt><trkpt lat="47.714156" lon="13.410651"><time>2026-05-01T20:41:29Z</time></trkpt><trkpt lat="47.714377" lon="13.410638"><time>2026-05-01T20:41:39Z</time></trkpt><trkpt lat="47.714546" lon="13.410573"><time>2026-05-01T20:41:49Z</time></trkpt><trkpt lat="47.714824" lon="13.410299"><time>2026-05-01T20:41:59Z</time></trkpt><trkpt lat="47.715286" lon="13.409768"><time>2026-05-01T20:42:09Z</time></trkpt><trkpt lat="47.715697" lon="13.409025"><time>2026-05-01T20:42:19Z</time></trkpt><trkpt lat="47.71608" lon="13.407967"><time>2026-05-01T20:42:29Z</time></trkpt><trkpt lat="47.716148" lon="13.407826"><time>2026-05-01T20:42:39Z</time></trkpt><trkpt lat="47.716307" lon="13.407824"><time>2026-05-01T20:42:49Z</time></trkpt><trkpt lat="47.716419" lon="13.407751"><time>2026-05-01T20:42:59Z</time></trkpt><trkpt lat="47.716457" lon="13.407644"><time>2026-05-01T20:43:09Z</time></trkpt><trkpt lat="47.716499" lon="13.407067"><time>2026-05-01T20:43:19Z</time></trkpt><trkpt lat="47.716542" lon="13.406968"><time>2026-05-01T20:43:29Z</time></trkpt><trkpt lat="47.716603" lon="13.406963"><time>2026-05-01T20:43:39Z</time></trkpt><trkpt lat="47.716701" lon="13.407081"><time>2026-05-01T20:43:49Z</time></trkpt><trkpt lat="47.716874" lon="13.407381"><time>2026-05-01T20:43:59Z</time></trkpt><trkpt lat="47.716964" lon="13.407362"><time>2026-05-01T20:44:09Z</time></trkpt><trkpt lat="47.717031" lon="13.407148"><time>2026-05-01T20:44:19Z</time></trkpt><trkpt lat="47.717047" lon="13.406882"><time>2026-05-01T20:44:29Z</time></trkpt><trkpt lat="47.716982" lon="13.406581"><time>2026-05-01T20:44:39Z</time></trkpt><trkpt lat="47.71696" lon="13.406104"><time>2026-05-01T20:44:49Z</time></trkpt><trkpt lat="47.716989" lon="13.405801"><time>2026-05-01T20:44:59Z</time></trkpt><trkpt lat="47.717089" lon="13.405646"><time>2026-05-01T20:45:09Z</time></trkpt><trkpt lat="47.717174" lon="13.405707"><time>2026-05-01T20:45:19Z</time></trkpt><trkpt lat="47.717224" lon="13.405866"><time>2026-05-01T20:45:29Z</time></trkpt><trkpt lat="47.717294" lon="13.405927"><time>2026-05-01T20:45:39Z</time></trkpt><trkpt lat="47.717394" lon="13.405879"><time>2026-05-01T20:45:49Z</time></trkpt><trkpt lat="47.717457" lon="13.405718"><time>2026-05-01T20:45:59Z</time></trkpt><trkpt lat="47.717473" lon="13.405525"><time>2026-05-01T20:46:09Z</time></trkpt><trkpt lat="47.717522" lon="13.405394"><time>2026-05-01T20:46:19Z</time></trkpt><trkpt lat="47.717623" lon="13.405281"><time>2026-05-01T20:46:29Z</time></trkpt><trkpt lat="47.717847" lon="13.404871"><time>2026-05-01T20:46:39Z</time></trkpt><trkpt lat="47.718086" lon="13.404691"><time>2026-05-01T20:46:49Z</time></trkpt><trkpt lat="47.718159" lon="13.404556"><time>2026-05-01T20:46:59Z</time></trkpt><trkpt lat="47.718384" lon="13.402962"><time>2026-05-01T20:47:09Z</time></trkpt><trkpt lat="47.718442" lon="13.402705"><time>2026-05-01T20:47:19Z</time></trkpt><trkpt lat="47.718698" lon="13.402614"><time>2026-05-01T20:47:29Z</time></trkpt><trkpt lat="47.719594" lon="13.402475"><time>2026-05-01T20:47:39Z</time></trkpt><trkpt lat="47.719732" lon="13.402755"><time>2026-05-01T20:47:49Z</time></trkpt><trkpt lat="47.719975" lon="13.403067"><time>2026-05-01T20:47:59Z</time></trkpt><trkpt lat="47.720091" lon="13.402993"><time>2026-05-01T20:48:09Z</time></trkpt><trkpt lat="47.719955" lon="13.402667"><time>2026-05-01T20:48:19Z</time></trkpt><trkpt lat="47.720129" lon="13.402366"><time>2026-05-01T20:48:29Z</time></trkpt><trkpt lat="47.720191" lon="13.402213"><time>2026-05-01T20:48:39Z</time></trkpt><trkpt lat="47.720148" lon="13.402026"><time>2026-05-01T20:48:49Z</time></trkpt><trkpt lat="47.719867" lon="13.40173"><time>2026-05-01T20:48:59Z</time></trkpt><trkpt lat="47.719645" lon="13.401636"><time>2026-05-01T20:49:09Z</time></trkpt><trkpt lat="47.719117" lon="13.401166"><time>2026-05-01T20:49:19Z</time></trkpt><trkpt lat="47.718745" lon="13.400793"><time>2026-05-01T20:49:29Z</time></trkpt><trkpt lat="47.718543" lon="13.400189"><time>2026-05-01T20:49:39Z</time></trkpt><trkpt lat="47.718058" lon="13.400015"><time>2026-05-01T20:49:49Z</time></trkpt><trkpt lat="47.717653" lon="13.400015"><time>2026-05-01T20:49:59Z</time></trkpt><trkpt lat="47.71735" lon="13.400251"><time>2026-05-01T20:50:09Z</time></trkpt><trkpt lat="47.717226" lon="13.400141"><time>2026-05-01T20:50:19Z</time></trkpt><trkpt lat="47.717341" lon="13.399669"><time>2026-05-01T20:50:29Z</time></trkpt><trkpt lat="47.717904" lon="13.399058"><time>2026-05-01T20:50:39Z</time></trkpt><trkpt lat="47.718204" lon="13.39868"><time>2026-05-01T20:50:49Z</time></trkpt><trkpt lat="47.718332" lon="13.398513"><time>2026-05-01T20:50:59Z</time></trkpt><trkpt lat="47.719424" lon="13.397974"><time>2026-05-01T20:51:09Z</time></trkpt><trkpt lat="47.719602" lon="13.397703"><time>2026-05-01T20:51:19Z</time></trkpt><trkpt lat="47.720028" lon="13.397475"><time>2026-05-01T20:51:29Z</time></trkpt><trkpt lat="47.720311" lon="13.397046"><time>2026-05-01T20:51:39Z</time></trkpt><trkpt lat="47.720382" lon="13.396368"><time>2026-05-01T20:51:49Z</time></trkpt><trkpt lat="47.720342" lon="13.396075"><time>2026-05-01T20:51:59Z</time></trkpt><trkpt lat="47.719837" lon="13.3956"><time>2026-05-01T20:52:09Z</time></trkpt><trkpt lat="47.719572" lon="13.395287"><time>2026-05-01T20:52:19Z</time></trkpt><trkpt lat="47.719142" lon="13.395321"><time>2026-05-01T20:52:29Z</time></trkpt><trkpt lat="47.718881" lon="13.395513"><time>2026-05-01T20:52:39Z</time></trkpt><trkpt lat="47.718773" lon="13.395807"><time>2026-05-01T20:52:49Z</time></trkpt><trkpt lat="47.718748" lon="13.396129"><time>2026-05-01T20:52:59Z</time></trkpt><trkpt lat="47.718689" lon="13.396466"><time>2026-05-01T20:53:09Z</time></trkpt><trkpt lat="47.718508" lon="13.396885"><time>2026-05-01T20:53:19Z</time></trkpt><trkpt lat="47.718418" lon="13.39696"><time>2026-05-01T20:53:29Z</time></trkpt><trkpt lat="47.718373" lon="13.396864"><time>2026-05-01T20:53:39Z</time></trkpt><trkpt lat="47.718416" lon="13.396059"><time>2026-05-01T20:53:49Z</time></trkpt><trkpt lat="47.718352" lon="13.395863"><time>2026-05-01T20:53:59Z</time></trkpt><trkpt lat="47.718047" lon="13.395992"><time>2026-05-01T20:54:09Z</time></trkpt><trkpt lat="47.717886" lon="13.396242"><time>2026-05-01T20:54:19Z</time></trkpt><trkpt lat="47.717694" lon="13.39639"><time>2026-05-01T20:54:29Z</time></trkpt><trkpt lat="47.717359" lon="13.396239"><time>2026-05-01T20:54:39Z</time></trkpt><trkpt lat="47.716319" lon="13.396883"><time>2026-05-01T20:54:49Z</time></trkpt><trkpt lat="47.715937" lon="13.397776"><time>2026-05-01T20:54:59Z</time></trkpt><trkpt lat="47.715525" lon="13.398352"><time>2026-05-01T20:55:09Z</time></trkpt><trkpt lat="47.715396" lon="13.398398"><time>2026-05-01T20:55:19Z</time></trkpt><trkpt lat="47.715307" lon="13.398241"><time>2026-05-01T20:55:29Z</time></trkpt><trkpt lat="47.715365" lon="13.39798"><time>2026-05-01T20:55:39Z</time></trkpt><trkpt lat="47.715572" lon="13.397526"><time>2026-05-01T20:55:49Z</time></trkpt><trkpt lat="47.715583" lon="13.396802"><time>2026-05-01T20:55:59Z</time></trkpt><trkpt lat="47.715409" lon="13.39663"><time>2026-05-01T20:56:09Z</time></trkpt><trkpt lat="47.715075" lon="13.396683"><time>2026-05-01T20:56:19Z</time></trkpt><trkpt lat="47.713929" lon="13.396518"><time>2026-05-01T20:56:29Z</time></trkpt><trkpt lat="47.713641" lon="13.396568"><time>2026-05-01T20:56:39Z</time></trkpt><trkpt lat="47.713481" lon="13.396596"><time>2026-05-01T20:56:49Z</time></trkpt><trkpt lat="47.71312" lon="13.396476"><time>2026-05-01T20:56:59Z</time></trkpt><trkpt lat="47.712815" lon="13.396565"><time>2026-05-01T20:57:09Z</time></trkpt><trkpt lat="47.712562" lon="13.396559"><time>2026-05-01T20:57:19Z</time></trkpt><trkpt lat="47.712334" lon="13.39643"><time>2026-05-01T20:57:29Z</time></trkpt><trkpt lat="47.712177" lon="13.396556"><time>2026-05-01T20:57:39Z</time></trkpt><trkpt lat="47.711911" lon="13.397092"><time>2026-05-01T20:57:49Z</time></trkpt><trkpt lat="47.711783" lon="13.397234"><time>2026-05-01T20:57:59Z</time></trkpt><trkpt lat="47.711343" lon="13.397486"><time>2026-05-01T20:58:09Z</time></trkpt><trkpt lat="47.711072" lon="13.398103"><time>2026-05-01T20:58:19Z</time></trkpt><trkpt lat="47.710779" lon="13.398072"><time>2026-05-01T20:58:29Z</time></trkpt><trkpt lat="47.710572" lon="13.398318"><time>2026-05-01T20:58:39Z</time></trkpt><trkpt lat="47.710435" lon="13.398363"><time>2026-05-01T20:58:49Z</time></trkpt><trkpt lat="47.710379" lon="13.398435"><time>2026-05-01T20:58:59Z</time></trkpt><trkpt lat="47.709961" lon="13.398026"><time>2026-05-01T20:59:09Z</time></trkpt><trkpt lat="47.709413" lon="13.397804"><time>2026-05-01T20:59:19Z</time></trkpt><trkpt lat="47.709049" lon="13.397462"><time>2026-05-01T20:59:29Z</time></trkpt><trkpt lat="47.708529" lon="13.396346"><time>2026-05-01T20:59:39Z</time></trkpt><trkpt lat="47.707605" lon="13.395573"><time>2026-05-01T20:59:49Z</time></trkpt><trkpt lat="47.70717" lon="13.39529"><time>2026-05-01T20:59:59Z</time></trkpt><trkpt lat="47.706689" lon="13.395117"><time>2026-05-01T21:00:09Z</time></trkpt><trkpt lat="47.706446" lon="13.394917"><time>2026-05-01T21:00:19Z</time></trkpt><trkpt lat="47.706233" lon="13.394664"><time>2026-05-01T21:00:29Z</time></trkpt><trkpt lat="47.705843" lon="13.394415"><time>2026-05-01T21:00:39Z</time></trkpt><trkpt lat="47.70564" lon="13.394368"><time>2026-05-01T21:00:49Z</time></trkpt><trkpt lat="47.705464" lon="13.394245"><time>2026-05-01T21:00:59Z</time></trkpt><trkpt lat="47.705451" lon="13.394097"><time>2026-05-01T21:01:09Z</time></trkpt><trkpt lat="47.705546" lon="13.39394"><time>2026-05-01T21:01:19Z</time></trkpt><trkpt lat="47.705924" lon="13.393918"><time>2026-05-01T21:01:29Z</time></trkpt><trkpt lat="47.706536" lon="13.393471"><time>2026-05-01T21:01:39Z</time></trkpt><trkpt lat="47.706933" lon="13.39293"><time>2026-05-01T21:01:49Z</time></trkpt><trkpt lat="47.707108" lon="13.392418"><time>2026-05-01T21:01:59Z</time></trkpt><trkpt lat="47.707017" lon="13.392079"><time>2026-05-01T21:02:09Z</time></trkpt><trkpt lat="47.706817" lon="13.391823"><time>2026-05-01T21:02:19Z</time></trkpt><trkpt lat="47.706665" lon="13.391522"><time>2026-05-01T21:02:29Z</time></trkpt><trkpt lat="47.706643" lon="13.391161"><time>2026-05-01T21:02:39Z</time></trkpt><trkpt lat="47.706664" lon="13.390769"><time>2026-05-01T21:02:49Z</time></trkpt><trkpt lat="47.70689" lon="13.390283"><time>2026-05-01T21:02:59Z</time></trkpt><trkpt lat="47.706978" lon="13.389958"><time>2026-05-01T21:03:09Z</time></trkpt><trkpt lat="47.707002" lon="13.389867"><time>2026-05-01T21:03:19Z</time></trkpt><trkpt lat="47.706828" lon="13.389211"><time>2026-05-01T21:03:29Z</time></trkpt><trkpt lat="47.706828" lon="13.388872"><time>2026-05-01T21:03:39Z</time></trkpt><trkpt lat="47.707077" lon="13.386909"><time>2026-05-01T21:03:49Z</time></trkpt><trkpt lat="47.707029" lon="13.386592"><time>2026-05-01T21:03:59Z</time></trkpt><trkpt lat="47.706683" lon="13.385899"><time>2026-05-01T21:04:09Z</time></trkpt><trkpt lat="47.706664" lon="13.384762"><time>2026-05-01T21:04:19Z</time></trkpt><trkpt lat="47.706764" lon="13.384164"><time>2026-05-01T21:04:29Z</time></trkpt><trkpt lat="47.70667" lon="13.383859"><time>2026-05-01T21:04:39Z</time></trkpt><trkpt lat="47.706361" lon="13.383595"><time>2026-05-01T21:04:49Z</time></trkpt><trkpt lat="47.706187" lon="13.383306"><time>2026-05-01T21:04:59Z</time></trkpt><trkpt lat="47.706162" lon="13.382981"><time>2026-05-01T21:05:09Z</time></trkpt><trkpt lat="47.706226" lon="13.382525"><time>2026-05-01T21:05:19Z</time></trkpt><trkpt lat="47.70621" lon="13.38197"><time>2026-05-01T21:05:29Z</time></trkpt><trkpt lat="47.706272" lon="13.381367"><time>2026-05-01T21:05:39Z</time></trkpt><trkpt lat="47.706239" lon="13.380821"><time>2026-05-01T21:05:49Z</time></trkpt><trkpt lat="47.706334" lon="13.380437"><time>2026-05-01T21:05:59Z</time></trkpt><trkpt lat="47.70666" lon="13.379921"><time>2026-05-01T21:06:09Z</time></trkpt><trkpt lat="47.706842" lon="13.379875"><time>2026-05-01T21:06:19Z</time></trkpt><trkpt lat="47.707093" lon="13.379998"><time>2026-05-01T21:06:29Z</time></trkpt><trkpt lat="47.707257" lon="13.379958"><time>2026-05-01T21:06:39Z</time></trkpt><trkpt lat="47.707346" lon="13.379724"><time>2026-05-01T21:06:49Z</time></trkpt><trkpt lat="47.707383" lon="13.379279"><time>2026-05-01T21:06:59Z</time></trkpt><trkpt lat="47.707454" lon="13.378418"><time>2026-05-01T21:07:09Z</time></trkpt><trkpt lat="47.707667" lon="13.37705"><time>2026-05-01T21:07:19Z</time></trkpt><trkpt lat="47.707661" lon="13.376779"><time>2026-05-01T21:07:29Z</time></trkpt><trkpt lat="47.707522" lon="13.376439"><time>2026-05-01T21:07:39Z</time></trkpt><trkpt lat="47.706825" lon="13.375789"><time>2026-05-01T21:07:49Z</time></trkpt><trkpt lat="47.70673" lon="13.375562"><time>2026-05-01T21:07:59Z</time></trkpt><trkpt lat="47.706639" lon="13.375189"><time>2026-05-01T21:08:09Z</time></trkpt><trkpt lat="47.706691" lon="13.374563"><time>2026-05-01T21:08:19Z</time></trkpt><trkpt lat="47.70656" lon="13.373978"><time>2026-05-01T21:08:29Z</time></trkpt><trkpt lat="47.706189" lon="13.373772"><time>2026-05-01T21:08:39Z</time></trkpt><trkpt lat="47.706071" lon="13.37342"><time>2026-05-01T21:08:49Z</time></trkpt><trkpt lat="47.70609" lon="13.37278"><time>2026-05-01T21:08:59Z</time></trkpt><trkpt lat="47.705874" lon="13.37208"><time>2026-05-01T21:09:09Z</time></trkpt><trkpt lat="47.705619" lon="13.371553"><time>2026-05-01T21:09:19Z</time></trkpt><trkpt lat="47.705567" lon="13.370666"><time>2026-05-01T21:09:29Z</time></trkpt><trkpt lat="47.705633" lon="13.369755"><time>2026-05-01T21:09:39Z</time></trkpt><trkpt lat="47.705502" lon="13.369061"><time>2026-05-01T21:09:49Z</time></trkpt><trkpt lat="47.705497" lon="13.368151"><time>2026-05-01T21:09:59Z</time></trkpt><trkpt lat="47.705602" lon="13.367329"><time>2026-05-01T21:10:09Z</time></trkpt><trkpt lat="47.705612" lon="13.366434"><time>2026-05-01T21:10:19Z</time></trkpt><trkpt lat="47.705445" lon="13.366004"><time>2026-05-01T21:10:29Z</time></trkpt><trkpt lat="47.705208" lon="13.365619"><time>2026-05-01T21:10:39Z</time></trkpt><trkpt lat="47.704997" lon="13.365049"><time>2026-05-01T21:10:49Z</time></trkpt><trkpt lat="47.704659" lon="13.364589"><time>2026-05-01T21:10:59Z</time></trkpt><trkpt lat="47.704394" lon="13.364467"><time>2026-05-01T21:11:09Z</time></trkpt><trkpt lat="47.704236" lon="13.364291"><time>2026-05-01T21:11:19Z</time></trkpt><trkpt lat="47.703902" lon="13.363244"><time>2026-05-01T21:11:29Z</time></trkpt><trkpt lat="47.703618" lon="13.362874"><time>2026-05-01T21:11:39Z</time></trkpt><trkpt lat="47.703382" lon="13.362341"><time>2026-05-01T21:11:49Z</time></trkpt><trkpt lat="47.703273" lon="13.361756"><time>2026-05-01T21:11:59Z</time></trkpt><trkpt lat="47.703129" lon="13.361565"><time>2026-05-01T21:12:09Z</time></trkpt><trkpt lat="47.702642" lon="13.361195"><time>2026-05-01T21:12:19Z</time></trkpt><trkpt lat="47.702407" lon="13.360828"><time>2026-05-01T21:12:29Z</time></trkpt><trkpt lat="47.702287" lon="13.360437"><time>2026-05-01T21:12:39Z</time></trkpt><trkpt lat="47.702233" lon="13.359962"><time>2026-05-01T21:12:49Z</time></trkpt><trkpt lat="47.702322" lon="13.359241"><time>2026-05-01T21:12:59Z</time></trkpt><trkpt lat="47.702608" lon="13.358104"><time>2026-05-01T21:13:09Z</time></trkpt><trkpt lat="47.702978" lon="13.357116"><time>2026-05-01T21:13:19Z</time></trkpt><trkpt lat="47.703179" lon="13.356801"><time>2026-05-01T21:13:29Z</time></trkpt><trkpt lat="47.703879" lon="13.356392"><time>2026-05-01T21:13:39Z</time></trkpt><trkpt lat="47.70489" lon="13.356091"><time>2026-05-01T21:13:49Z</time></trkpt><trkpt lat="47.705872" lon="13.355576"><time>2026-05-01T21:13:59Z</time></trkpt><trkpt lat="47.70696" lon="13.354841"><time>2026-05-01T21:14:09Z</time></trkpt><trkpt lat="47.707318" lon="13.354302"><time>2026-05-01T21:14:19Z</time></trkpt><trkpt lat="47.707759" lon="13.354031"><time>2026-05-01T21:14:29Z</time></trkpt><trkpt lat="47.70801" lon="13.354031"><time>2026-05-01T21:14:39Z</time></trkpt><trkpt lat="47.708238" lon="13.353797"><time>2026-05-01T21:14:49Z</time></trkpt><trkpt lat="47.708388" lon="13.353407"><time>2026-05-01T21:14:59Z</time></trkpt><trkpt lat="47.708246" lon="13.351301"><time>2026-05-01T21:15:09Z</time></trkpt><trkpt lat="47.708121" lon="13.351009"><time>2026-05-01T21:15:19Z</time></trkpt><trkpt lat="47.707618" lon="13.350334"><time>2026-05-01T21:15:29Z</time></trkpt><trkpt lat="47.707242" lon="13.350773"><time>2026-05-01T21:15:39Z</time></trkpt><trkpt lat="47.70715" lon="13.351022"><time>2026-05-01T21:15:49Z</time></trkpt><trkpt lat="47.706933" lon="13.351451"><time>2026-05-01T21:15:59Z</time></trkpt><trkpt lat="47.706706" lon="13.351642"><time>2026-05-01T21:16:09Z</time></trkpt><trkpt lat="47.705984" lon="13.351628"><time>2026-05-01T21:16:19Z</time></trkpt><trkpt lat="47.704002" lon="13.350926"><time>2026-05-01T21:16:29Z</time></trkpt><trkpt lat="47.705984" lon="13.351628"><time>2026-05-01T21:16:39Z</time></trkpt><trkpt lat="47.706706" lon="13.351642"><time>2026-05-01T21:16:49Z</time></trkpt><trkpt lat="47.706933" lon="13.351451"><time>2026-05-01T21:16:59Z</time></trkpt><trkpt lat="47.70715" lon="13.351022"><time>2026-05-01T21:17:09Z</time></trkpt><trkpt lat="47.707242" lon="13.350773"><time>2026-05-01T21:17:19Z</time></trkpt><trkpt lat="47.707618" lon="13.350334"><time>2026-05-01T21:17:29Z</time></trkpt><trkpt lat="47.708121" lon="13.351009"><time>2026-05-01T21:17:39Z</time></trkpt><trkpt lat="47.708246" lon="13.351301"><time>2026-05-01T21:17:49Z</time></trkpt><trkpt lat="47.708388" lon="13.353407"><time>2026-05-01T21:17:59Z</time></trkpt><trkpt lat="47.708238" lon="13.353797"><time>2026-05-01T21:18:09Z</time></trkpt><trkpt lat="47.70801" lon="13.354031"><time>2026-05-01T21:18:19Z</time></trkpt><trkpt lat="47.707759" lon="13.354031"><time>2026-05-01T21:18:29Z</time></trkpt><trkpt lat="47.707318" lon="13.354302"><time>2026-05-01T21:18:39Z</time></trkpt><trkpt lat="47.70696" lon="13.354841"><time>2026-05-01T21:18:49Z</time></trkpt><trkpt lat="47.705872" lon="13.355576"><time>2026-05-01T21:18:59Z</time></trkpt><trkpt lat="47.70489" lon="13.356091"><time>2026-05-01T21:19:09Z</time></trkpt><trkpt lat="47.703879" lon="13.356392"><time>2026-05-01T21:19:19Z</time></trkpt><trkpt lat="47.703179" lon="13.356801"><time>2026-05-01T21:19:29Z</time></trkpt><trkpt lat="47.702978" lon="13.357116"><time>2026-05-01T21:19:39Z</time></trkpt><trkpt lat="47.702608" lon="13.358104"><time>2026-05-01T21:19:49Z</time></trkpt><trkpt lat="47.702322" lon="13.359241"><time>2026-05-01T21:19:59Z</time></trkpt><trkpt lat="47.702233" lon="13.359962"><time>2026-05-01T21:20:09Z</time></trkpt><trkpt lat="47.702287" lon="13.360437"><time>2026-05-01T21:20:19Z</time></trkpt><trkpt lat="47.702407" lon="13.360828"><time>2026-05-01T21:20:29Z</time></trkpt><trkpt lat="47.702642" lon="13.361195"><time>2026-05-01T21:20:39Z</time></trkpt><trkpt lat="47.703129" lon="13.361565"><time>2026-05-01T21:20:49Z</time></trkpt><trkpt lat="47.703273" lon="13.361756"><time>2026-05-01T21:20:59Z</time></trkpt><trkpt lat="47.703382" lon="13.362341"><time>2026-05-01T21:21:09Z</time></trkpt><trkpt lat="47.703618" lon="13.362874"><time>2026-05-01T21:21:19Z</time></trkpt><trkpt lat="47.703902" lon="13.363244"><time>2026-05-01T21:21:29Z</time></trkpt><trkpt lat="47.704236" lon="13.364291"><time>2026-05-01T21:21:39Z</time></trkpt><trkpt lat="47.704394" lon="13.364467"><time>2026-05-01T21:21:49Z</time></trkpt><trkpt lat="47.704659" lon="13.364589"><time>2026-05-01T21:21:59Z</time></trkpt><trkpt lat="47.704997" lon="13.365049"><time>2026-05-01T21:22:09Z</time></trkpt><trkpt lat="47.705208" lon="13.365619"><time>2026-05-01T21:22:19Z</time></trkpt><trkpt lat="47.705445" lon="13.366004"><time>2026-05-01T21:22:29Z</time></trkpt><trkpt lat="47.705612" lon="13.366434"><time>2026-05-01T21:22:39Z</time></trkpt><trkpt lat="47.705602" lon="13.367329"><time>2026-05-01T21:22:49Z</time></trkpt><trkpt lat="47.705497" lon="13.368151"><time>2026-05-01T21:22:59Z</time></trkpt><trkpt lat="47.705502" lon="13.369061"><time>2026-05-01T21:23:09Z</time></trkpt><trkpt lat="47.705633" lon="13.369755"><time>2026-05-01T21:23:19Z</time></trkpt><trkpt lat="47.705567" lon="13.370666"><time>2026-05-01T21:23:29Z</time></trkpt><trkpt lat="47.705619" lon="13.371553"><time>2026-05-01T21:23:39Z</time></trkpt><trkpt lat="47.705874" lon="13.37208"><time>2026-05-01T21:23:49Z</time></trkpt><trkpt lat="47.70609" lon="13.37278"><time>2026-05-01T21:23:59Z</time></trkpt><trkpt lat="47.706071" lon="13.37342"><time>2026-05-01T21:24:09Z</time></trkpt><trkpt lat="47.706189" lon="13.373772"><time>2026-05-01T21:24:19Z</time></trkpt><trkpt lat="47.70656" lon="13.373978"><time>2026-05-01T21:24:29Z</time></trkpt><trkpt lat="47.706691" lon="13.374563"><time>2026-05-01T21:24:39Z</time></trkpt><trkpt lat="47.706639" lon="13.375189"><time>2026-05-01T21:24:49Z</time></trkpt><trkpt lat="47.70673" lon="13.375562"><time>2026-05-01T21:24:59Z</time></trkpt><trkpt lat="47.706825" lon="13.375789"><time>2026-05-01T21:25:09Z</time></trkpt><trkpt lat="47.707522" lon="13.376439"><time>2026-05-01T21:25:19Z</time></trkpt><trkpt lat="47.707661" lon="13.376779"><time>2026-05-01T21:25:29Z</time></trkpt><trkpt lat="47.707667" lon="13.37705"><time>2026-05-01T21:25:39Z</time></trkpt><trkpt lat="47.707454" lon="13.378418"><time>2026-05-01T21:25:49Z</time></trkpt><trkpt lat="47.707383" lon="13.379279"><time>2026-05-01T21:25:59Z</time></trkpt><trkpt lat="47.707346" lon="13.379724"><time>2026-05-01T21:26:09Z</time></trkpt><trkpt lat="47.707257" lon="13.379958"><time>2026-05-01T21:26:19Z</time></trkpt><trkpt lat="47.707093" lon="13.379998"><time>2026-05-01T21:26:29Z</time></trkpt><trkpt lat="47.706842" lon="13.379875"><time>2026-05-01T21:26:39Z</time></trkpt><trkpt lat="47.70666" lon="13.379921"><time>2026-05-01T21:26:49Z</time></trkpt><trkpt lat="47.706334" lon="13.380437"><time>2026-05-01T21:26:59Z</time></trkpt><trkpt lat="47.706239" lon="13.380821"><time>2026-05-01T21:27:09Z</time></trkpt><trkpt lat="47.706272" lon="13.381367"><time>2026-05-01T21:27:19Z</time></trkpt><trkpt lat="47.70621" lon="13.38197"><time>2026-05-01T21:27:29Z</time></trkpt><trkpt lat="47.706226" lon="13.382525"><time>2026-05-01T21:27:39Z</time></trkpt><trkpt lat="47.706162" lon="13.382981"><time>2026-05-01T21:27:49Z</time></trkpt><trkpt lat="47.706187" lon="13.383306"><time>2026-05-01T21:27:59Z</time></trkpt><trkpt lat="47.706361" lon="13.383595"><time>2026-05-01T21:28:09Z</time></trkpt><trkpt lat="47.70667" lon="13.383859"><time>2026-05-01T21:28:19Z</time></trkpt><trkpt lat="47.706764" lon="13.384164"><time>2026-05-01T21:28:29Z</time></trkpt><trkpt lat="47.706664" lon="13.384762"><time>2026-05-01T21:28:39Z</time></trkpt><trkpt lat="47.706683" lon="13.385899"><time>2026-05-01T21:28:49Z</time></trkpt><trkpt lat="47.707029" lon="13.386592"><time>2026-05-01T21:28:59Z</time></trkpt><trkpt lat="47.707077" lon="13.386909"><time>2026-05-01T21:29:09Z</time></trkpt><trkpt lat="47.706828" lon="13.388872"><time>2026-05-01T21:29:19Z</time></trkpt><trkpt lat="47.706828" lon="13.389211"><time>2026-05-01T21:29:29Z</time></trkpt><trkpt lat="47.707002" lon="13.389867"><time>2026-05-01T21:29:39Z</time></trkpt><trkpt lat="47.706978" lon="13.389958"><time>2026-05-01T21:29:49Z</time></trkpt><trkpt lat="47.70689" lon="13.390283"><time>2026-05-01T21:29:59Z</time></trkpt><trkpt lat="47.706664" lon="13.390769"><time>2026-05-01T21:30:09Z</time></trkpt><trkpt lat="47.706643" lon="13.391161"><time>2026-05-01T21:30:19Z</time></trkpt><trkpt lat="47.706665" lon="13.391522"><time>2026-05-01T21:30:29Z</time></trkpt><trkpt lat="47.706817" lon="13.391823"><time>2026-05-01T21:30:39Z</time></trkpt><trkpt lat="47.707017" lon="13.392079"><time>2026-05-01T21:30:49Z</time></trkpt><trkpt lat="47.707108" lon="13.392418"><time>2026-05-01T21:30:59Z</time></trkpt><trkpt lat="47.706933" lon="13.39293"><time>2026-05-01T21:31:09Z</time></trkpt><trkpt lat="47.706536" lon="13.393471"><time>2026-05-01T21:31:19Z</time></trkpt><trkpt lat="47.705924" lon="13.393918"><time>2026-05-01T21:31:29Z</time></trkpt><trkpt lat="47.705546" lon="13.39394"><time>2026-05-01T21:31:39Z</time></trkpt><trkpt lat="47.705451" lon="13.394097"><time>2026-05-01T21:31:49Z</time></trkpt><trkpt lat="47.705464" lon="13.394245"><time>2026-05-01T21:31:59Z</time></trkpt><trkpt lat="47.70564" lon="13.394368"><time>2026-05-01T21:32:09Z</time></trkpt><trkpt lat="47.705843" lon="13.394415"><time>2026-05-01T21:32:19Z</time></trkpt><trkpt lat="47.706233" lon="13.394664"><time>2026-05-01T21:32:29Z</time></trkpt><trkpt lat="47.706446" lon="13.394917"><time>2026-05-01T21:32:39Z</time></trkpt><trkpt lat="47.706689" lon="13.395117"><time>2026-05-01T21:32:49Z</time></trkpt><trkpt lat="47.70717" lon="13.39529"><time>2026-05-01T21:32:59Z</time></trkpt><trkpt lat="47.707605" lon="13.395573"><time>2026-05-01T21:33:09Z</time></trkpt><trkpt lat="47.708529" lon="13.396346"><time>2026-05-01T21:33:19Z</time></trkpt><trkpt lat="47.709049" lon="13.397462"><time>2026-05-01T21:33:29Z</time></trkpt><trkpt lat="47.709413" lon="13.397804"><time>2026-05-01T21:33:39Z</time></trkpt><trkpt lat="47.709961" lon="13.398026"><time>2026-05-01T21:33:49Z</time></trkpt><trkpt lat="47.710379" lon="13.398435"><time>2026-05-01T21:33:59Z</time></trkpt><trkpt lat="47.710435" lon="13.398363"><time>2026-05-01T21:34:09Z</time></trkpt><trkpt lat="47.710572" lon="13.398318"><time>2026-05-01T21:34:19Z</time></trkpt><trkpt lat="47.710779" lon="13.398072"><time>2026-05-01T21:34:29Z</time></trkpt><trkpt lat="47.711072" lon="13.398103"><time>2026-05-01T21:34:39Z</time></trkpt><trkpt lat="47.711343" lon="13.397486"><time>2026-05-01T21:34:49Z</time></trkpt><trkpt lat="47.711783" lon="13.397234"><time>2026-05-01T21:34:59Z</time></trkpt><trkpt lat="47.711911" lon="13.397092"><time>2026-05-01T21:35:09Z</time></trkpt><trkpt lat="47.712177" lon="13.396556"><time>2026-05-01T21:35:19Z</time></trkpt><trkpt lat="47.712334" lon="13.39643"><time>2026-05-01T21:35:29Z</time></trkpt><trkpt lat="47.712562" lon="13.396559"><time>2026-05-01T21:35:39Z</time></trkpt><trkpt lat="47.712815" lon="13.396565"><time>2026-05-01T21:35:49Z</time></trkpt><trkpt lat="47.71312" lon="13.396476"><time>2026-05-01T21:35:59Z</time></trkpt><trkpt lat="47.713481" lon="13.396596"><time>2026-05-01T21:36:09Z</time></trkpt><trkpt lat="47.713641" lon="13.396568"><time>2026-05-01T21:36:19Z</time></trkpt><trkpt lat="47.713929" lon="13.396518"><time>2026-05-01T21:36:29Z</time></trkpt><trkpt lat="47.715075" lon="13.396683"><time>2026-05-01T21:36:39Z</time></trkpt><trkpt lat="47.715409" lon="13.39663"><time>2026-05-01T21:36:49Z</time></trkpt><trkpt lat="47.715583" lon="13.396802"><time>2026-05-01T21:36:59Z</time></trkpt><trkpt lat="47.715572" lon="13.397526"><time>2026-05-01T21:37:09Z</time></trkpt><trkpt lat="47.715365" lon="13.39798"><time>2026-05-01T21:37:19Z</time></trkpt><trkpt lat="47.715307" lon="13.398241"><time>2026-05-01T21:37:29Z</time></trkpt><trkpt lat="47.715396" lon="13.398398"><time>2026-05-01T21:37:39Z</time></trkpt><trkpt lat="47.715525" lon="13.398352"><time>2026-05-01T21:37:49Z</time></trkpt><trkpt lat="47.715937" lon="13.397776"><time>2026-05-01T21:37:59Z</time></trkpt><trkpt lat="47.716319" lon="13.396883"><time>2026-05-01T21:38:09Z</time></trkpt><trkpt lat="47.717359" lon="13.396239"><time>2026-05-01T21:38:19Z</time></trkpt><trkpt lat="47.717694" lon="13.39639"><time>2026-05-01T21:38:29Z</time></trkpt><trkpt lat="47.717886" lon="13.396242"><time>2026-05-01T21:38:39Z</time></trkpt><trkpt lat="47.718047" lon="13.395992"><time>2026-05-01T21:38:49Z</time></trkpt><trkpt lat="47.718352" lon="13.395863"><time>2026-05-01T21:38:59Z</time></trkpt><trkpt lat="47.718416" lon="13.396059"><time>2026-05-01T21:39:09Z</time></trkpt><trkpt lat="47.718373" lon="13.396864"><time>2026-05-01T21:39:19Z</time></trkpt><trkpt lat="47.718418" lon="13.39696"><time>2026-05-01T21:39:29Z</time></trkpt><trkpt lat="47.718508" lon="13.396885"><time>2026-05-01T21:39:39Z</time></trkpt><trkpt lat="47.718689" lon="13.396466"><time>2026-05-01T21:39:49Z</time></trkpt><trkpt lat="47.718748" lon="13.396129"><time>2026-05-01T21:39:59Z</time></trkpt><trkpt lat="47.718773" lon="13.395807"><time>2026-05-01T21:40:09Z</time></trkpt><trkpt lat="47.718881" lon="13.395513"><time>2026-05-01T21:40:19Z</time></trkpt><trkpt lat="47.719142" lon="13.395321"><time>2026-05-01T21:40:29Z</time></trkpt><trkpt lat="47.719572" lon="13.395287"><time>2026-05-01T21:40:39Z</time></trkpt><trkpt lat="47.719837" lon="13.3956"><time>2026-05-01T21:40:49Z</time></trkpt><trkpt lat="47.720342" lon="13.396075"><time>2026-05-01T21:40:59Z</time></trkpt><trkpt lat="47.720382" lon="13.396368"><time>2026-05-01T21:41:09Z</time></trkpt><trkpt lat="47.720311" lon="13.397046"><time>2026-05-01T21:41:19Z</time></trkpt><trkpt lat="47.720028" lon="13.397475"><time>2026-05-01T21:41:29Z</time></trkpt><trkpt lat="47.719602" lon="13.397703"><time>2026-05-01T21:41:39Z</time></trkpt><trkpt lat="47.719424" lon="13.397974"><time>2026-05-01T21:41:49Z</time></trkpt><trkpt lat="47.718332" lon="13.398513"><time>2026-05-01T21:41:59Z</time></trkpt><trkpt lat="47.718204" lon="13.39868"><time>2026-05-01T21:42:09Z</time></trkpt><trkpt lat="47.717904" lon="13.399058"><time>2026-05-01T21:42:19Z</time></trkpt><trkpt lat="47.717341" lon="13.399669"><time>2026-05-01T21:42:29Z</time></trkpt><trkpt lat="47.717226" lon="13.400141"><time>2026-05-01T21:42:39Z</time></trkpt><trkpt lat="47.71735" lon="13.400251"><time>2026-05-01T21:42:49Z</time></trkpt><trkpt lat="47.717653" lon="13.400015"><time>2026-05-01T21:42:59Z</time></trkpt><trkpt lat="47.718058" lon="13.400015"><time>2026-05-01T21:43:09Z</time></trkpt><trkpt lat="47.718543" lon="13.400189"><time>2026-05-01T21:43:19Z</time></trkpt><trkpt lat="47.718745" lon="13.400793"><time>2026-05-01T21:43:29Z</time></trkpt><trkpt lat="47.719117" lon="13.401166"><time>2026-05-01T21:43:39Z</time></trkpt><trkpt lat="47.719645" lon="13.401636"><time>2026-05-01T21:43:49Z</time></trkpt><trkpt lat="47.719867" lon="13.40173"><time>2026-05-01T21:43:59Z</time></trkpt><trkpt lat="47.720148" lon="13.402026"><time>2026-05-01T21:44:09Z</time></trkpt><trkpt lat="47.720191" lon="13.402213"><time>2026-05-01T21:44:19Z</time></trkpt><trkpt lat="47.720129" lon="13.402366"><time>2026-05-01T21:44:29Z</time></trkpt><trkpt lat="47.719955" lon="13.402667"><time>2026-05-01T21:44:39Z</time></trkpt><trkpt lat="47.720091" lon="13.402993"><time>2026-05-01T21:44:49Z</time></trkpt><trkpt lat="47.719975" lon="13.403067"><time>2026-05-01T21:44:59Z</time></trkpt><trkpt lat="47.719732" lon="13.402755"><time>2026-05-01T21:45:09Z</time></trkpt><trkpt lat="47.719594" lon="13.402475"><time>2026-05-01T21:45:19Z</time></trkpt><trkpt lat="47.718698" lon="13.402614"><time>2026-05-01T21:45:29Z</time></trkpt><trkpt lat="47.718442" lon="13.402705"><time>2026-05-01T21:45:39Z</time></trkpt><trkpt lat="47.718384" lon="13.402962"><time>2026-05-01T21:45:49Z</time></trkpt><trkpt lat="47.718159" lon="13.404556"><time>2026-05-01T21:45:59Z</time></trkpt><trkpt lat="47.718086" lon="13.404691"><time>2026-05-01T21:46:09Z</time></trkpt><trkpt lat="47.717847" lon="13.404871"><time>2026-05-01T21:46:19Z</time></trkpt><trkpt lat="47.717623" lon="13.405281"><time>2026-05-01T21:46:29Z</time></trkpt><trkpt lat="47.717522" lon="13.405394"><time>2026-05-01T21:46:39Z</time></trkpt><trkpt lat="47.717473" lon="13.405525"><time>2026-05-01T21:46:49Z</time></trkpt><trkpt lat="47.717457" lon="13.405718"><time>2026-05-01T21:46:59Z</time></trkpt><trkpt lat="47.717394" lon="13.405879"><time>2026-05-01T21:47:09Z</time></trkpt><trkpt lat="47.717294" lon="13.405927"><time>2026-05-01T21:47:19Z</time></trkpt><trkpt lat="47.717224" lon="13.405866"><time>2026-05-01T21:47:29Z</time></trkpt><trkpt lat="47.717174" lon="13.405707"><time>2026-05-01T21:47:39Z</time></trkpt><trkpt lat="47.717089" lon="13.405646"><time>2026-05-01T21:47:49Z</time></trkpt><trkpt lat="47.716989" lon="13.405801"><time>2026-05-01T21:47:59Z</time></trkpt><trkpt lat="47.71696" lon="13.406104"><time>2026-05-01T21:48:09Z</time></trkpt><trkpt lat="47.716982" lon="13.406581"><time>2026-05-01T21:48:19Z</time></trkpt><trkpt lat="47.717047" lon="13.406882"><time>2026-05-01T21:48:29Z</time></trkpt><trkpt lat="47.717031" lon="13.407148"><time>2026-05-01T21:48:39Z</time></trkpt><trkpt lat="47.716964" lon="13.407362"><time>2026-05-01T21:48:49Z</time></trkpt><trkpt lat="47.716874" lon="13.407381"><time>2026-05-01T21:48:59Z</time></trkpt><trkpt lat="47.716701" lon="13.407081"><time>2026-05-01T21:49:09Z</time></trkpt><trkpt lat="47.716603" lon="13.406963"><time>2026-05-01T21:49:19Z</time></trkpt><trkpt lat="47.716542" lon="13.406968"><time>2026-05-01T21:49:29Z</time></trkpt><trkpt lat="47.716499" lon="13.407067"><time>2026-05-01T21:49:39Z</time></trkpt><trkpt lat="47.716457" lon="13.407644"><time>2026-05-01T21:49:49Z</time></trkpt><trkpt lat="47.716419" lon="13.407751"><time>2026-05-01T21:49:59Z</time></trkpt><trkpt lat="47.716307" lon="13.407824"><time>2026-05-01T21:50:09Z</time></trkpt><trkpt lat="47.716148" lon="13.407826"><time>2026-05-01T21:50:19Z</time></trkpt><trkpt lat="47.71608" lon="13.407967"><time>2026-05-01T21:50:29Z</time></trkpt><trkpt lat="47.715697" lon="13.409025"><time>2026-05-01T21:50:39Z</time></trkpt><trkpt lat="47.715695" lon="13.409029"><time>2026-05-01T21:50:49Z</time></trkpt><trkpt lat="47.715286" lon="13.409768"><time>2026-05-01T21:50:59Z</time></trkpt><trkpt lat="47.714824" lon="13.410299"><time>2026-05-01T21:51:09Z</time></trkpt><trkpt lat="47.714546" lon="13.410573"><time>2026-05-01T21:51:19Z</time></trkpt><trkpt lat="47.714377" lon="13.410638"><time>2026-05-01T21:51:29Z</time></trkpt><trkpt lat="47.714156" lon="13.410651"><time>2026-05-01T21:51:39Z</time></trkpt><trkpt lat="47.71376" lon="13.410622"><time>2026-05-01T21:51:49Z</time></trkpt><trkpt lat="47.713646" lon="13.410641"><time>2026-05-01T21:51:59Z</time></trkpt><trkpt lat="47.713551" lon="13.410747"><time>2026-05-01T21:52:09Z</time></trkpt><trkpt lat="47.713539" lon="13.411175"><time>2026-05-01T21:52:19Z</time></trkpt><trkpt lat="47.713492" lon="13.411458"><time>2026-05-01T21:52:29Z</time></trkpt><trkpt lat="47.713291" lon="13.411929"><time>2026-05-01T21:52:39Z</time></trkpt><trkpt lat="47.713185" lon="13.412074"><time>2026-05-01T21:52:49Z</time></trkpt><trkpt lat="47.713039" lon="13.412172"><time>2026-05-01T21:52:59Z</time></trkpt><trkpt lat="47.71277" lon="13.412382"><time>2026-05-01T21:53:09Z</time></trkpt><trkpt lat="47.71249" lon="13.412426"><time>2026-05-01T21:53:19Z</time></trkpt><trkpt lat="47.712136" lon="13.412909"><time>2026-05-01T21:53:29Z</time></trkpt><trkpt lat="47.71163" lon="13.413027"><time>2026-05-01T21:53:39Z</time></trkpt><trkpt lat="47.711593" lon="13.413292"><time>2026-05-01T21:53:49Z</time></trkpt><trkpt lat="47.71177" lon="13.413595"><time>2026-05-01T21:53:59Z</time></trkpt><trkpt lat="47.712041" lon="13.413839"><time>2026-05-01T21:54:09Z</time></trkpt><trkpt lat="47.712425" lon="13.413864"><time>2026-05-01T21:54:19Z</time></trkpt><trkpt lat="47.71296" lon="13.414143"><time>2026-05-01T21:54:29Z</time></trkpt><trkpt lat="47.71334" lon="13.413835"><time>2026-05-01T21:54:39Z</time></trkpt><trkpt lat="47.714174" lon="13.413834"><time>2026-05-01T21:54:49Z</time></trkpt><trkpt lat="47.714324" lon="13.413679"><time>2026-05-01T21:54:59Z</time></trkpt><trkpt lat="47.714317" lon="13.4134"><time>2026-05-01T21:55:09Z</time></trkpt><trkpt lat="47.71438" lon="13.413185"><time>2026-05-01T21:55:19Z</time></trkpt><trkpt lat="47.714535" lon="13.413113"><time>2026-05-01T21:55:29Z</time></trkpt><trkpt lat="47.714815" lon="13.413421"><time>2026-05-01T21:55:39Z</time></trkpt><trkpt lat="47.714923" lon="13.414054"><time>2026-05-01T21:55:49Z</time></trkpt><trkpt lat="47.715104" lon="13.414309"><time>2026-05-01T21:55:59Z</time></trkpt><trkpt lat="47.71553" lon="13.414452"><time>2026-05-01T21:56:09Z</time></trkpt><trkpt lat="47.715725" lon="13.414178"><time>2026-05-01T21:56:19Z</time></trkpt><trkpt lat="47.716083" lon="13.413813"><time>2026-05-01T21:56:29Z</time></trkpt><trkpt lat="47.716384" lon="13.41361"><time>2026-05-01T21:56:39Z</time></trkpt><trkpt lat="47.716989" lon="13.413469"><time>2026-05-01T21:56:49Z</time></trkpt><trkpt lat="47.717842" lon="13.413528"><time>2026-05-01T21:56:59Z</time></trkpt><trkpt lat="47.718158" lon="13.414328"><time>2026-05-01T21:57:09Z</time></trkpt><trkpt lat="47.718233" lon="13.414456"><time>2026-05-01T21:57:19Z</time></trkpt><trkpt lat="47.71833" lon="13.414479"><time>2026-05-01T21:57:29Z</time></trkpt><trkpt lat="47.718626" lon="13.414523"><time>2026-05-01T21:57:39Z</time></trkpt><trkpt lat="47.718884" lon="13.414461"><time>2026-05-01T21:57:49Z</time></trkpt><trkpt lat="47.719417" lon="13.414353"><time>2026-05-01T21:57:59Z</time></trkpt><trkpt lat="47.719508" lon="13.414198"><time>2026-05-01T21:58:09Z</time></trkpt><trkpt lat="47.71964" lon="13.413402"><time>2026-05-01T21:58:19Z</time></trkpt><trkpt lat="47.719773" lon="13.413305"><time>2026-05-01T21:58:29Z</time></trkpt><trkpt lat="47.720316" lon="13.413353"><time>2026-05-01T21:58:39Z</time></trkpt><trkpt lat="47.72106" lon="13.413006"><time>2026-05-01T21:58:49Z</time></trkpt><trkpt lat="47.721488" lon="13.413111"><time>2026-05-01T21:58:59Z</time></trkpt><trkpt lat="47.721957" lon="13.412947"><time>2026-05-01T21:59:09Z</time></trkpt><trkpt lat="47.722071" lon="13.412953"><time>2026-05-01T21:59:19Z</time></trkpt><trkpt lat="47.722437" lon="13.412971"><time>2026-05-01T21:59:29Z</time></trkpt><trkpt lat="47.723267" lon="13.41254"><time>2026-05-01T21:59:39Z</time></trkpt><trkpt lat="47.723695" lon="13.412217"><time>2026-05-01T21:59:49Z</time></trkpt><trkpt lat="47.724036" lon="13.412081"><time>2026-05-01T21:59:59Z</time></trkpt><trkpt lat="47.724836" lon="13.411604"><time>2026-05-01T22:00:09Z</time></trkpt><trkpt lat="47.725337" lon="13.41152"><time>2026-05-01T22:00:19Z</time></trkpt><trkpt lat="47.725384" lon="13.411433"><time>2026-05-01T22:00:29Z</time></trkpt><trkpt lat="47.72558" lon="13.411132"><time>2026-05-01T22:00:39Z</time></trkpt><trkpt lat="47.725862" lon="13.410651"><time>2026-05-01T22:00:49Z</time></trkpt><trkpt lat="47.726243" lon="13.410554"><time>2026-05-01T22:00:59Z</time></trkpt><trkpt lat="47.726447" lon="13.410528"><time>2026-05-01T22:01:09Z</time></trkpt><trkpt lat="47.726579" lon="13.410534"><time>2026-05-01T22:01:19Z</time></trkpt><trkpt lat="47.726821" lon="13.410647"><time>2026-05-01T22:01:29Z</time></trkpt><trkpt lat="47.727022" lon="13.410912"><time>2026-05-01T22:01:39Z</time></trkpt><trkpt lat="47.727135" lon="13.411305"><time>2026-05-01T22:01:49Z</time></trkpt><trkpt lat="47.727181" lon="13.411644"><time>2026-05-01T22:01:59Z</time></trkpt><trkpt lat="47.727118" lon="13.412005"><time>2026-05-01T22:02:09Z</time></trkpt><trkpt lat="47.727008" lon="13.413324"><time>2026-05-01T22:02:19Z</time></trkpt><trkpt lat="47.727054" lon="13.4137"><time>2026-05-01T22:02:29Z</time></trkpt><trkpt lat="47.726974" lon="13.413708"><time>2026-05-01T22:02:39Z</time></trkpt><trkpt lat="47.726879" lon="13.414072"><time>2026-05-01T22:02:49Z</time></trkpt><trkpt lat="47.726988" lon="13.414049"><time>2026-05-01T22:02:59Z</time></trkpt><trkpt lat="47.727065" lon="13.414082"><time>2026-05-01T22:03:09Z</time></trkpt><trkpt lat="47.72708" lon="13.414098"><time>2026-05-01T22:03:19Z</time></trkpt><trkpt lat="47.727129" lon="13.414168"><time>2026-05-01T22:03:29Z</time></trkpt></trkseg></trk></gpx>