<gpx xmlns="http://www.topografix.com/GPX/1/1" xmlns:xsi="http://www.w3.org/2001/XMLSchema-instance" xmlns:geo="http://www.w3.org/2003/01/geo/wgs84_pos#" xmlns:georss="http://www.georss.org/georss" xmlns:ec="urn:schemas-econtent:rss" version="1.1" creator="TOURDATA" xsi:schemaLocation="http://www.topografix.com/GPX/1/1 http://www.topografix.com/GPX/1/1/gpx.xsd"><metadata><name>Wanderweg Lueg</name><link href="https://www.oberoesterreich.at/oesterreich-tour/detail/430008725/wanderweg-lueg.html"/></metadata><trk><name>Wanderweg Lueg</name><trkseg><trkpt lat="47.761844" lon="13.368355"><time>2026-04-24T20:47:32Z</time></trkpt><trkpt lat="47.76189" lon="13.368381"><time>2026-04-24T20:47:42Z</time></trkpt><trkpt lat="47.762277" lon="13.368495"><time>2026-04-24T20:47:52Z</time></trkpt><trkpt lat="47.763438" lon="13.368227"><time>2026-04-24T20:48:02Z</time></trkpt><trkpt lat="47.763695" lon="13.368138"><time>2026-04-24T20:48:12Z</time></trkpt><trkpt lat="47.763866" lon="13.36807"><time>2026-04-24T20:48:22Z</time></trkpt><trkpt lat="47.763934" lon="13.368041"><time>2026-04-24T20:48:32Z</time></trkpt><trkpt lat="47.764299" lon="13.367884"><time>2026-04-24T20:48:42Z</time></trkpt><trkpt lat="47.764839" lon="13.367591"><time>2026-04-24T20:48:52Z</time></trkpt><trkpt lat="47.76486" lon="13.367703"><time>2026-04-24T20:49:02Z</time></trkpt><trkpt lat="47.765093" lon="13.367652"><time>2026-04-24T20:49:12Z</time></trkpt><trkpt lat="47.765233" lon="13.367668"><time>2026-04-24T20:49:22Z</time></trkpt><trkpt lat="47.765332" lon="13.367702"><time>2026-04-24T20:49:32Z</time></trkpt><trkpt lat="47.76548" lon="13.36784"><time>2026-04-24T20:49:42Z</time></trkpt><trkpt lat="47.765517" lon="13.367743"><time>2026-04-24T20:49:52Z</time></trkpt><trkpt lat="47.765558" lon="13.367496"><time>2026-04-24T20:50:02Z</time></trkpt><trkpt lat="47.765642" lon="13.366924"><time>2026-04-24T20:50:12Z</time></trkpt><trkpt lat="47.765692" lon="13.366801"><time>2026-04-24T20:50:22Z</time></trkpt><trkpt lat="47.765721" lon="13.366557"><time>2026-04-24T20:50:32Z</time></trkpt><trkpt lat="47.765713" lon="13.366357"><time>2026-04-24T20:50:42Z</time></trkpt><trkpt lat="47.76574" lon="13.366356"><time>2026-04-24T20:50:52Z</time></trkpt><trkpt lat="47.765913" lon="13.36635"><time>2026-04-24T20:51:02Z</time></trkpt><trkpt lat="47.766005" lon="13.366167"><time>2026-04-24T20:51:12Z</time></trkpt><trkpt lat="47.766014" lon="13.365214"><time>2026-04-24T20:51:22Z</time></trkpt><trkpt lat="47.766295" lon="13.365024"><time>2026-04-24T20:51:32Z</time></trkpt><trkpt lat="47.766399" lon="13.365035"><time>2026-04-24T20:51:42Z</time></trkpt><trkpt lat="47.766706" lon="13.365068"><time>2026-04-24T20:51:52Z</time></trkpt><trkpt lat="47.766747" lon="13.364861"><time>2026-04-24T20:52:02Z</time></trkpt><trkpt lat="47.766795" lon="13.364678"><time>2026-04-24T20:52:12Z</time></trkpt><trkpt lat="47.766882" lon="13.364283"><time>2026-04-24T20:52:22Z</time></trkpt><trkpt lat="47.766901" lon="13.364193"><time>2026-04-24T20:52:32Z</time></trkpt><trkpt lat="47.766993" lon="13.364054"><time>2026-04-24T20:52:42Z</time></trkpt><trkpt lat="47.767004" lon="13.363889"><time>2026-04-24T20:52:52Z</time></trkpt><trkpt lat="47.766989" lon="13.363837"><time>2026-04-24T20:53:02Z</time></trkpt><trkpt lat="47.766744" lon="13.363751"><time>2026-04-24T20:53:12Z</time></trkpt><trkpt lat="47.766674" lon="13.363721"><time>2026-04-24T20:53:22Z</time></trkpt><trkpt lat="47.766408" lon="13.363605"><time>2026-04-24T20:53:32Z</time></trkpt><trkpt lat="47.766164" lon="13.363563"><time>2026-04-24T20:53:42Z</time></trkpt><trkpt lat="47.765979" lon="13.363541"><time>2026-04-24T20:53:52Z</time></trkpt><trkpt lat="47.765931" lon="13.363408"><time>2026-04-24T20:54:02Z</time></trkpt><trkpt lat="47.765904" lon="13.363335"><time>2026-04-24T20:54:12Z</time></trkpt><trkpt lat="47.765888" lon="13.363288"><time>2026-04-24T20:54:22Z</time></trkpt><trkpt lat="47.765852" lon="13.363288"><time>2026-04-24T20:54:32Z</time></trkpt><trkpt lat="47.765408" lon="13.363612"><time>2026-04-24T20:54:42Z</time></trkpt><trkpt lat="47.765366" lon="13.363675"><time>2026-04-24T20:54:52Z</time></trkpt><trkpt lat="47.765262" lon="13.363754"><time>2026-04-24T20:55:02Z</time></trkpt><trkpt lat="47.76509" lon="13.363884"><time>2026-04-24T20:55:12Z</time></trkpt><trkpt lat="47.765012" lon="13.363948"><time>2026-04-24T20:55:22Z</time></trkpt><trkpt lat="47.765026" lon="13.363993"><time>2026-04-24T20:55:32Z</time></trkpt><trkpt lat="47.764894" lon="13.364095"><time>2026-04-24T20:55:42Z</time></trkpt><trkpt lat="47.764752" lon="13.364203"><time>2026-04-24T20:55:52Z</time></trkpt><trkpt lat="47.764659" lon="13.364275"><time>2026-04-24T20:56:02Z</time></trkpt><trkpt lat="47.764483" lon="13.364405"><time>2026-04-24T20:56:12Z</time></trkpt><trkpt lat="47.764371" lon="13.364488"><time>2026-04-24T20:56:22Z</time></trkpt><trkpt lat="47.764295" lon="13.364543"><time>2026-04-24T20:56:32Z</time></trkpt><trkpt lat="47.764262" lon="13.3645"><time>2026-04-24T20:56:42Z</time></trkpt><trkpt lat="47.764142" lon="13.364539"><time>2026-04-24T20:56:52Z</time></trkpt><trkpt lat="47.764037" lon="13.364629"><time>2026-04-24T20:57:02Z</time></trkpt><trkpt lat="47.764007" lon="13.364654"><time>2026-04-24T20:57:12Z</time></trkpt><trkpt lat="47.763973" lon="13.364721"><time>2026-04-24T20:57:22Z</time></trkpt><trkpt lat="47.763997" lon="13.364788"><time>2026-04-24T20:57:32Z</time></trkpt><trkpt lat="47.763449" lon="13.365227"><time>2026-04-24T20:57:42Z</time></trkpt><trkpt lat="47.763016" lon="13.365743"><time>2026-04-24T20:57:52Z</time></trkpt><trkpt lat="47.762995" lon="13.365827"><time>2026-04-24T20:58:02Z</time></trkpt><trkpt lat="47.76299" lon="13.365836"><time>2026-04-24T20:58:12Z</time></trkpt><trkpt lat="47.76294" lon="13.365752"><time>2026-04-24T20:58:22Z</time></trkpt><trkpt lat="47.762204" lon="13.365771"><time>2026-04-24T20:58:32Z</time></trkpt><trkpt lat="47.761968" lon="13.366005"><time>2026-04-24T20:58:42Z</time></trkpt><trkpt lat="47.761538" lon="13.366323"><time>2026-04-24T20:58:52Z</time></trkpt><trkpt lat="47.761025" lon="13.366611"><time>2026-04-24T20:59:02Z</time></trkpt><trkpt lat="47.760554" lon="13.367162"><time>2026-04-24T20:59:12Z</time></trkpt><trkpt lat="47.760555" lon="13.367205"><time>2026-04-24T20:59:22Z</time></trkpt><trkpt lat="47.760504" lon="13.367222"><time>2026-04-24T20:59:32Z</time></trkpt><trkpt lat="47.760504" lon="13.367248"><time>2026-04-24T20:59:42Z</time></trkpt><trkpt lat="47.760504" lon="13.36733"><time>2026-04-24T20:59:52Z</time></trkpt><trkpt lat="47.760508" lon="13.367435"><time>2026-04-24T21:00:02Z</time></trkpt><trkpt lat="47.760516" lon="13.367672"><time>2026-04-24T21:00:12Z</time></trkpt><trkpt lat="47.760241" lon="13.367638"><time>2026-04-24T21:00:22Z</time></trkpt><trkpt lat="47.7595" lon="13.368171"><time>2026-04-24T21:00:32Z</time></trkpt><trkpt lat="47.758724" lon="13.368622"><time>2026-04-24T21:00:42Z</time></trkpt><trkpt lat="47.75851" lon="13.368816"><time>2026-04-24T21:00:52Z</time></trkpt><trkpt lat="47.758327" lon="13.369063"><time>2026-04-24T21:01:02Z</time></trkpt><trkpt lat="47.757911" lon="13.369758"><time>2026-04-24T21:01:12Z</time></trkpt><trkpt lat="47.757773" lon="13.369937"><time>2026-04-24T21:01:22Z</time></trkpt><trkpt lat="47.757612" lon="13.370071"><time>2026-04-24T21:01:32Z</time></trkpt><trkpt lat="47.757193" lon="13.370347"><time>2026-04-24T21:01:42Z</time></trkpt><trkpt lat="47.756973" lon="13.370454"><time>2026-04-24T21:01:52Z</time></trkpt><trkpt lat="47.756498" lon="13.370588"><time>2026-04-24T21:02:02Z</time></trkpt><trkpt lat="47.756358" lon="13.370655"><time>2026-04-24T21:02:12Z</time></trkpt><trkpt lat="47.7562" lon="13.370811"><time>2026-04-24T21:02:22Z</time></trkpt><trkpt lat="47.755762" lon="13.371547"><time>2026-04-24T21:02:32Z</time></trkpt><trkpt lat="47.755341" lon="13.371985"><time>2026-04-24T21:02:42Z</time></trkpt><trkpt lat="47.754648" lon="13.372363"><time>2026-04-24T21:02:52Z</time></trkpt><trkpt lat="47.754445" lon="13.37242"><time>2026-04-24T21:03:02Z</time></trkpt><trkpt lat="47.754348" lon="13.37242"><time>2026-04-24T21:03:12Z</time></trkpt><trkpt lat="47.754221" lon="13.372419"><time>2026-04-24T21:03:22Z</time></trkpt><trkpt lat="47.753867" lon="13.372313"><time>2026-04-24T21:03:32Z</time></trkpt><trkpt lat="47.75374" lon="13.372161"><time>2026-04-24T21:03:42Z</time></trkpt><trkpt lat="47.753687" lon="13.372026"><time>2026-04-24T21:03:52Z</time></trkpt><trkpt lat="47.753853" lon="13.371921"><time>2026-04-24T21:04:02Z</time></trkpt><trkpt lat="47.753897" lon="13.371893"><time>2026-04-24T21:04:12Z</time></trkpt><trkpt lat="47.754051" lon="13.37191"><time>2026-04-24T21:04:22Z</time></trkpt><trkpt lat="47.754302" lon="13.371942"><time>2026-04-24T21:04:32Z</time></trkpt><trkpt lat="47.754636" lon="13.371931"><time>2026-04-24T21:04:42Z</time></trkpt><trkpt lat="47.754831" lon="13.371873"><time>2026-04-24T21:04:52Z</time></trkpt><trkpt lat="47.754969" lon="13.371832"><time>2026-04-24T21:05:02Z</time></trkpt><trkpt lat="47.755141" lon="13.371743"><time>2026-04-24T21:05:12Z</time></trkpt><trkpt lat="47.755378" lon="13.371561"><time>2026-04-24T21:05:22Z</time></trkpt><trkpt lat="47.75546" lon="13.37149"><time>2026-04-24T21:05:32Z</time></trkpt><trkpt lat="47.755748" lon="13.371239"><time>2026-04-24T21:05:42Z</time></trkpt><trkpt lat="47.755886" lon="13.371095"><time>2026-04-24T21:05:52Z</time></trkpt><trkpt lat="47.756155" lon="13.370692"><time>2026-04-24T21:06:02Z</time></trkpt><trkpt lat="47.756309" lon="13.370549"><time>2026-04-24T21:06:12Z</time></trkpt><trkpt lat="47.756924" lon="13.370293"><time>2026-04-24T21:06:22Z</time></trkpt><trkpt lat="47.757368" lon="13.36999"><time>2026-04-24T21:06:32Z</time></trkpt><trkpt lat="47.757594" lon="13.369794"><time>2026-04-24T21:06:42Z</time></trkpt><trkpt lat="47.757947" lon="13.369449"><time>2026-04-24T21:06:52Z</time></trkpt><trkpt lat="47.758477" lon="13.368713"><time>2026-04-24T21:07:02Z</time></trkpt><trkpt lat="47.758657" lon="13.368499"><time>2026-04-24T21:07:12Z</time></trkpt><trkpt lat="47.759032" lon="13.368244"><time>2026-04-24T21:07:22Z</time></trkpt><trkpt lat="47.759524" lon="13.36808"><time>2026-04-24T21:07:32Z</time></trkpt><trkpt lat="47.760022" lon="13.367703"><time>2026-04-24T21:07:42Z</time></trkpt><trkpt lat="47.760155" lon="13.367636"><time>2026-04-24T21:07:52Z</time></trkpt><trkpt lat="47.760241" lon="13.367638"><time>2026-04-24T21:08:02Z</time></trkpt><trkpt lat="47.760516" lon="13.367672"><time>2026-04-24T21:08:12Z</time></trkpt><trkpt lat="47.760758" lon="13.3677"><time>2026-04-24T21:08:22Z</time></trkpt><trkpt lat="47.761158" lon="13.367911"><time>2026-04-24T21:08:32Z</time></trkpt><trkpt lat="47.761512" lon="13.368174"><time>2026-04-24T21:08:42Z</time></trkpt><trkpt lat="47.761844" lon="13.368355"><time>2026-04-24T21:08:52Z</time></trkpt></trkseg></trk></gpx>