<gpx xmlns="http://www.topografix.com/GPX/1/1" xmlns:xsi="http://www.w3.org/2001/XMLSchema-instance" xmlns:geo="http://www.w3.org/2003/01/geo/wgs84_pos#" xmlns:georss="http://www.georss.org/georss" xmlns:ec="urn:schemas-econtent:rss" version="1.1" creator="TOURDATA" xsi:schemaLocation="http://www.topografix.com/GPX/1/1 http://www.topografix.com/GPX/1/1/gpx.xsd"><metadata><name>Fürberg Runde</name><link href="https://www.oberoesterreich.at/oesterreich-tour/detail/430006289/fuerberg-runde.html"/></metadata><trk><name>Fürberg Runde</name><trkseg><trkpt lat="47.76702233" lon="13.36534023"><time>2026-04-30T21:28:02Z</time></trkpt><trkpt lat="47.76702" lon="13.36534"><time>2026-04-30T21:28:12Z</time></trkpt><trkpt lat="47.76714" lon="13.36542"><time>2026-04-30T21:28:22Z</time></trkpt><trkpt lat="47.76731" lon="13.36555"><time>2026-04-30T21:28:32Z</time></trkpt><trkpt lat="47.76737" lon="13.36558"><time>2026-04-30T21:28:42Z</time></trkpt><trkpt lat="47.76747" lon="13.36595"><time>2026-04-30T21:28:52Z</time></trkpt><trkpt lat="47.76761" lon="13.36634"><time>2026-04-30T21:29:02Z</time></trkpt><trkpt lat="47.76793" lon="13.36684"><time>2026-04-30T21:29:12Z</time></trkpt><trkpt lat="47.76828" lon="13.36731"><time>2026-04-30T21:29:22Z</time></trkpt><trkpt lat="47.76844" lon="13.36744"><time>2026-04-30T21:29:32Z</time></trkpt><trkpt lat="47.76861" lon="13.36754"><time>2026-04-30T21:29:42Z</time></trkpt><trkpt lat="47.76878" lon="13.36762"><time>2026-04-30T21:29:52Z</time></trkpt><trkpt lat="47.76892" lon="13.36768"><time>2026-04-30T21:30:02Z</time></trkpt><trkpt lat="47.76912" lon="13.36775"><time>2026-04-30T21:30:12Z</time></trkpt><trkpt lat="47.76926" lon="13.36779"><time>2026-04-30T21:30:22Z</time></trkpt><trkpt lat="47.76936" lon="13.36783"><time>2026-04-30T21:30:32Z</time></trkpt><trkpt lat="47.76943" lon="13.36786"><time>2026-04-30T21:30:42Z</time></trkpt><trkpt lat="47.76944" lon="13.36786"><time>2026-04-30T21:30:52Z</time></trkpt><trkpt lat="47.76959" lon="13.36793"><time>2026-04-30T21:31:02Z</time></trkpt><trkpt lat="47.7697" lon="13.368"><time>2026-04-30T21:31:12Z</time></trkpt><trkpt lat="47.76993" lon="13.36813"><time>2026-04-30T21:31:22Z</time></trkpt><trkpt lat="47.76999" lon="13.36816"><time>2026-04-30T21:31:32Z</time></trkpt><trkpt lat="47.77011" lon="13.36831"><time>2026-04-30T21:31:42Z</time></trkpt><trkpt lat="47.77018" lon="13.3684"><time>2026-04-30T21:31:52Z</time></trkpt><trkpt lat="47.77038" lon="13.36866"><time>2026-04-30T21:32:02Z</time></trkpt><trkpt lat="47.77046" lon="13.36878"><time>2026-04-30T21:32:12Z</time></trkpt><trkpt lat="47.77072" lon="13.36915"><time>2026-04-30T21:32:22Z</time></trkpt><trkpt lat="47.77088" lon="13.36942"><time>2026-04-30T21:32:32Z</time></trkpt><trkpt lat="47.77088" lon="13.36941"><time>2026-04-30T21:32:42Z</time></trkpt><trkpt lat="47.77093" lon="13.3695"><time>2026-04-30T21:32:52Z</time></trkpt><trkpt lat="47.77099" lon="13.36962"><time>2026-04-30T21:33:02Z</time></trkpt><trkpt lat="47.77102" lon="13.36978"><time>2026-04-30T21:33:12Z</time></trkpt><trkpt lat="47.77112" lon="13.37038"><time>2026-04-30T21:33:22Z</time></trkpt><trkpt lat="47.77123" lon="13.37065"><time>2026-04-30T21:33:32Z</time></trkpt><trkpt lat="47.77129" lon="13.37077"><time>2026-04-30T21:33:42Z</time></trkpt><trkpt lat="47.77149" lon="13.37089"><time>2026-04-30T21:33:52Z</time></trkpt><trkpt lat="47.77187" lon="13.37085"><time>2026-04-30T21:34:02Z</time></trkpt><trkpt lat="47.77225" lon="13.37084"><time>2026-04-30T21:34:12Z</time></trkpt><trkpt lat="47.77255" lon="13.37093"><time>2026-04-30T21:34:22Z</time></trkpt><trkpt lat="47.77274" lon="13.37112"><time>2026-04-30T21:34:32Z</time></trkpt><trkpt lat="47.77294" lon="13.3714"><time>2026-04-30T21:34:42Z</time></trkpt><trkpt lat="47.77309" lon="13.37183"><time>2026-04-30T21:34:52Z</time></trkpt><trkpt lat="47.77317" lon="13.37217"><time>2026-04-30T21:35:02Z</time></trkpt><trkpt lat="47.77326" lon="13.37275"><time>2026-04-30T21:35:12Z</time></trkpt><trkpt lat="47.77333" lon="13.3729"><time>2026-04-30T21:35:22Z</time></trkpt><trkpt lat="47.77343" lon="13.37302"><time>2026-04-30T21:35:32Z</time></trkpt><trkpt lat="47.77364" lon="13.37322"><time>2026-04-30T21:35:42Z</time></trkpt><trkpt lat="47.77383" lon="13.37334"><time>2026-04-30T21:35:52Z</time></trkpt><trkpt lat="47.77399" lon="13.37339"><time>2026-04-30T21:36:02Z</time></trkpt><trkpt lat="47.77407" lon="13.37346"><time>2026-04-30T21:36:12Z</time></trkpt><trkpt lat="47.77415" lon="13.37357"><time>2026-04-30T21:36:22Z</time></trkpt><trkpt lat="47.77423" lon="13.3737"><time>2026-04-30T21:36:32Z</time></trkpt><trkpt lat="47.77425" lon="13.37379"><time>2026-04-30T21:36:42Z</time></trkpt><trkpt lat="47.7744" lon="13.3741"><time>2026-04-30T21:36:52Z</time></trkpt><trkpt lat="47.77443" lon="13.37422"><time>2026-04-30T21:37:02Z</time></trkpt><trkpt lat="47.77443" lon="13.37447"><time>2026-04-30T21:37:12Z</time></trkpt><trkpt lat="47.7745" lon="13.37487"><time>2026-04-30T21:37:22Z</time></trkpt><trkpt lat="47.77453" lon="13.37508"><time>2026-04-30T21:37:32Z</time></trkpt><trkpt lat="47.77453" lon="13.37507"><time>2026-04-30T21:37:42Z</time></trkpt><trkpt lat="47.77455" lon="13.37525"><time>2026-04-30T21:37:52Z</time></trkpt><trkpt lat="47.77453" lon="13.37552"><time>2026-04-30T21:38:02Z</time></trkpt><trkpt lat="47.7745" lon="13.37571"><time>2026-04-30T21:38:12Z</time></trkpt><trkpt lat="47.77445" lon="13.37584"><time>2026-04-30T21:38:22Z</time></trkpt><trkpt lat="47.77436" lon="13.37593"><time>2026-04-30T21:38:32Z</time></trkpt><trkpt lat="47.77432" lon="13.37592"><time>2026-04-30T21:38:42Z</time></trkpt><trkpt lat="47.77419" lon="13.37587"><time>2026-04-30T21:38:52Z</time></trkpt><trkpt lat="47.77415" lon="13.37586"><time>2026-04-30T21:39:02Z</time></trkpt><trkpt lat="47.77409" lon="13.37586"><time>2026-04-30T21:39:12Z</time></trkpt><trkpt lat="47.77408" lon="13.37586"><time>2026-04-30T21:39:22Z</time></trkpt><trkpt lat="47.77404" lon="13.37588"><time>2026-04-30T21:39:32Z</time></trkpt><trkpt lat="47.77383" lon="13.37607"><time>2026-04-30T21:39:42Z</time></trkpt><trkpt lat="47.77369" lon="13.37618"><time>2026-04-30T21:39:52Z</time></trkpt><trkpt lat="47.77362" lon="13.37628"><time>2026-04-30T21:40:02Z</time></trkpt><trkpt lat="47.77356" lon="13.37631"><time>2026-04-30T21:40:12Z</time></trkpt><trkpt lat="47.77348" lon="13.37624"><time>2026-04-30T21:40:22Z</time></trkpt><trkpt lat="47.77332" lon="13.37629"><time>2026-04-30T21:40:32Z</time></trkpt><trkpt lat="47.77316" lon="13.37645"><time>2026-04-30T21:40:42Z</time></trkpt><trkpt lat="47.77301" lon="13.37664"><time>2026-04-30T21:40:52Z</time></trkpt><trkpt lat="47.77287" lon="13.37687"><time>2026-04-30T21:41:02Z</time></trkpt><trkpt lat="47.77278" lon="13.37702"><time>2026-04-30T21:41:12Z</time></trkpt><trkpt lat="47.77266" lon="13.37732"><time>2026-04-30T21:41:22Z</time></trkpt><trkpt lat="47.77245" lon="13.37765"><time>2026-04-30T21:41:32Z</time></trkpt><trkpt lat="47.77205" lon="13.37814"><time>2026-04-30T21:41:42Z</time></trkpt><trkpt lat="47.77139" lon="13.37876"><time>2026-04-30T21:41:52Z</time></trkpt><trkpt lat="47.77124" lon="13.37882"><time>2026-04-30T21:42:02Z</time></trkpt><trkpt lat="47.77116" lon="13.3789"><time>2026-04-30T21:42:12Z</time></trkpt><trkpt lat="47.77103" lon="13.37893"><time>2026-04-30T21:42:22Z</time></trkpt><trkpt lat="47.77081" lon="13.37923"><time>2026-04-30T21:42:32Z</time></trkpt><trkpt lat="47.77075" lon="13.37936"><time>2026-04-30T21:42:42Z</time></trkpt><trkpt lat="47.77056" lon="13.37988"><time>2026-04-30T21:42:52Z</time></trkpt><trkpt lat="47.77037" lon="13.38043"><time>2026-04-30T21:43:02Z</time></trkpt><trkpt lat="47.77028" lon="13.38071"><time>2026-04-30T21:43:12Z</time></trkpt><trkpt lat="47.76996" lon="13.38199"><time>2026-04-30T21:43:22Z</time></trkpt><trkpt lat="47.76961" lon="13.38322"><time>2026-04-30T21:43:32Z</time></trkpt><trkpt lat="47.76942" lon="13.38372"><time>2026-04-30T21:43:42Z</time></trkpt><trkpt lat="47.76925" lon="13.38405"><time>2026-04-30T21:43:52Z</time></trkpt><trkpt lat="47.76887" lon="13.38521"><time>2026-04-30T21:44:02Z</time></trkpt><trkpt lat="47.7685" lon="13.38611"><time>2026-04-30T21:44:12Z</time></trkpt><trkpt lat="47.76848" lon="13.38614"><time>2026-04-30T21:44:22Z</time></trkpt><trkpt lat="47.76814" lon="13.38675"><time>2026-04-30T21:44:32Z</time></trkpt><trkpt lat="47.76807" lon="13.38703"><time>2026-04-30T21:44:42Z</time></trkpt><trkpt lat="47.76803" lon="13.38726"><time>2026-04-30T21:44:52Z</time></trkpt><trkpt lat="47.76802" lon="13.38732"><time>2026-04-30T21:45:02Z</time></trkpt><trkpt lat="47.76802" lon="13.38738"><time>2026-04-30T21:45:12Z</time></trkpt><trkpt lat="47.76802" lon="13.38746"><time>2026-04-30T21:45:22Z</time></trkpt><trkpt lat="47.76804" lon="13.38758"><time>2026-04-30T21:45:32Z</time></trkpt><trkpt lat="47.76805" lon="13.38761"><time>2026-04-30T21:45:42Z</time></trkpt><trkpt lat="47.76812" lon="13.38792"><time>2026-04-30T21:45:52Z</time></trkpt><trkpt lat="47.76816" lon="13.38814"><time>2026-04-30T21:46:02Z</time></trkpt><trkpt lat="47.76816" lon="13.38831"><time>2026-04-30T21:46:12Z</time></trkpt><trkpt lat="47.76815" lon="13.38839"><time>2026-04-30T21:46:22Z</time></trkpt><trkpt lat="47.76814" lon="13.38848"><time>2026-04-30T21:46:32Z</time></trkpt><trkpt lat="47.76806" lon="13.38874"><time>2026-04-30T21:46:42Z</time></trkpt><trkpt lat="47.76795" lon="13.389"><time>2026-04-30T21:46:52Z</time></trkpt><trkpt lat="47.76762" lon="13.38948"><time>2026-04-30T21:47:02Z</time></trkpt><trkpt lat="47.76756" lon="13.38968"><time>2026-04-30T21:47:12Z</time></trkpt><trkpt lat="47.76753" lon="13.38973"><time>2026-04-30T21:47:22Z</time></trkpt><trkpt lat="47.76756" lon="13.38968"><time>2026-04-30T21:47:32Z</time></trkpt><trkpt lat="47.76749" lon="13.39002"><time>2026-04-30T21:47:42Z</time></trkpt><trkpt lat="47.76734" lon="13.39044"><time>2026-04-30T21:47:52Z</time></trkpt><trkpt lat="47.76726" lon="13.39074"><time>2026-04-30T21:48:02Z</time></trkpt><trkpt lat="47.76726" lon="13.3909"><time>2026-04-30T21:48:12Z</time></trkpt><trkpt lat="47.76732" lon="13.39105"><time>2026-04-30T21:48:22Z</time></trkpt><trkpt lat="47.76738" lon="13.39107"><time>2026-04-30T21:48:32Z</time></trkpt><trkpt lat="47.76749" lon="13.39112"><time>2026-04-30T21:48:42Z</time></trkpt><trkpt lat="47.76746" lon="13.39122"><time>2026-04-30T21:48:52Z</time></trkpt><trkpt lat="47.7674" lon="13.39125"><time>2026-04-30T21:49:02Z</time></trkpt><trkpt lat="47.76746" lon="13.39122"><time>2026-04-30T21:49:12Z</time></trkpt><trkpt lat="47.76749" lon="13.39112"><time>2026-04-30T21:49:22Z</time></trkpt><trkpt lat="47.76761" lon="13.391"><time>2026-04-30T21:49:32Z</time></trkpt><trkpt lat="47.76804" lon="13.3908"><time>2026-04-30T21:49:42Z</time></trkpt><trkpt lat="47.76826" lon="13.39066"><time>2026-04-30T21:49:52Z</time></trkpt><trkpt lat="47.76847" lon="13.39048"><time>2026-04-30T21:50:02Z</time></trkpt><trkpt lat="47.76866" lon="13.39029"><time>2026-04-30T21:50:12Z</time></trkpt><trkpt lat="47.76882" lon="13.39009"><time>2026-04-30T21:50:22Z</time></trkpt><trkpt lat="47.76892" lon="13.38995"><time>2026-04-30T21:50:32Z</time></trkpt><trkpt lat="47.76915" lon="13.38975"><time>2026-04-30T21:50:42Z</time></trkpt><trkpt lat="47.7694" lon="13.3896"><time>2026-04-30T21:50:52Z</time></trkpt><trkpt lat="47.7699" lon="13.38939"><time>2026-04-30T21:51:02Z</time></trkpt><trkpt lat="47.77029" lon="13.38923"><time>2026-04-30T21:51:12Z</time></trkpt><trkpt lat="47.7704" lon="13.38917"><time>2026-04-30T21:51:22Z</time></trkpt><trkpt lat="47.7706" lon="13.38907"><time>2026-04-30T21:51:32Z</time></trkpt><trkpt lat="47.77081" lon="13.38889"><time>2026-04-30T21:51:42Z</time></trkpt><trkpt lat="47.77114" lon="13.38866"><time>2026-04-30T21:51:52Z</time></trkpt><trkpt lat="47.77145" lon="13.38845"><time>2026-04-30T21:52:02Z</time></trkpt><trkpt lat="47.77156" lon="13.38837"><time>2026-04-30T21:52:12Z</time></trkpt><trkpt lat="47.77196" lon="13.3879"><time>2026-04-30T21:52:22Z</time></trkpt><trkpt lat="47.77201" lon="13.38783"><time>2026-04-30T21:52:32Z</time></trkpt><trkpt lat="47.77226" lon="13.38733"><time>2026-04-30T21:52:42Z</time></trkpt><trkpt lat="47.77239" lon="13.3872"><time>2026-04-30T21:52:52Z</time></trkpt><trkpt lat="47.77263" lon="13.38672"><time>2026-04-30T21:53:02Z</time></trkpt><trkpt lat="47.77271" lon="13.38656"><time>2026-04-30T21:53:12Z</time></trkpt><trkpt lat="47.77301" lon="13.38619"><time>2026-04-30T21:53:22Z</time></trkpt><trkpt lat="47.77318" lon="13.38598"><time>2026-04-30T21:53:32Z</time></trkpt><trkpt lat="47.77331" lon="13.38592"><time>2026-04-30T21:53:42Z</time></trkpt><trkpt lat="47.77348" lon="13.38591"><time>2026-04-30T21:53:52Z</time></trkpt><trkpt lat="47.77376" lon="13.38596"><time>2026-04-30T21:54:02Z</time></trkpt><trkpt lat="47.77385" lon="13.38594"><time>2026-04-30T21:54:12Z</time></trkpt><trkpt lat="47.7741" lon="13.38581"><time>2026-04-30T21:54:22Z</time></trkpt><trkpt lat="47.77426" lon="13.38577"><time>2026-04-30T21:54:32Z</time></trkpt><trkpt lat="47.77446" lon="13.38573"><time>2026-04-30T21:54:42Z</time></trkpt><trkpt lat="47.77455" lon="13.38572"><time>2026-04-30T21:54:52Z</time></trkpt><trkpt lat="47.77463" lon="13.3857"><time>2026-04-30T21:55:02Z</time></trkpt><trkpt lat="47.7753" lon="13.38575"><time>2026-04-30T21:55:12Z</time></trkpt><trkpt lat="47.77542" lon="13.38573"><time>2026-04-30T21:55:22Z</time></trkpt><trkpt lat="47.7763" lon="13.38535"><time>2026-04-30T21:55:32Z</time></trkpt><trkpt lat="47.77641" lon="13.38532"><time>2026-04-30T21:55:42Z</time></trkpt><trkpt lat="47.77647" lon="13.38531"><time>2026-04-30T21:55:52Z</time></trkpt><trkpt lat="47.77661" lon="13.38512"><time>2026-04-30T21:56:02Z</time></trkpt><trkpt lat="47.7766" lon="13.38493"><time>2026-04-30T21:56:12Z</time></trkpt><trkpt lat="47.7766" lon="13.38492"><time>2026-04-30T21:56:22Z</time></trkpt><trkpt lat="47.77655" lon="13.38473"><time>2026-04-30T21:56:32Z</time></trkpt><trkpt lat="47.77652" lon="13.38463"><time>2026-04-30T21:56:42Z</time></trkpt><trkpt lat="47.77633" lon="13.38399"><time>2026-04-30T21:56:52Z</time></trkpt><trkpt lat="47.77628" lon="13.38381"><time>2026-04-30T21:57:02Z</time></trkpt><trkpt lat="47.77616" lon="13.38338"><time>2026-04-30T21:57:12Z</time></trkpt><trkpt lat="47.77615" lon="13.38328"><time>2026-04-30T21:57:22Z</time></trkpt><trkpt lat="47.77611" lon="13.38313"><time>2026-04-30T21:57:32Z</time></trkpt><trkpt lat="47.7761" lon="13.38304"><time>2026-04-30T21:57:42Z</time></trkpt><trkpt lat="47.7762" lon="13.38309"><time>2026-04-30T21:57:52Z</time></trkpt><trkpt lat="47.77619" lon="13.38309"><time>2026-04-30T21:58:02Z</time></trkpt><trkpt lat="47.7761" lon="13.38304"><time>2026-04-30T21:58:12Z</time></trkpt><trkpt lat="47.77599" lon="13.38297"><time>2026-04-30T21:58:22Z</time></trkpt><trkpt lat="47.77598" lon="13.38285"><time>2026-04-30T21:58:32Z</time></trkpt><trkpt lat="47.77598" lon="13.38282"><time>2026-04-30T21:58:42Z</time></trkpt><trkpt lat="47.77588" lon="13.38247"><time>2026-04-30T21:58:52Z</time></trkpt><trkpt lat="47.77577" lon="13.38213"><time>2026-04-30T21:59:02Z</time></trkpt><trkpt lat="47.77557" lon="13.38152"><time>2026-04-30T21:59:12Z</time></trkpt><trkpt lat="47.77555" lon="13.38146"><time>2026-04-30T21:59:22Z</time></trkpt><trkpt lat="47.77555" lon="13.38145"><time>2026-04-30T21:59:32Z</time></trkpt><trkpt lat="47.7755" lon="13.38134"><time>2026-04-30T21:59:42Z</time></trkpt><trkpt lat="47.77542" lon="13.38118"><time>2026-04-30T21:59:52Z</time></trkpt><trkpt lat="47.77528" lon="13.38091"><time>2026-04-30T22:00:02Z</time></trkpt><trkpt lat="47.77512" lon="13.38066"><time>2026-04-30T22:00:12Z</time></trkpt><trkpt lat="47.77484" lon="13.38034"><time>2026-04-30T22:00:22Z</time></trkpt><trkpt lat="47.77483" lon="13.38034"><time>2026-04-30T22:00:32Z</time></trkpt><trkpt lat="47.77476" lon="13.38025"><time>2026-04-30T22:00:42Z</time></trkpt><trkpt lat="47.77473" lon="13.38017"><time>2026-04-30T22:00:52Z</time></trkpt><trkpt lat="47.77473" lon="13.38007"><time>2026-04-30T22:01:02Z</time></trkpt><trkpt lat="47.77473" lon="13.37996"><time>2026-04-30T22:01:12Z</time></trkpt><trkpt lat="47.77474" lon="13.37987"><time>2026-04-30T22:01:22Z</time></trkpt><trkpt lat="47.77477" lon="13.37982"><time>2026-04-30T22:01:32Z</time></trkpt><trkpt lat="47.77508" lon="13.37945"><time>2026-04-30T22:01:42Z</time></trkpt><trkpt lat="47.77515" lon="13.37924"><time>2026-04-30T22:01:52Z</time></trkpt><trkpt lat="47.7752" lon="13.37892"><time>2026-04-30T22:02:02Z</time></trkpt><trkpt lat="47.77524" lon="13.37881"><time>2026-04-30T22:02:12Z</time></trkpt><trkpt lat="47.77531" lon="13.37873"><time>2026-04-30T22:02:22Z</time></trkpt><trkpt lat="47.77535" lon="13.37865"><time>2026-04-30T22:02:32Z</time></trkpt><trkpt lat="47.77548" lon="13.37843"><time>2026-04-30T22:02:42Z</time></trkpt><trkpt lat="47.77557" lon="13.37823"><time>2026-04-30T22:02:52Z</time></trkpt><trkpt lat="47.77562" lon="13.37803"><time>2026-04-30T22:03:02Z</time></trkpt><trkpt lat="47.77565" lon="13.37752"><time>2026-04-30T22:03:12Z</time></trkpt><trkpt lat="47.77564" lon="13.37718"><time>2026-04-30T22:03:22Z</time></trkpt><trkpt lat="47.77556" lon="13.37706"><time>2026-04-30T22:03:32Z</time></trkpt><trkpt lat="47.77548" lon="13.37693"><time>2026-04-30T22:03:42Z</time></trkpt><trkpt lat="47.77548" lon="13.37679"><time>2026-04-30T22:03:52Z</time></trkpt><trkpt lat="47.77543" lon="13.37662"><time>2026-04-30T22:04:02Z</time></trkpt><trkpt lat="47.77535" lon="13.3764"><time>2026-04-30T22:04:12Z</time></trkpt><trkpt lat="47.77535" lon="13.37639"><time>2026-04-30T22:04:22Z</time></trkpt><trkpt lat="47.77534" lon="13.37637"><time>2026-04-30T22:04:32Z</time></trkpt><trkpt lat="47.77524" lon="13.37617"><time>2026-04-30T22:04:42Z</time></trkpt><trkpt lat="47.77506" lon="13.37584"><time>2026-04-30T22:04:52Z</time></trkpt><trkpt lat="47.7749" lon="13.37565"><time>2026-04-30T22:05:02Z</time></trkpt><trkpt lat="47.77484" lon="13.37555"><time>2026-04-30T22:05:12Z</time></trkpt><trkpt lat="47.77479" lon="13.37535"><time>2026-04-30T22:05:22Z</time></trkpt><trkpt lat="47.77481" lon="13.3751"><time>2026-04-30T22:05:32Z</time></trkpt><trkpt lat="47.77479" lon="13.37497"><time>2026-04-30T22:05:42Z</time></trkpt><trkpt lat="47.77478" lon="13.37495"><time>2026-04-30T22:05:52Z</time></trkpt><trkpt lat="47.77477" lon="13.37495"><time>2026-04-30T22:06:02Z</time></trkpt><trkpt lat="47.77462" lon="13.37463"><time>2026-04-30T22:06:12Z</time></trkpt><trkpt lat="47.77447" lon="13.37405"><time>2026-04-30T22:06:22Z</time></trkpt><trkpt lat="47.77437" lon="13.37389"><time>2026-04-30T22:06:32Z</time></trkpt><trkpt lat="47.77423" lon="13.3737"><time>2026-04-30T22:06:42Z</time></trkpt><trkpt lat="47.77415" lon="13.37357"><time>2026-04-30T22:06:52Z</time></trkpt><trkpt lat="47.77414" lon="13.37357"><time>2026-04-30T22:07:02Z</time></trkpt><trkpt lat="47.77407" lon="13.37346"><time>2026-04-30T22:07:12Z</time></trkpt><trkpt lat="47.77399" lon="13.37339"><time>2026-04-30T22:07:22Z</time></trkpt><trkpt lat="47.77383" lon="13.37334"><time>2026-04-30T22:07:32Z</time></trkpt><trkpt lat="47.77364" lon="13.37322"><time>2026-04-30T22:07:42Z</time></trkpt><trkpt lat="47.77343" lon="13.37302"><time>2026-04-30T22:07:52Z</time></trkpt><trkpt lat="47.77339" lon="13.37297"><time>2026-04-30T22:08:02Z</time></trkpt><trkpt lat="47.77339" lon="13.37296"><time>2026-04-30T22:08:12Z</time></trkpt><trkpt lat="47.77333" lon="13.3729"><time>2026-04-30T22:08:22Z</time></trkpt><trkpt lat="47.77326" lon="13.37275"><time>2026-04-30T22:08:32Z</time></trkpt><trkpt lat="47.77317" lon="13.37217"><time>2026-04-30T22:08:42Z</time></trkpt><trkpt lat="47.77309" lon="13.37183"><time>2026-04-30T22:08:52Z</time></trkpt><trkpt lat="47.77294" lon="13.3714"><time>2026-04-30T22:09:02Z</time></trkpt><trkpt lat="47.77281" lon="13.37122"><time>2026-04-30T22:09:12Z</time></trkpt><trkpt lat="47.7728" lon="13.37122"><time>2026-04-30T22:09:22Z</time></trkpt><trkpt lat="47.77274" lon="13.37112"><time>2026-04-30T22:09:32Z</time></trkpt><trkpt lat="47.77255" lon="13.37093"><time>2026-04-30T22:09:42Z</time></trkpt><trkpt lat="47.77225" lon="13.37084"><time>2026-04-30T22:09:52Z</time></trkpt><trkpt lat="47.77187" lon="13.37085"><time>2026-04-30T22:10:02Z</time></trkpt><trkpt lat="47.77149" lon="13.37089"><time>2026-04-30T22:10:12Z</time></trkpt><trkpt lat="47.77129" lon="13.37077"><time>2026-04-30T22:10:22Z</time></trkpt><trkpt lat="47.77128" lon="13.37075"><time>2026-04-30T22:10:32Z</time></trkpt><trkpt lat="47.77128" lon="13.37074"><time>2026-04-30T22:10:42Z</time></trkpt><trkpt lat="47.77123" lon="13.37065"><time>2026-04-30T22:10:52Z</time></trkpt><trkpt lat="47.77112" lon="13.37038"><time>2026-04-30T22:11:02Z</time></trkpt><trkpt lat="47.77102" lon="13.36978"><time>2026-04-30T22:11:12Z</time></trkpt><trkpt lat="47.77099" lon="13.36962"><time>2026-04-30T22:11:22Z</time></trkpt><trkpt lat="47.77093" lon="13.3695"><time>2026-04-30T22:11:32Z</time></trkpt><trkpt lat="47.77072" lon="13.36915"><time>2026-04-30T22:11:42Z</time></trkpt><trkpt lat="47.77046" lon="13.36878"><time>2026-04-30T22:11:52Z</time></trkpt><trkpt lat="47.77038" lon="13.36866"><time>2026-04-30T22:12:02Z</time></trkpt><trkpt lat="47.77032" lon="13.36858"><time>2026-04-30T22:12:12Z</time></trkpt><trkpt lat="47.77032" lon="13.36857"><time>2026-04-30T22:12:22Z</time></trkpt><trkpt lat="47.77018" lon="13.3684"><time>2026-04-30T22:12:32Z</time></trkpt><trkpt lat="47.77011" lon="13.36831"><time>2026-04-30T22:12:42Z</time></trkpt><trkpt lat="47.76999" lon="13.36816"><time>2026-04-30T22:12:52Z</time></trkpt><trkpt lat="47.76993" lon="13.36813"><time>2026-04-30T22:13:02Z</time></trkpt><trkpt lat="47.7697" lon="13.368"><time>2026-04-30T22:13:12Z</time></trkpt><trkpt lat="47.76959" lon="13.36793"><time>2026-04-30T22:13:22Z</time></trkpt><trkpt lat="47.76944" lon="13.36786"><time>2026-04-30T22:13:32Z</time></trkpt><trkpt lat="47.76943" lon="13.36786"><time>2026-04-30T22:13:42Z</time></trkpt><trkpt lat="47.76936" lon="13.36783"><time>2026-04-30T22:13:52Z</time></trkpt><trkpt lat="47.76926" lon="13.36779"><time>2026-04-30T22:14:02Z</time></trkpt><trkpt lat="47.76912" lon="13.36775"><time>2026-04-30T22:14:12Z</time></trkpt><trkpt lat="47.76892" lon="13.36768"><time>2026-04-30T22:14:22Z</time></trkpt><trkpt lat="47.76878" lon="13.36762"><time>2026-04-30T22:14:32Z</time></trkpt><trkpt lat="47.76867" lon="13.36757"><time>2026-04-30T22:14:42Z</time></trkpt><trkpt lat="47.76866" lon="13.36757"><time>2026-04-30T22:14:52Z</time></trkpt><trkpt lat="47.76861" lon="13.36754"><time>2026-04-30T22:15:02Z</time></trkpt><trkpt lat="47.76844" lon="13.36744"><time>2026-04-30T22:15:12Z</time></trkpt><trkpt lat="47.76828" lon="13.36731"><time>2026-04-30T22:15:22Z</time></trkpt><trkpt lat="47.76793" lon="13.36684"><time>2026-04-30T22:15:32Z</time></trkpt><trkpt lat="47.76761" lon="13.36634"><time>2026-04-30T22:15:42Z</time></trkpt><trkpt lat="47.7676" lon="13.36633"><time>2026-04-30T22:15:52Z</time></trkpt></trkseg></trk></gpx>