<gpx xmlns="http://www.topografix.com/GPX/1/1" xmlns:xsi="http://www.w3.org/2001/XMLSchema-instance" xmlns:geo="http://www.w3.org/2003/01/geo/wgs84_pos#" xmlns:georss="http://www.georss.org/georss" xmlns:ec="urn:schemas-econtent:rss" version="1.1" creator="TOURDATA" xsi:schemaLocation="http://www.topografix.com/GPX/1/1 http://www.topografix.com/GPX/1/1/gpx.xsd"><metadata><name>Gamswand Höhenlauf</name><link href="https://www.oberoesterreich.at/oesterreich-tour/detail/430002706/gamswand-hoehenlauf.html"/></metadata><trk><name>Gamswand Höhenlauf</name><trkseg><trkpt lat="47.76543580854638" lon="13.367700576782227"><time>2026-05-01T20:21:21Z</time></trkpt><trkpt lat="47.76553677047673" lon="13.367850780487068"><time>2026-05-01T20:21:31Z</time></trkpt><trkpt lat="47.76506080537501" lon="13.367464542388905"><time>2026-05-01T20:21:41Z</time></trkpt><trkpt lat="47.764253097054244" lon="13.367893695831311"><time>2026-05-01T20:21:51Z</time></trkpt><trkpt lat="47.763430952490744" lon="13.3682370185852"><time>2026-05-01T20:22:01Z</time></trkpt><trkpt lat="47.76237079953113" lon="13.3684515953064"><time>2026-05-01T20:22:11Z</time></trkpt><trkpt lat="47.761700079357674" lon="13.368290662765517"><time>2026-05-01T20:22:21Z</time></trkpt><trkpt lat="47.7610221383517" lon="13.367829322814949"><time>2026-05-01T20:22:31Z</time></trkpt><trkpt lat="47.760423523523365" lon="13.367614746093746"><time>2026-05-01T20:22:41Z</time></trkpt><trkpt lat="47.75976720296446" lon="13.367882966995234"><time>2026-05-01T20:22:51Z</time></trkpt><trkpt lat="47.758678125307256" lon="13.368419408798204"><time>2026-05-01T20:23:01Z</time></trkpt><trkpt lat="47.75773327787811" lon="13.36959958076478"><time>2026-05-01T20:23:11Z</time></trkpt><trkpt lat="47.75674513663883" lon="13.370372056961072"><time>2026-05-01T20:23:21Z</time></trkpt><trkpt lat="47.75624745255831" lon="13.370575904846197"><time>2026-05-01T20:23:31Z</time></trkpt><trkpt lat="47.75570648620198" lon="13.37126255035401"><time>2026-05-01T20:23:41Z</time></trkpt><trkpt lat="47.75460289739546" lon="13.371959924697864"><time>2026-05-01T20:23:51Z</time></trkpt><trkpt lat="47.754018635022156" lon="13.371863365173342"><time>2026-05-01T20:24:01Z</time></trkpt><trkpt lat="47.753542564534285" lon="13.372045755386345"><time>2026-05-01T20:24:11Z</time></trkpt><trkpt lat="47.75287894385991" lon="13.372625112533557"><time>2026-05-01T20:24:21Z</time></trkpt><trkpt lat="47.752337942483244" lon="13.373322486877445"><time>2026-05-01T20:24:31Z</time></trkpt><trkpt lat="47.751775295085245" lon="13.373912572860732"><time>2026-05-01T20:24:41Z</time></trkpt><trkpt lat="47.751284777005665" lon="13.374599218368546"><time>2026-05-01T20:24:51Z</time></trkpt><trkpt lat="47.749798767546004" lon="13.376315832138058"><time>2026-05-01T20:25:01Z</time></trkpt><trkpt lat="47.74910624378899" lon="13.377206325530993"><time>2026-05-01T20:25:11Z</time></trkpt><trkpt lat="47.74850749186309" lon="13.377968072891244"><time>2026-05-01T20:25:21Z</time></trkpt><trkpt lat="47.74754081758992" lon="13.379158973693865"><time>2026-05-01T20:25:31Z</time></trkpt><trkpt lat="47.7468194071799" lon="13.380242586135882"><time>2026-05-01T20:25:41Z</time></trkpt><trkpt lat="47.746271128581" lon="13.381465673446666"><time>2026-05-01T20:25:51Z</time></trkpt><trkpt lat="47.745895987264646" lon="13.382624387741087"><time>2026-05-01T20:26:01Z</time></trkpt><trkpt lat="47.74502305181309" lon="13.38410496711731"><time>2026-05-01T20:26:11Z</time></trkpt><trkpt lat="47.7443737514873" lon="13.384941816329965"><time>2026-05-01T20:26:21Z</time></trkpt><trkpt lat="47.74381823255751" lon="13.385714292526256"><time>2026-05-01T20:26:31Z</time></trkpt><trkpt lat="47.74343585894038" lon="13.385896682739263"><time>2026-05-01T20:26:41Z</time></trkpt><trkpt lat="47.742959691641495" lon="13.386754989624036"><time>2026-05-01T20:26:51Z</time></trkpt><trkpt lat="47.74268553273602" lon="13.38719487190248"><time>2026-05-01T20:27:01Z</time></trkpt><trkpt lat="47.74241137238669" lon="13.387398719787607"><time>2026-05-01T20:27:11Z</time></trkpt><trkpt lat="47.742959691641495" lon="13.384737968444838"><time>2026-05-01T20:27:21Z</time></trkpt><trkpt lat="47.7434214296923" lon="13.383471965789782"><time>2026-05-01T20:27:31Z</time></trkpt><trkpt lat="47.743738872226444" lon="13.38220596313476"><time>2026-05-01T20:27:41Z</time></trkpt><trkpt lat="47.74409960002912" lon="13.381959199905394"><time>2026-05-01T20:27:51Z</time></trkpt><trkpt lat="47.744316035510835" lon="13.381755352020269"><time>2026-05-01T20:28:01Z</time></trkpt><trkpt lat="47.74427274848648" lon="13.381497859954829"><time>2026-05-01T20:28:11Z</time></trkpt><trkpt lat="47.74398416740423" lon="13.38147640228271"><time>2026-05-01T20:28:21Z</time></trkpt><trkpt lat="47.74388316364749" lon="13.381605148315428"><time>2026-05-01T20:28:31Z</time></trkpt><trkpt lat="47.74376773054264" lon="13.381519317626948"><time>2026-05-01T20:28:41Z</time></trkpt><trkpt lat="47.744359322499186" lon="13.380596637725848"><time>2026-05-01T20:28:51Z</time></trkpt><trkpt lat="47.744741689332976" lon="13.379974365234363"><time>2026-05-01T20:29:01Z</time></trkpt><trkpt lat="47.74536212765292" lon="13.379319906234747"><time>2026-05-01T20:29:11Z</time></trkpt><trkpt lat="47.745701201283985" lon="13.3777105808258"><time>2026-05-01T20:29:21Z</time></trkpt><trkpt lat="47.74626391435042" lon="13.376058340072648"><time>2026-05-01T20:29:31Z</time></trkpt><trkpt lat="47.74664626719366" lon="13.375693559646606"><time>2026-05-01T20:29:41Z</time></trkpt><trkpt lat="47.746797764713115" lon="13.375114202499395"><time>2026-05-01T20:29:51Z</time></trkpt><trkpt lat="47.74793758905339" lon="13.373408317565925"><time>2026-05-01T20:30:01Z</time></trkpt><trkpt lat="47.748723909016746" lon="13.372485637664791"><time>2026-05-01T20:30:11Z</time></trkpt><trkpt lat="47.74948136196791" lon="13.371562957763658"><time>2026-05-01T20:30:21Z</time></trkpt><trkpt lat="47.75052735030139" lon="13.370350599288953"><time>2026-05-01T20:30:31Z</time></trkpt><trkpt lat="47.751356912307344" lon="13.368687629699721"><time>2026-05-01T20:30:41Z</time></trkpt><trkpt lat="47.75234515587192" lon="13.367153406143181"><time>2026-05-01T20:30:51Z</time></trkpt><trkpt lat="47.753556990976705" lon="13.365823030471796"><time>2026-05-01T20:31:01Z</time></trkpt><trkpt lat="47.75433601292772" lon="13.365308046340946"><time>2026-05-01T20:31:11Z</time></trkpt><trkpt lat="47.7548986326393" lon="13.364331722259529"><time>2026-05-01T20:31:21Z</time></trkpt><trkpt lat="47.75554058872586" lon="13.363666534423837"><time>2026-05-01T20:31:31Z</time></trkpt><trkpt lat="47.75900268725862" lon="13.360662460327148"><time>2026-05-01T20:31:41Z</time></trkpt><trkpt lat="47.759997997951004" lon="13.360211849212659"><time>2026-05-01T20:31:51Z</time></trkpt><trkpt lat="47.760474009377255" lon="13.359847068786616"><time>2026-05-01T20:32:01Z</time></trkpt><trkpt lat="47.760935592055475" lon="13.359353542327884"><time>2026-05-01T20:32:11Z</time></trkpt><trkpt lat="47.76094280425232" lon="13.358870744705195"><time>2026-05-01T20:32:21Z</time></trkpt><trkpt lat="47.76094280425232" lon="13.358463048934947"><time>2026-05-01T20:32:31Z</time></trkpt><trkpt lat="47.761007713979005" lon="13.357851505279537"><time>2026-05-01T20:32:41Z</time></trkpt><trkpt lat="47.761498140407404" lon="13.356993198394765"><time>2026-05-01T20:32:51Z</time></trkpt><trkpt lat="47.76198856221254" lon="13.356692790985116"><time>2026-05-01T20:33:01Z</time></trkpt><trkpt lat="47.76250782731995" lon="13.356070518493667"><time>2026-05-01T20:33:11Z</time></trkpt><trkpt lat="47.76234916353149" lon="13.356993198394765"><time>2026-05-01T20:33:21Z</time></trkpt><trkpt lat="47.76307035867059" lon="13.356220722198472"><time>2026-05-01T20:33:31Z</time></trkpt><trkpt lat="47.76334441020188" lon="13.355770111083984"><time>2026-05-01T20:33:41Z</time></trkpt><trkpt lat="47.76363288393821" lon="13.355855941772464"><time>2026-05-01T20:33:51Z</time></trkpt><trkpt lat="47.7640944385889" lon="13.356456756591795"><time>2026-05-01T20:34:01Z</time></trkpt><trkpt lat="47.76454156575141" lon="13.356349468231192"><time>2026-05-01T20:34:11Z</time></trkpt><trkpt lat="47.76488772607638" lon="13.356757164001479"><time>2026-05-01T20:34:21Z</time></trkpt><trkpt lat="47.76514734480837" lon="13.357293605804449"><time>2026-05-01T20:34:31Z</time></trkpt><trkpt lat="47.765500712666956" lon="13.358505964279185"><time>2026-05-01T20:34:41Z</time></trkpt><trkpt lat="47.76575311681049" lon="13.359632492065446"><time>2026-05-01T20:34:51Z</time></trkpt><trkpt lat="47.764916572666145" lon="13.360619544982907"><time>2026-05-01T20:35:01Z</time></trkpt><trkpt lat="47.76464252941749" lon="13.361220359802237"><time>2026-05-01T20:35:11Z</time></trkpt><trkpt lat="47.764916572666145" lon="13.361971378326409"><time>2026-05-01T20:35:21Z</time></trkpt><trkpt lat="47.765406962244555" lon="13.362829685211185"><time>2026-05-01T20:35:31Z</time></trkpt><trkpt lat="47.765969462244406" lon="13.363087177276626"><time>2026-05-01T20:35:41Z</time></trkpt><trkpt lat="47.766358881757846" lon="13.363645076751716"><time>2026-05-01T20:35:51Z</time></trkpt><trkpt lat="47.76598388524133" lon="13.363516330718996"><time>2026-05-01T20:36:01Z</time></trkpt><trkpt lat="47.76570984761574" lon="13.364181518554688"><time>2026-05-01T20:36:11Z</time></trkpt><trkpt lat="47.76573869374957" lon="13.365168571472182"><time>2026-05-01T20:36:21Z</time></trkpt><trkpt lat="47.765608886021305" lon="13.366091251373284"><time>2026-05-01T20:36:31Z</time></trkpt><trkpt lat="47.7656810014659" lon="13.366906642913817"><time>2026-05-01T20:36:41Z</time></trkpt><trkpt lat="47.7656810014659" lon="13.368065357208238"><time>2026-05-01T20:36:51Z</time></trkpt></trkseg></trk></gpx>