<gpx xmlns="http://www.topografix.com/GPX/1/1" xmlns:xsi="http://www.w3.org/2001/XMLSchema-instance" xmlns:geo="http://www.w3.org/2003/01/geo/wgs84_pos#" xmlns:georss="http://www.georss.org/georss" xmlns:ec="urn:schemas-econtent:rss" version="1.1" creator="TOURDATA" xsi:schemaLocation="http://www.topografix.com/GPX/1/1 http://www.topografix.com/GPX/1/1/gpx.xsd"><metadata><name>Widingerweg</name><link href="https://www.oberoesterreich.at/oesterreich-tour/detail/430008716/widingerweg.html"/></metadata><trk><name>Widingerweg</name><trkseg><trkpt lat="47.768899" lon="13.35939"><time>2026-04-24T20:46:07Z</time></trkpt><trkpt lat="47.769" lon="13.35916"><time>2026-04-24T20:46:17Z</time></trkpt><trkpt lat="47.769196" lon="13.359069"><time>2026-04-24T20:46:27Z</time></trkpt><trkpt lat="47.769334" lon="13.359592"><time>2026-04-24T20:46:37Z</time></trkpt><trkpt lat="47.769369" lon="13.359536"><time>2026-04-24T20:46:47Z</time></trkpt><trkpt lat="47.769809" lon="13.359193"><time>2026-04-24T20:46:57Z</time></trkpt><trkpt lat="47.769919" lon="13.359011"><time>2026-04-24T20:47:07Z</time></trkpt><trkpt lat="47.770024" lon="13.358648"><time>2026-04-24T20:47:17Z</time></trkpt><trkpt lat="47.77005" lon="13.358559"><time>2026-04-24T20:47:27Z</time></trkpt><trkpt lat="47.770071" lon="13.358484"><time>2026-04-24T20:47:37Z</time></trkpt><trkpt lat="47.770172" lon="13.358163"><time>2026-04-24T20:47:47Z</time></trkpt><trkpt lat="47.770325" lon="13.35775"><time>2026-04-24T20:47:57Z</time></trkpt><trkpt lat="47.770472" lon="13.357356"><time>2026-04-24T20:48:07Z</time></trkpt><trkpt lat="47.770325" lon="13.35775"><time>2026-04-24T20:48:17Z</time></trkpt><trkpt lat="47.770574" lon="13.357982"><time>2026-04-24T20:48:27Z</time></trkpt><trkpt lat="47.77064" lon="13.35814"><time>2026-04-24T20:48:37Z</time></trkpt><trkpt lat="47.770965" lon="13.358495"><time>2026-04-24T20:48:47Z</time></trkpt><trkpt lat="47.771055" lon="13.358384"><time>2026-04-24T20:48:57Z</time></trkpt><trkpt lat="47.771581" lon="13.358752"><time>2026-04-24T20:49:07Z</time></trkpt><trkpt lat="47.771998" lon="13.358947"><time>2026-04-24T20:49:17Z</time></trkpt><trkpt lat="47.772246" lon="13.359206"><time>2026-04-24T20:49:27Z</time></trkpt><trkpt lat="47.772428" lon="13.358965"><time>2026-04-24T20:49:37Z</time></trkpt><trkpt lat="47.772896" lon="13.358235"><time>2026-04-24T20:49:47Z</time></trkpt><trkpt lat="47.773079" lon="13.357835"><time>2026-04-24T20:49:57Z</time></trkpt><trkpt lat="47.773168" lon="13.357418"><time>2026-04-24T20:50:07Z</time></trkpt><trkpt lat="47.773249" lon="13.35746"><time>2026-04-24T20:50:17Z</time></trkpt><trkpt lat="47.773359" lon="13.357532"><time>2026-04-24T20:50:27Z</time></trkpt><trkpt lat="47.773373" lon="13.357542"><time>2026-04-24T20:50:37Z</time></trkpt><trkpt lat="47.773353" lon="13.357619"><time>2026-04-24T20:50:47Z</time></trkpt><trkpt lat="47.773443" lon="13.35754"><time>2026-04-24T20:50:57Z</time></trkpt><trkpt lat="47.773463" lon="13.356736"><time>2026-04-24T20:51:07Z</time></trkpt><trkpt lat="47.773483" lon="13.356089"><time>2026-04-24T20:51:17Z</time></trkpt><trkpt lat="47.773442" lon="13.355598"><time>2026-04-24T20:51:27Z</time></trkpt><trkpt lat="47.773345" lon="13.355059"><time>2026-04-24T20:51:37Z</time></trkpt><trkpt lat="47.773135" lon="13.35439"><time>2026-04-24T20:51:47Z</time></trkpt><trkpt lat="47.773237" lon="13.354443"><time>2026-04-24T20:51:57Z</time></trkpt><trkpt lat="47.773194" lon="13.354301"><time>2026-04-24T20:52:07Z</time></trkpt><trkpt lat="47.773077" lon="13.353792"><time>2026-04-24T20:52:17Z</time></trkpt><trkpt lat="47.772661" lon="13.353048"><time>2026-04-24T20:52:27Z</time></trkpt><trkpt lat="47.772961" lon="13.352724"><time>2026-04-24T20:52:37Z</time></trkpt><trkpt lat="47.773096" lon="13.352637"><time>2026-04-24T20:52:47Z</time></trkpt><trkpt lat="47.773119" lon="13.352265"><time>2026-04-24T20:52:57Z</time></trkpt><trkpt lat="47.774603" lon="13.350875"><time>2026-04-24T20:53:07Z</time></trkpt><trkpt lat="47.77494" lon="13.350829"><time>2026-04-24T20:53:17Z</time></trkpt><trkpt lat="47.775394" lon="13.350767"><time>2026-04-24T20:53:27Z</time></trkpt><trkpt lat="47.775799" lon="13.351327"><time>2026-04-24T20:53:37Z</time></trkpt><trkpt lat="47.775981" lon="13.351363"><time>2026-04-24T20:53:47Z</time></trkpt><trkpt lat="47.776093" lon="13.35127"><time>2026-04-24T20:53:57Z</time></trkpt><trkpt lat="47.776333" lon="13.351248"><time>2026-04-24T20:54:07Z</time></trkpt><trkpt lat="47.776727" lon="13.350984"><time>2026-04-24T20:54:17Z</time></trkpt><trkpt lat="47.777377" lon="13.350715"><time>2026-04-24T20:54:27Z</time></trkpt><trkpt lat="47.777478" lon="13.350666"><time>2026-04-24T20:54:37Z</time></trkpt><trkpt lat="47.777938" lon="13.350308"><time>2026-04-24T20:54:47Z</time></trkpt><trkpt lat="47.778278" lon="13.350001"><time>2026-04-24T20:54:57Z</time></trkpt><trkpt lat="47.778664" lon="13.349676"><time>2026-04-24T20:55:07Z</time></trkpt><trkpt lat="47.778778" lon="13.348642"><time>2026-04-24T20:55:17Z</time></trkpt><trkpt lat="47.778939" lon="13.347944"><time>2026-04-24T20:55:27Z</time></trkpt><trkpt lat="47.779049" lon="13.347902"><time>2026-04-24T20:55:37Z</time></trkpt><trkpt lat="47.778939" lon="13.347944"><time>2026-04-24T20:55:47Z</time></trkpt><trkpt lat="47.778884" lon="13.347683"><time>2026-04-24T20:55:57Z</time></trkpt><trkpt lat="47.778751" lon="13.347436"><time>2026-04-24T20:56:07Z</time></trkpt><trkpt lat="47.778335" lon="13.346965"><time>2026-04-24T20:56:17Z</time></trkpt><trkpt lat="47.77807" lon="13.346243"><time>2026-04-24T20:56:27Z</time></trkpt><trkpt lat="47.777885" lon="13.34622"><time>2026-04-24T20:56:37Z</time></trkpt><trkpt lat="47.777596" lon="13.346348"><time>2026-04-24T20:56:47Z</time></trkpt><trkpt lat="47.776756" lon="13.346401"><time>2026-04-24T20:56:57Z</time></trkpt><trkpt lat="47.775816" lon="13.346286"><time>2026-04-24T20:57:07Z</time></trkpt><trkpt lat="47.774961" lon="13.34562"><time>2026-04-24T20:57:17Z</time></trkpt><trkpt lat="47.774262" lon="13.345516"><time>2026-04-24T20:57:27Z</time></trkpt><trkpt lat="47.774173" lon="13.345576"><time>2026-04-24T20:57:37Z</time></trkpt><trkpt lat="47.774863" lon="13.34624"><time>2026-04-24T20:57:47Z</time></trkpt><trkpt lat="47.775248" lon="13.346731"><time>2026-04-24T20:57:57Z</time></trkpt><trkpt lat="47.775376" lon="13.347133"><time>2026-04-24T20:58:07Z</time></trkpt><trkpt lat="47.775298" lon="13.347544"><time>2026-04-24T20:58:17Z</time></trkpt><trkpt lat="47.774815" lon="13.348493"><time>2026-04-24T20:58:27Z</time></trkpt><trkpt lat="47.774788" lon="13.348898"><time>2026-04-24T20:58:37Z</time></trkpt><trkpt lat="47.77402" lon="13.34859"><time>2026-04-24T20:58:47Z</time></trkpt><trkpt lat="47.77368" lon="13.34869"><time>2026-04-24T20:58:57Z</time></trkpt><trkpt lat="47.772964" lon="13.34923"><time>2026-04-24T20:59:07Z</time></trkpt><trkpt lat="47.772386" lon="13.350082"><time>2026-04-24T20:59:17Z</time></trkpt><trkpt lat="47.771606" lon="13.351777"><time>2026-04-24T20:59:27Z</time></trkpt><trkpt lat="47.771419" lon="13.352325"><time>2026-04-24T20:59:37Z</time></trkpt><trkpt lat="47.77109" lon="13.352647"><time>2026-04-24T20:59:47Z</time></trkpt><trkpt lat="47.771097" lon="13.352673"><time>2026-04-24T20:59:57Z</time></trkpt><trkpt lat="47.771118" lon="13.352741"><time>2026-04-24T21:00:07Z</time></trkpt><trkpt lat="47.771126" lon="13.352766"><time>2026-04-24T21:00:17Z</time></trkpt><trkpt lat="47.770745" lon="13.353469"><time>2026-04-24T21:00:27Z</time></trkpt><trkpt lat="47.770597" lon="13.354514"><time>2026-04-24T21:00:37Z</time></trkpt><trkpt lat="47.770561" lon="13.355175"><time>2026-04-24T21:00:47Z</time></trkpt><trkpt lat="47.770587" lon="13.355615"><time>2026-04-24T21:00:57Z</time></trkpt><trkpt lat="47.770388" lon="13.355801"><time>2026-04-24T21:01:07Z</time></trkpt><trkpt lat="47.770275" lon="13.356036"><time>2026-04-24T21:01:17Z</time></trkpt><trkpt lat="47.769823" lon="13.356804"><time>2026-04-24T21:01:27Z</time></trkpt><trkpt lat="47.769644" lon="13.357333"><time>2026-04-24T21:01:37Z</time></trkpt><trkpt lat="47.769592" lon="13.357384"><time>2026-04-24T21:01:47Z</time></trkpt><trkpt lat="47.769348" lon="13.358175"><time>2026-04-24T21:01:57Z</time></trkpt><trkpt lat="47.769298" lon="13.358263"><time>2026-04-24T21:02:07Z</time></trkpt><trkpt lat="47.769278" lon="13.358308"><time>2026-04-24T21:02:17Z</time></trkpt><trkpt lat="47.769241" lon="13.358586"><time>2026-04-24T21:02:27Z</time></trkpt><trkpt lat="47.769146" lon="13.358701"><time>2026-04-24T21:02:37Z</time></trkpt><trkpt lat="47.769145" lon="13.358798"><time>2026-04-24T21:02:47Z</time></trkpt><trkpt lat="47.768989" lon="13.359021"><time>2026-04-24T21:02:57Z</time></trkpt><trkpt lat="47.768995" lon="13.359131"><time>2026-04-24T21:03:07Z</time></trkpt><trkpt lat="47.769" lon="13.35916"><time>2026-04-24T21:03:17Z</time></trkpt><trkpt lat="47.768899" lon="13.35939"><time>2026-04-24T21:03:27Z</time></trkpt></trkseg></trk></gpx>