<gpx xmlns="http://www.topografix.com/GPX/1/1" xmlns:xsi="http://www.w3.org/2001/XMLSchema-instance" xmlns:geo="http://www.w3.org/2003/01/geo/wgs84_pos#" xmlns:georss="http://www.georss.org/georss" xmlns:ec="urn:schemas-econtent:rss" version="1.1" creator="TOURDATA" xsi:schemaLocation="http://www.topografix.com/GPX/1/1 http://www.topografix.com/GPX/1/1/gpx.xsd"><metadata><name>Zum Enzerwinkl</name><link href="https://www.oberoesterreich.at/oesterreich-tour/detail/430002245/zum-enzerwinkl.html"/></metadata><trk><name>Zum Enzerwinkl</name><trkseg><trkpt lat="47.767095" lon="13.36374"><time>2026-04-24T20:46:37Z</time></trkpt><trkpt lat="47.767252" lon="13.363484"><time>2026-04-24T20:46:47Z</time></trkpt><trkpt lat="47.767357" lon="13.363542"><time>2026-04-24T20:46:57Z</time></trkpt><trkpt lat="47.767496" lon="13.363737"><time>2026-04-24T20:47:07Z</time></trkpt><trkpt lat="47.767765" lon="13.363794"><time>2026-04-24T20:47:17Z</time></trkpt><trkpt lat="47.767948" lon="13.363585"><time>2026-04-24T20:47:27Z</time></trkpt><trkpt lat="47.768102" lon="13.363512"><time>2026-04-24T20:47:37Z</time></trkpt><trkpt lat="47.7682" lon="13.363496"><time>2026-04-24T20:47:47Z</time></trkpt><trkpt lat="47.768357" lon="13.363473"><time>2026-04-24T20:47:57Z</time></trkpt><trkpt lat="47.768526" lon="13.363446"><time>2026-04-24T20:48:07Z</time></trkpt><trkpt lat="47.76877" lon="13.363476"><time>2026-04-24T20:48:17Z</time></trkpt><trkpt lat="47.768809" lon="13.363491"><time>2026-04-24T20:48:27Z</time></trkpt><trkpt lat="47.768901" lon="13.36391"><time>2026-04-24T20:48:37Z</time></trkpt><trkpt lat="47.768912" lon="13.364493"><time>2026-04-24T20:48:47Z</time></trkpt><trkpt lat="47.769083" lon="13.364978"><time>2026-04-24T20:48:57Z</time></trkpt><trkpt lat="47.769211" lon="13.365417"><time>2026-04-24T20:49:07Z</time></trkpt><trkpt lat="47.769215" lon="13.36587"><time>2026-04-24T20:49:17Z</time></trkpt><trkpt lat="47.769327" lon="13.366925"><time>2026-04-24T20:49:27Z</time></trkpt><trkpt lat="47.769463" lon="13.367446"><time>2026-04-24T20:49:37Z</time></trkpt><trkpt lat="47.769446" lon="13.367876"><time>2026-04-24T20:49:47Z</time></trkpt><trkpt lat="47.769594" lon="13.367937"><time>2026-04-24T20:49:57Z</time></trkpt><trkpt lat="47.769993" lon="13.368176"><time>2026-04-24T20:50:07Z</time></trkpt><trkpt lat="47.770187" lon="13.368403"><time>2026-04-24T20:50:17Z</time></trkpt><trkpt lat="47.770385" lon="13.368674"><time>2026-04-24T20:50:27Z</time></trkpt><trkpt lat="47.770431" lon="13.368742"><time>2026-04-24T20:50:37Z</time></trkpt><trkpt lat="47.7705" lon="13.368838"><time>2026-04-24T20:50:47Z</time></trkpt><trkpt lat="47.770723" lon="13.369164"><time>2026-04-24T20:50:57Z</time></trkpt><trkpt lat="47.771016" lon="13.369707"><time>2026-04-24T20:51:07Z</time></trkpt><trkpt lat="47.771128" lon="13.370385"><time>2026-04-24T20:51:17Z</time></trkpt><trkpt lat="47.771189" lon="13.370585"><time>2026-04-24T20:51:27Z</time></trkpt><trkpt lat="47.77139" lon="13.370862"><time>2026-04-24T20:51:37Z</time></trkpt><trkpt lat="47.771649" lon="13.370893"><time>2026-04-24T20:51:47Z</time></trkpt><trkpt lat="47.772161" lon="13.370839"><time>2026-04-24T20:51:57Z</time></trkpt><trkpt lat="47.772534" lon="13.37092"><time>2026-04-24T20:52:07Z</time></trkpt><trkpt lat="47.772932" lon="13.371423"><time>2026-04-24T20:52:17Z</time></trkpt><trkpt lat="47.773169" lon="13.372116"><time>2026-04-24T20:52:27Z</time></trkpt><trkpt lat="47.773264" lon="13.3727"><time>2026-04-24T20:52:37Z</time></trkpt><trkpt lat="47.773339" lon="13.372901"><time>2026-04-24T20:52:47Z</time></trkpt><trkpt lat="47.773643" lon="13.373234"><time>2026-04-24T20:52:57Z</time></trkpt><trkpt lat="47.774001" lon="13.373402"><time>2026-04-24T20:53:07Z</time></trkpt><trkpt lat="47.77424" lon="13.373704"><time>2026-04-24T20:53:17Z</time></trkpt><trkpt lat="47.774442" lon="13.374269"><time>2026-04-24T20:53:27Z</time></trkpt><trkpt lat="47.774438" lon="13.374529"><time>2026-04-24T20:53:37Z</time></trkpt><trkpt lat="47.774542" lon="13.37514"><time>2026-04-24T20:53:47Z</time></trkpt><trkpt lat="47.77454" lon="13.375532"><time>2026-04-24T20:53:57Z</time></trkpt><trkpt lat="47.774486" lon="13.375802"><time>2026-04-24T20:54:07Z</time></trkpt><trkpt lat="47.774343" lon="13.375941"><time>2026-04-24T20:54:17Z</time></trkpt><trkpt lat="47.774156" lon="13.37586"><time>2026-04-24T20:54:27Z</time></trkpt><trkpt lat="47.774086" lon="13.375866"><time>2026-04-24T20:54:37Z</time></trkpt><trkpt lat="47.77404" lon="13.375897"><time>2026-04-24T20:54:47Z</time></trkpt><trkpt lat="47.773566" lon="13.376316"><time>2026-04-24T20:54:57Z</time></trkpt><trkpt lat="47.773566" lon="13.376316"><time>2026-04-24T20:55:07Z</time></trkpt><trkpt lat="47.773309" lon="13.376441"><time>2026-04-24T20:55:17Z</time></trkpt><trkpt lat="47.772979" lon="13.376749"><time>2026-04-24T20:55:27Z</time></trkpt><trkpt lat="47.772457" lon="13.377651"><time>2026-04-24T20:55:37Z</time></trkpt><trkpt lat="47.771479" lon="13.378692"><time>2026-04-24T20:55:47Z</time></trkpt><trkpt lat="47.770957" lon="13.379097"><time>2026-04-24T20:55:57Z</time></trkpt><trkpt lat="47.770757" lon="13.379616"><time>2026-04-24T20:56:07Z</time></trkpt><trkpt lat="47.770482" lon="13.380157"><time>2026-04-24T20:56:17Z</time></trkpt><trkpt lat="47.770049" lon="13.381774"><time>2026-04-24T20:56:27Z</time></trkpt><trkpt lat="47.769818" lon="13.382375"><time>2026-04-24T20:56:37Z</time></trkpt><trkpt lat="47.769722" lon="13.382801"><time>2026-04-24T20:56:47Z</time></trkpt><trkpt lat="47.769583" lon="13.3831"><time>2026-04-24T20:56:57Z</time></trkpt><trkpt lat="47.76953" lon="13.383471"><time>2026-04-24T20:57:07Z</time></trkpt><trkpt lat="47.76868" lon="13.385492"><time>2026-04-24T20:57:17Z</time></trkpt><trkpt lat="47.768559" lon="13.386012"><time>2026-04-24T20:57:27Z</time></trkpt><trkpt lat="47.7681" lon="13.38692"><time>2026-04-24T20:57:37Z</time></trkpt><trkpt lat="47.768023" lon="13.387469"><time>2026-04-24T20:57:47Z</time></trkpt><trkpt lat="47.76807" lon="13.387646"><time>2026-04-24T20:57:57Z</time></trkpt><trkpt lat="47.768177" lon="13.388309"><time>2026-04-24T20:58:07Z</time></trkpt><trkpt lat="47.768165" lon="13.388369"><time>2026-04-24T20:58:17Z</time></trkpt><trkpt lat="47.768141" lon="13.388459"><time>2026-04-24T20:58:27Z</time></trkpt><trkpt lat="47.76805" lon="13.388767"><time>2026-04-24T20:58:37Z</time></trkpt><trkpt lat="47.767653" lon="13.389499"><time>2026-04-24T20:58:47Z</time></trkpt><trkpt lat="47.767333" lon="13.390146"><time>2026-04-24T20:58:57Z</time></trkpt><trkpt lat="47.767183" lon="13.390385"><time>2026-04-24T20:59:07Z</time></trkpt><trkpt lat="47.766993" lon="13.390568"><time>2026-04-24T20:59:17Z</time></trkpt><trkpt lat="47.766945" lon="13.39061"><time>2026-04-24T20:59:27Z</time></trkpt><trkpt lat="47.766898" lon="13.390662"><time>2026-04-24T20:59:37Z</time></trkpt><trkpt lat="47.76675" lon="13.390835"><time>2026-04-24T20:59:47Z</time></trkpt><trkpt lat="47.765762" lon="13.391832"><time>2026-04-24T20:59:57Z</time></trkpt><trkpt lat="47.765528" lon="13.391852"><time>2026-04-24T21:00:07Z</time></trkpt><trkpt lat="47.76542" lon="13.391823"><time>2026-04-24T21:00:17Z</time></trkpt><trkpt lat="47.765025" lon="13.391595"><time>2026-04-24T21:00:27Z</time></trkpt><trkpt lat="47.764988" lon="13.391572"><time>2026-04-24T21:00:37Z</time></trkpt><trkpt lat="47.76487" lon="13.391503"><time>2026-04-24T21:00:47Z</time></trkpt><trkpt lat="47.764764" lon="13.391424"><time>2026-04-24T21:00:57Z</time></trkpt><trkpt lat="47.76467" lon="13.391317"><time>2026-04-24T21:01:07Z</time></trkpt><trkpt lat="47.764264" lon="13.390886"><time>2026-04-24T21:01:17Z</time></trkpt><trkpt lat="47.763858" lon="13.390325"><time>2026-04-24T21:01:27Z</time></trkpt><trkpt lat="47.763469" lon="13.390088"><time>2026-04-24T21:01:37Z</time></trkpt><trkpt lat="47.762169" lon="13.389873"><time>2026-04-24T21:01:47Z</time></trkpt><trkpt lat="47.761198" lon="13.390004"><time>2026-04-24T21:01:57Z</time></trkpt><trkpt lat="47.760998" lon="13.390175"><time>2026-04-24T21:02:07Z</time></trkpt><trkpt lat="47.760704" lon="13.390175"><time>2026-04-24T21:02:17Z</time></trkpt><trkpt lat="47.760298" lon="13.390272"><time>2026-04-24T21:02:27Z</time></trkpt><trkpt lat="47.760126" lon="13.390196"><time>2026-04-24T21:02:37Z</time></trkpt><trkpt lat="47.760104" lon="13.390047"><time>2026-04-24T21:02:47Z</time></trkpt><trkpt lat="47.760069" lon="13.389893"><time>2026-04-24T21:02:57Z</time></trkpt><trkpt lat="47.759955" lon="13.389935"><time>2026-04-24T21:03:07Z</time></trkpt><trkpt lat="47.759883" lon="13.389657"><time>2026-04-24T21:03:17Z</time></trkpt><trkpt lat="47.759883" lon="13.389657"><time>2026-04-24T21:03:27Z</time></trkpt><trkpt lat="47.759883" lon="13.389657"><time>2026-04-24T21:03:37Z</time></trkpt><trkpt lat="47.759955" lon="13.389935"><time>2026-04-24T21:03:47Z</time></trkpt><trkpt lat="47.760069" lon="13.389893"><time>2026-04-24T21:03:57Z</time></trkpt><trkpt lat="47.760104" lon="13.390047"><time>2026-04-24T21:04:07Z</time></trkpt><trkpt lat="47.760126" lon="13.390196"><time>2026-04-24T21:04:17Z</time></trkpt><trkpt lat="47.760298" lon="13.390272"><time>2026-04-24T21:04:27Z</time></trkpt><trkpt lat="47.760704" lon="13.390175"><time>2026-04-24T21:04:37Z</time></trkpt><trkpt lat="47.760998" lon="13.390175"><time>2026-04-24T21:04:47Z</time></trkpt><trkpt lat="47.761198" lon="13.390004"><time>2026-04-24T21:04:57Z</time></trkpt><trkpt lat="47.762169" lon="13.389873"><time>2026-04-24T21:05:07Z</time></trkpt><trkpt lat="47.763469" lon="13.390088"><time>2026-04-24T21:05:17Z</time></trkpt><trkpt lat="47.763858" lon="13.390325"><time>2026-04-24T21:05:27Z</time></trkpt><trkpt lat="47.764264" lon="13.390886"><time>2026-04-24T21:05:37Z</time></trkpt><trkpt lat="47.76467" lon="13.391317"><time>2026-04-24T21:05:47Z</time></trkpt><trkpt lat="47.764764" lon="13.391424"><time>2026-04-24T21:05:57Z</time></trkpt><trkpt lat="47.76487" lon="13.391503"><time>2026-04-24T21:06:07Z</time></trkpt><trkpt lat="47.764988" lon="13.391572"><time>2026-04-24T21:06:17Z</time></trkpt><trkpt lat="47.765025" lon="13.391595"><time>2026-04-24T21:06:27Z</time></trkpt><trkpt lat="47.76542" lon="13.391823"><time>2026-04-24T21:06:37Z</time></trkpt><trkpt lat="47.765528" lon="13.391852"><time>2026-04-24T21:06:47Z</time></trkpt><trkpt lat="47.765762" lon="13.391832"><time>2026-04-24T21:06:57Z</time></trkpt><trkpt lat="47.76675" lon="13.390835"><time>2026-04-24T21:07:07Z</time></trkpt><trkpt lat="47.766898" lon="13.390662"><time>2026-04-24T21:07:17Z</time></trkpt><trkpt lat="47.766945" lon="13.39061"><time>2026-04-24T21:07:27Z</time></trkpt><trkpt lat="47.766993" lon="13.390568"><time>2026-04-24T21:07:37Z</time></trkpt><trkpt lat="47.767183" lon="13.390385"><time>2026-04-24T21:07:47Z</time></trkpt><trkpt lat="47.767333" lon="13.390146"><time>2026-04-24T21:07:57Z</time></trkpt><trkpt lat="47.767653" lon="13.389499"><time>2026-04-24T21:08:07Z</time></trkpt><trkpt lat="47.76805" lon="13.388767"><time>2026-04-24T21:08:17Z</time></trkpt><trkpt lat="47.768141" lon="13.388459"><time>2026-04-24T21:08:27Z</time></trkpt><trkpt lat="47.768165" lon="13.388369"><time>2026-04-24T21:08:37Z</time></trkpt><trkpt lat="47.768177" lon="13.388309"><time>2026-04-24T21:08:47Z</time></trkpt><trkpt lat="47.76807" lon="13.387646"><time>2026-04-24T21:08:57Z</time></trkpt><trkpt lat="47.768023" lon="13.387469"><time>2026-04-24T21:09:07Z</time></trkpt><trkpt lat="47.7681" lon="13.38692"><time>2026-04-24T21:09:17Z</time></trkpt><trkpt lat="47.768559" lon="13.386012"><time>2026-04-24T21:09:27Z</time></trkpt><trkpt lat="47.76868" lon="13.385492"><time>2026-04-24T21:09:37Z</time></trkpt><trkpt lat="47.76953" lon="13.383471"><time>2026-04-24T21:09:47Z</time></trkpt><trkpt lat="47.769583" lon="13.3831"><time>2026-04-24T21:09:57Z</time></trkpt><trkpt lat="47.769722" lon="13.382801"><time>2026-04-24T21:10:07Z</time></trkpt><trkpt lat="47.769818" lon="13.382375"><time>2026-04-24T21:10:17Z</time></trkpt><trkpt lat="47.770049" lon="13.381774"><time>2026-04-24T21:10:27Z</time></trkpt><trkpt lat="47.770482" lon="13.380157"><time>2026-04-24T21:10:37Z</time></trkpt><trkpt lat="47.770757" lon="13.379616"><time>2026-04-24T21:10:47Z</time></trkpt><trkpt lat="47.770957" lon="13.379097"><time>2026-04-24T21:10:57Z</time></trkpt><trkpt lat="47.771479" lon="13.378692"><time>2026-04-24T21:11:07Z</time></trkpt><trkpt lat="47.772457" lon="13.377651"><time>2026-04-24T21:11:17Z</time></trkpt><trkpt lat="47.772979" lon="13.376749"><time>2026-04-24T21:11:27Z</time></trkpt><trkpt lat="47.773309" lon="13.376441"><time>2026-04-24T21:11:37Z</time></trkpt><trkpt lat="47.773566" lon="13.376316"><time>2026-04-24T21:11:47Z</time></trkpt><trkpt lat="47.773566" lon="13.376316"><time>2026-04-24T21:11:57Z</time></trkpt><trkpt lat="47.77404" lon="13.375897"><time>2026-04-24T21:12:07Z</time></trkpt><trkpt lat="47.774086" lon="13.375866"><time>2026-04-24T21:12:17Z</time></trkpt><trkpt lat="47.774156" lon="13.37586"><time>2026-04-24T21:12:27Z</time></trkpt><trkpt lat="47.774343" lon="13.375941"><time>2026-04-24T21:12:37Z</time></trkpt><trkpt lat="47.774486" lon="13.375802"><time>2026-04-24T21:12:47Z</time></trkpt><trkpt lat="47.77454" lon="13.375532"><time>2026-04-24T21:12:57Z</time></trkpt><trkpt lat="47.774542" lon="13.37514"><time>2026-04-24T21:13:07Z</time></trkpt><trkpt lat="47.774438" lon="13.374529"><time>2026-04-24T21:13:17Z</time></trkpt><trkpt lat="47.774442" lon="13.374269"><time>2026-04-24T21:13:27Z</time></trkpt><trkpt lat="47.77424" lon="13.373704"><time>2026-04-24T21:13:37Z</time></trkpt><trkpt lat="47.774001" lon="13.373402"><time>2026-04-24T21:13:47Z</time></trkpt><trkpt lat="47.773643" lon="13.373234"><time>2026-04-24T21:13:57Z</time></trkpt><trkpt lat="47.773339" lon="13.372901"><time>2026-04-24T21:14:07Z</time></trkpt><trkpt lat="47.773264" lon="13.3727"><time>2026-04-24T21:14:17Z</time></trkpt><trkpt lat="47.773169" lon="13.372116"><time>2026-04-24T21:14:27Z</time></trkpt><trkpt lat="47.772932" lon="13.371423"><time>2026-04-24T21:14:37Z</time></trkpt><trkpt lat="47.772534" lon="13.37092"><time>2026-04-24T21:14:47Z</time></trkpt><trkpt lat="47.772161" lon="13.370839"><time>2026-04-24T21:14:57Z</time></trkpt><trkpt lat="47.771649" lon="13.370893"><time>2026-04-24T21:15:07Z</time></trkpt><trkpt lat="47.77139" lon="13.370862"><time>2026-04-24T21:15:17Z</time></trkpt><trkpt lat="47.771189" lon="13.370585"><time>2026-04-24T21:15:27Z</time></trkpt><trkpt lat="47.771128" lon="13.370385"><time>2026-04-24T21:15:37Z</time></trkpt><trkpt lat="47.771016" lon="13.369707"><time>2026-04-24T21:15:47Z</time></trkpt><trkpt lat="47.770723" lon="13.369164"><time>2026-04-24T21:15:57Z</time></trkpt><trkpt lat="47.7705" lon="13.368838"><time>2026-04-24T21:16:07Z</time></trkpt><trkpt lat="47.770431" lon="13.368742"><time>2026-04-24T21:16:17Z</time></trkpt><trkpt lat="47.770385" lon="13.368674"><time>2026-04-24T21:16:27Z</time></trkpt><trkpt lat="47.770187" lon="13.368403"><time>2026-04-24T21:16:37Z</time></trkpt><trkpt lat="47.769993" lon="13.368176"><time>2026-04-24T21:16:47Z</time></trkpt><trkpt lat="47.769594" lon="13.367937"><time>2026-04-24T21:16:57Z</time></trkpt><trkpt lat="47.769446" lon="13.367876"><time>2026-04-24T21:17:07Z</time></trkpt><trkpt lat="47.769463" lon="13.367446"><time>2026-04-24T21:17:17Z</time></trkpt><trkpt lat="47.769327" lon="13.366925"><time>2026-04-24T21:17:27Z</time></trkpt><trkpt lat="47.769215" lon="13.36587"><time>2026-04-24T21:17:37Z</time></trkpt><trkpt lat="47.769211" lon="13.365417"><time>2026-04-24T21:17:47Z</time></trkpt><trkpt lat="47.769083" lon="13.364978"><time>2026-04-24T21:17:57Z</time></trkpt><trkpt lat="47.768912" lon="13.364493"><time>2026-04-24T21:18:07Z</time></trkpt><trkpt lat="47.768901" lon="13.36391"><time>2026-04-24T21:18:17Z</time></trkpt><trkpt lat="47.768809" lon="13.363491"><time>2026-04-24T21:18:27Z</time></trkpt><trkpt lat="47.76877" lon="13.363476"><time>2026-04-24T21:18:37Z</time></trkpt><trkpt lat="47.768526" lon="13.363446"><time>2026-04-24T21:18:47Z</time></trkpt><trkpt lat="47.768357" lon="13.363473"><time>2026-04-24T21:18:57Z</time></trkpt><trkpt lat="47.7682" lon="13.363496"><time>2026-04-24T21:19:07Z</time></trkpt><trkpt lat="47.768102" lon="13.363512"><time>2026-04-24T21:19:17Z</time></trkpt><trkpt lat="47.767948" lon="13.363585"><time>2026-04-24T21:19:27Z</time></trkpt><trkpt lat="47.767765" lon="13.363794"><time>2026-04-24T21:19:37Z</time></trkpt><trkpt lat="47.767496" lon="13.363737"><time>2026-04-24T21:19:47Z</time></trkpt><trkpt lat="47.767357" lon="13.363542"><time>2026-04-24T21:19:57Z</time></trkpt><trkpt lat="47.767252" lon="13.363484"><time>2026-04-24T21:20:07Z</time></trkpt><trkpt lat="47.767095" lon="13.36374"><time>2026-04-24T21:20:17Z</time></trkpt></trkseg></trk></gpx>