<gpx xmlns="http://www.topografix.com/GPX/1/1" xmlns:xsi="http://www.w3.org/2001/XMLSchema-instance" xmlns:geo="http://www.w3.org/2003/01/geo/wgs84_pos#" xmlns:georss="http://www.georss.org/georss" xmlns:ec="urn:schemas-econtent:rss" version="1.1" creator="TOURDATA" xsi:schemaLocation="http://www.topografix.com/GPX/1/1 http://www.topografix.com/GPX/1/1/gpx.xsd"><metadata><name>Helenenweg</name><link href="https://www.oberoesterreich.at/oesterreich-tour/detail/100081/helenenweg.html"/></metadata><trk><name>Helenenweg</name><trkseg><trkpt lat="47.85331" lon="13.34616"><time>2026-05-19T13:00:31Z</time></trkpt><trkpt lat="47.85326" lon="13.34581"><time>2026-05-19T13:00:41Z</time></trkpt><trkpt lat="47.85328" lon="13.34553"><time>2026-05-19T13:00:51Z</time></trkpt><trkpt lat="47.85333" lon="13.34543"><time>2026-05-19T13:01:01Z</time></trkpt><trkpt lat="47.85355" lon="13.34528"><time>2026-05-19T13:01:11Z</time></trkpt><trkpt lat="47.85363" lon="13.34519"><time>2026-05-19T13:01:21Z</time></trkpt><trkpt lat="47.85373" lon="13.345"><time>2026-05-19T13:01:31Z</time></trkpt><trkpt lat="47.8538" lon="13.3448"><time>2026-05-19T13:01:41Z</time></trkpt><trkpt lat="47.85388" lon="13.34475"><time>2026-05-19T13:01:51Z</time></trkpt><trkpt lat="47.85395" lon="13.34476"><time>2026-05-19T13:02:01Z</time></trkpt><trkpt lat="47.85384" lon="13.34457"><time>2026-05-19T13:02:11Z</time></trkpt><trkpt lat="47.85386" lon="13.34441"><time>2026-05-19T13:02:21Z</time></trkpt><trkpt lat="47.85396" lon="13.34393"><time>2026-05-19T13:02:31Z</time></trkpt><trkpt lat="47.85398" lon="13.34365"><time>2026-05-19T13:02:41Z</time></trkpt><trkpt lat="47.85395" lon="13.34308"><time>2026-05-19T13:02:51Z</time></trkpt><trkpt lat="47.85402" lon="13.34212"><time>2026-05-19T13:03:01Z</time></trkpt><trkpt lat="47.85401" lon="13.34171"><time>2026-05-19T13:03:11Z</time></trkpt><trkpt lat="47.85402" lon="13.3416"><time>2026-05-19T13:03:21Z</time></trkpt><trkpt lat="47.85407" lon="13.34142"><time>2026-05-19T13:03:31Z</time></trkpt><trkpt lat="47.85412" lon="13.34131"><time>2026-05-19T13:03:41Z</time></trkpt><trkpt lat="47.8543" lon="13.34105"><time>2026-05-19T13:03:51Z</time></trkpt><trkpt lat="47.85442" lon="13.34081"><time>2026-05-19T13:04:01Z</time></trkpt><trkpt lat="47.85445" lon="13.34068"><time>2026-05-19T13:04:11Z</time></trkpt><trkpt lat="47.85456" lon="13.34016"><time>2026-05-19T13:04:21Z</time></trkpt><trkpt lat="47.85468" lon="13.33876"><time>2026-05-19T13:04:31Z</time></trkpt><trkpt lat="47.85466" lon="13.33804"><time>2026-05-19T13:04:41Z</time></trkpt><trkpt lat="47.85451" lon="13.33722"><time>2026-05-19T13:04:51Z</time></trkpt><trkpt lat="47.8545" lon="13.33701"><time>2026-05-19T13:05:01Z</time></trkpt><trkpt lat="47.85454" lon="13.33669"><time>2026-05-19T13:05:11Z</time></trkpt><trkpt lat="47.85459" lon="13.33647"><time>2026-05-19T13:05:21Z</time></trkpt><trkpt lat="47.85464" lon="13.33629"><time>2026-05-19T13:05:31Z</time></trkpt><trkpt lat="47.85489" lon="13.33565"><time>2026-05-19T13:05:41Z</time></trkpt><trkpt lat="47.85499" lon="13.33572"><time>2026-05-19T13:05:51Z</time></trkpt><trkpt lat="47.85522" lon="13.33509"><time>2026-05-19T13:06:01Z</time></trkpt><trkpt lat="47.85575" lon="13.33404"><time>2026-05-19T13:06:11Z</time></trkpt><trkpt lat="47.85604" lon="13.33294"><time>2026-05-19T13:06:21Z</time></trkpt><trkpt lat="47.85628" lon="13.33239"><time>2026-05-19T13:06:31Z</time></trkpt><trkpt lat="47.85677" lon="13.33193"><time>2026-05-19T13:06:41Z</time></trkpt><trkpt lat="47.85683" lon="13.33158"><time>2026-05-19T13:06:51Z</time></trkpt><trkpt lat="47.85742" lon="13.33078"><time>2026-05-19T13:07:01Z</time></trkpt><trkpt lat="47.85752" lon="13.33029"><time>2026-05-19T13:07:11Z</time></trkpt><trkpt lat="47.85763" lon="13.33022"><time>2026-05-19T13:07:21Z</time></trkpt><trkpt lat="47.8575" lon="13.32994"><time>2026-05-19T13:07:31Z</time></trkpt><trkpt lat="47.85766" lon="13.32955"><time>2026-05-19T13:07:41Z</time></trkpt><trkpt lat="47.85794" lon="13.329"><time>2026-05-19T13:07:51Z</time></trkpt><trkpt lat="47.85808" lon="13.32878"><time>2026-05-19T13:08:01Z</time></trkpt><trkpt lat="47.85839" lon="13.32839"><time>2026-05-19T13:08:11Z</time></trkpt><trkpt lat="47.8584" lon="13.32833"><time>2026-05-19T13:08:21Z</time></trkpt><trkpt lat="47.85835" lon="13.32826"><time>2026-05-19T13:08:31Z</time></trkpt><trkpt lat="47.85833" lon="13.3282"><time>2026-05-19T13:08:41Z</time></trkpt><trkpt lat="47.85832" lon="13.32807"><time>2026-05-19T13:08:51Z</time></trkpt><trkpt lat="47.85853" lon="13.3273"><time>2026-05-19T13:09:01Z</time></trkpt><trkpt lat="47.85857" lon="13.32702"><time>2026-05-19T13:09:11Z</time></trkpt><trkpt lat="47.85862" lon="13.32684"><time>2026-05-19T13:09:21Z</time></trkpt><trkpt lat="47.85881" lon="13.32656"><time>2026-05-19T13:09:31Z</time></trkpt><trkpt lat="47.85884" lon="13.32648"><time>2026-05-19T13:09:41Z</time></trkpt><trkpt lat="47.85886" lon="13.32634"><time>2026-05-19T13:09:51Z</time></trkpt><trkpt lat="47.85884" lon="13.32617"><time>2026-05-19T13:10:01Z</time></trkpt><trkpt lat="47.85885" lon="13.32612"><time>2026-05-19T13:10:11Z</time></trkpt><trkpt lat="47.85887" lon="13.32608"><time>2026-05-19T13:10:21Z</time></trkpt><trkpt lat="47.85887" lon="13.32608"><time>2026-05-19T13:10:31Z</time></trkpt></trkseg></trk></gpx>