<gpx xmlns="http://www.topografix.com/GPX/1/1" xmlns:xsi="http://www.w3.org/2001/XMLSchema-instance" xmlns:geo="http://www.w3.org/2003/01/geo/wgs84_pos#" xmlns:georss="http://www.georss.org/georss" xmlns:ec="urn:schemas-econtent:rss" version="1.1" creator="TOURDATA" xsi:schemaLocation="http://www.topografix.com/GPX/1/1 http://www.topografix.com/GPX/1/1/gpx.xsd"><metadata><name>Rundweg Sonnenseite</name><link href="https://www.oberoesterreich.at/oesterreich-tour/detail/430008719/rundweg-sonnenseite.html"/></metadata><trk><name>Rundweg Sonnenseite</name><trkseg><trkpt lat="47.76684" lon="13.364471"><time>2026-04-24T20:47:08Z</time></trkpt><trkpt lat="47.766901" lon="13.364193"><time>2026-04-24T20:47:18Z</time></trkpt><trkpt lat="47.766993" lon="13.364054"><time>2026-04-24T20:47:28Z</time></trkpt><trkpt lat="47.767004" lon="13.363889"><time>2026-04-24T20:47:38Z</time></trkpt><trkpt lat="47.76717" lon="13.363623"><time>2026-04-24T20:47:48Z</time></trkpt><trkpt lat="47.767251" lon="13.363484"><time>2026-04-24T20:47:58Z</time></trkpt><trkpt lat="47.767357" lon="13.363542"><time>2026-04-24T20:48:08Z</time></trkpt><trkpt lat="47.767411" lon="13.363663"><time>2026-04-24T20:48:18Z</time></trkpt><trkpt lat="47.767532" lon="13.363726"><time>2026-04-24T20:48:28Z</time></trkpt><trkpt lat="47.767765" lon="13.363794"><time>2026-04-24T20:48:38Z</time></trkpt><trkpt lat="47.767948" lon="13.363584"><time>2026-04-24T20:48:48Z</time></trkpt><trkpt lat="47.768102" lon="13.363512"><time>2026-04-24T20:48:58Z</time></trkpt><trkpt lat="47.7682" lon="13.363496"><time>2026-04-24T20:49:08Z</time></trkpt><trkpt lat="47.768357" lon="13.363473"><time>2026-04-24T20:49:18Z</time></trkpt><trkpt lat="47.768526" lon="13.363446"><time>2026-04-24T20:49:28Z</time></trkpt><trkpt lat="47.768642" lon="13.363427"><time>2026-04-24T20:49:38Z</time></trkpt><trkpt lat="47.76877" lon="13.363476"><time>2026-04-24T20:49:48Z</time></trkpt><trkpt lat="47.768809" lon="13.363491"><time>2026-04-24T20:49:58Z</time></trkpt><trkpt lat="47.768959" lon="13.3635"><time>2026-04-24T20:50:08Z</time></trkpt><trkpt lat="47.769338" lon="13.363324"><time>2026-04-24T20:50:18Z</time></trkpt><trkpt lat="47.769855" lon="13.363614"><time>2026-04-24T20:50:28Z</time></trkpt><trkpt lat="47.770108" lon="13.363694"><time>2026-04-24T20:50:38Z</time></trkpt><trkpt lat="47.770484" lon="13.363792"><time>2026-04-24T20:50:48Z</time></trkpt><trkpt lat="47.77083" lon="13.363852"><time>2026-04-24T20:50:58Z</time></trkpt><trkpt lat="47.770915" lon="13.363764"><time>2026-04-24T20:51:08Z</time></trkpt><trkpt lat="47.770977" lon="13.3637"><time>2026-04-24T20:51:18Z</time></trkpt><trkpt lat="47.771127" lon="13.363569"><time>2026-04-24T20:51:28Z</time></trkpt><trkpt lat="47.77116" lon="13.363554"><time>2026-04-24T20:51:38Z</time></trkpt><trkpt lat="47.771313" lon="13.363488"><time>2026-04-24T20:51:48Z</time></trkpt><trkpt lat="47.771488" lon="13.363528"><time>2026-04-24T20:51:58Z</time></trkpt><trkpt lat="47.771544" lon="13.363538"><time>2026-04-24T20:52:08Z</time></trkpt><trkpt lat="47.771717" lon="13.363565"><time>2026-04-24T20:52:18Z</time></trkpt><trkpt lat="47.771767" lon="13.363563"><time>2026-04-24T20:52:28Z</time></trkpt><trkpt lat="47.77191" lon="13.363519"><time>2026-04-24T20:52:38Z</time></trkpt><trkpt lat="47.772074" lon="13.363486"><time>2026-04-24T20:52:48Z</time></trkpt><trkpt lat="47.772373" lon="13.363318"><time>2026-04-24T20:52:58Z</time></trkpt><trkpt lat="47.77276" lon="13.362967"><time>2026-04-24T20:53:08Z</time></trkpt><trkpt lat="47.772735" lon="13.362841"><time>2026-04-24T20:53:18Z</time></trkpt><trkpt lat="47.772936" lon="13.362693"><time>2026-04-24T20:53:28Z</time></trkpt><trkpt lat="47.772999" lon="13.362686"><time>2026-04-24T20:53:38Z</time></trkpt><trkpt lat="47.773042" lon="13.362746"><time>2026-04-24T20:53:48Z</time></trkpt><trkpt lat="47.773564" lon="13.362691"><time>2026-04-24T20:53:58Z</time></trkpt><trkpt lat="47.774646" lon="13.362586"><time>2026-04-24T20:54:08Z</time></trkpt><trkpt lat="47.774722" lon="13.36236"><time>2026-04-24T20:54:18Z</time></trkpt><trkpt lat="47.774758" lon="13.362331"><time>2026-04-24T20:54:28Z</time></trkpt><trkpt lat="47.774818" lon="13.362348"><time>2026-04-24T20:54:38Z</time></trkpt><trkpt lat="47.774958" lon="13.362037"><time>2026-04-24T20:54:48Z</time></trkpt><trkpt lat="47.775525" lon="13.361537"><time>2026-04-24T20:54:58Z</time></trkpt><trkpt lat="47.776212" lon="13.361138"><time>2026-04-24T20:55:08Z</time></trkpt><trkpt lat="47.776448" lon="13.361385"><time>2026-04-24T20:55:18Z</time></trkpt><trkpt lat="47.776377" lon="13.362119"><time>2026-04-24T20:55:28Z</time></trkpt><trkpt lat="47.776722" lon="13.362368"><time>2026-04-24T20:55:38Z</time></trkpt><trkpt lat="47.776978" lon="13.362676"><time>2026-04-24T20:55:48Z</time></trkpt><trkpt lat="47.777116" lon="13.36312"><time>2026-04-24T20:55:58Z</time></trkpt><trkpt lat="47.777134" lon="13.363758"><time>2026-04-24T20:56:08Z</time></trkpt><trkpt lat="47.777413" lon="13.365536"><time>2026-04-24T20:56:18Z</time></trkpt><trkpt lat="47.777426" lon="13.36587"><time>2026-04-24T20:56:28Z</time></trkpt><trkpt lat="47.77752" lon="13.365977"><time>2026-04-24T20:56:38Z</time></trkpt><trkpt lat="47.777824" lon="13.365951"><time>2026-04-24T20:56:48Z</time></trkpt><trkpt lat="47.778104" lon="13.365803"><time>2026-04-24T20:56:58Z</time></trkpt><trkpt lat="47.778105" lon="13.366132"><time>2026-04-24T20:57:08Z</time></trkpt><trkpt lat="47.778036" lon="13.366984"><time>2026-04-24T20:57:18Z</time></trkpt><trkpt lat="47.77782" lon="13.36748"><time>2026-04-24T20:57:28Z</time></trkpt><trkpt lat="47.777373" lon="13.367963"><time>2026-04-24T20:57:38Z</time></trkpt><trkpt lat="47.777313" lon="13.368116"><time>2026-04-24T20:57:48Z</time></trkpt><trkpt lat="47.777455" lon="13.368576"><time>2026-04-24T20:57:58Z</time></trkpt><trkpt lat="47.777409" lon="13.368851"><time>2026-04-24T20:58:08Z</time></trkpt><trkpt lat="47.777116" lon="13.369337"><time>2026-04-24T20:58:18Z</time></trkpt><trkpt lat="47.776905" lon="13.369502"><time>2026-04-24T20:58:28Z</time></trkpt><trkpt lat="47.776438" lon="13.369566"><time>2026-04-24T20:58:38Z</time></trkpt><trkpt lat="47.776291" lon="13.369722"><time>2026-04-24T20:58:48Z</time></trkpt><trkpt lat="47.776144" lon="13.370244"><time>2026-04-24T20:58:58Z</time></trkpt><trkpt lat="47.775989" lon="13.370391"><time>2026-04-24T20:59:08Z</time></trkpt><trkpt lat="47.775833" lon="13.370739"><time>2026-04-24T20:59:18Z</time></trkpt><trkpt lat="47.77576" lon="13.371307"><time>2026-04-24T20:59:28Z</time></trkpt><trkpt lat="47.775769" lon="13.371554"><time>2026-04-24T20:59:38Z</time></trkpt><trkpt lat="47.775952" lon="13.371847"><time>2026-04-24T20:59:48Z</time></trkpt><trkpt lat="47.776557" lon="13.373167"><time>2026-04-24T20:59:58Z</time></trkpt><trkpt lat="47.776758" lon="13.373332"><time>2026-04-24T21:00:08Z</time></trkpt><trkpt lat="47.777051" lon="13.373359"><time>2026-04-24T21:00:18Z</time></trkpt><trkpt lat="47.777775" lon="13.373112"><time>2026-04-24T21:00:28Z</time></trkpt><trkpt lat="47.777775" lon="13.373112"><time>2026-04-24T21:00:38Z</time></trkpt><trkpt lat="47.777812" lon="13.372828"><time>2026-04-24T21:00:48Z</time></trkpt><trkpt lat="47.777922" lon="13.372754"><time>2026-04-24T21:00:58Z</time></trkpt><trkpt lat="47.778692" lon="13.373414"><time>2026-04-24T21:01:08Z</time></trkpt><trkpt lat="47.779113" lon="13.373561"><time>2026-04-24T21:01:18Z</time></trkpt><trkpt lat="47.779241" lon="13.373799"><time>2026-04-24T21:01:28Z</time></trkpt><trkpt lat="47.779291" lon="13.373861"><time>2026-04-24T21:01:38Z</time></trkpt><trkpt lat="47.779388" lon="13.373982"><time>2026-04-24T21:01:48Z</time></trkpt><trkpt lat="47.77937" lon="13.374257"><time>2026-04-24T21:01:58Z</time></trkpt><trkpt lat="47.779507" lon="13.374944"><time>2026-04-24T21:02:08Z</time></trkpt><trkpt lat="47.779673" lon="13.375303"><time>2026-04-24T21:02:18Z</time></trkpt><trkpt lat="47.779919" lon="13.375516"><time>2026-04-24T21:02:28Z</time></trkpt><trkpt lat="47.779986" lon="13.37566"><time>2026-04-24T21:02:38Z</time></trkpt><trkpt lat="47.779994" lon="13.376032"><time>2026-04-24T21:02:48Z</time></trkpt><trkpt lat="47.779815" lon="13.376499"><time>2026-04-24T21:02:58Z</time></trkpt><trkpt lat="47.779806" lon="13.376667"><time>2026-04-24T21:03:08Z</time></trkpt><trkpt lat="47.780007" lon="13.377318"><time>2026-04-24T21:03:18Z</time></trkpt><trkpt lat="47.780029" lon="13.377562"><time>2026-04-24T21:03:28Z</time></trkpt><trkpt lat="47.780053" lon="13.378095"><time>2026-04-24T21:03:38Z</time></trkpt><trkpt lat="47.780111" lon="13.378284"><time>2026-04-24T21:03:48Z</time></trkpt><trkpt lat="47.780115" lon="13.378403"><time>2026-04-24T21:03:58Z</time></trkpt><trkpt lat="47.780058" lon="13.378494"><time>2026-04-24T21:04:08Z</time></trkpt><trkpt lat="47.779863" lon="13.378592"><time>2026-04-24T21:04:18Z</time></trkpt><trkpt lat="47.779488" lon="13.378821"><time>2026-04-24T21:04:28Z</time></trkpt><trkpt lat="47.779432" lon="13.378929"><time>2026-04-24T21:04:38Z</time></trkpt><trkpt lat="47.779525" lon="13.379117"><time>2026-04-24T21:04:48Z</time></trkpt><trkpt lat="47.779762" lon="13.379214"><time>2026-04-24T21:04:58Z</time></trkpt><trkpt lat="47.779871" lon="13.379292"><time>2026-04-24T21:05:08Z</time></trkpt><trkpt lat="47.779908" lon="13.379411"><time>2026-04-24T21:05:18Z</time></trkpt><trkpt lat="47.779881" lon="13.379544"><time>2026-04-24T21:05:28Z</time></trkpt><trkpt lat="47.778982" lon="13.379868"><time>2026-04-24T21:05:38Z</time></trkpt><trkpt lat="47.778762" lon="13.380063"><time>2026-04-24T21:05:48Z</time></trkpt><trkpt lat="47.778537" lon="13.380263"><time>2026-04-24T21:05:58Z</time></trkpt><trkpt lat="47.778435" lon="13.380445"><time>2026-04-24T21:06:08Z</time></trkpt><trkpt lat="47.778379" lon="13.380355"><time>2026-04-24T21:06:18Z</time></trkpt><trkpt lat="47.778242" lon="13.380402"><time>2026-04-24T21:06:28Z</time></trkpt><trkpt lat="47.777838" lon="13.380095"><time>2026-04-24T21:06:38Z</time></trkpt><trkpt lat="47.777318" lon="13.37972"><time>2026-04-24T21:06:48Z</time></trkpt><trkpt lat="47.777406" lon="13.379933"><time>2026-04-24T21:06:58Z</time></trkpt><trkpt lat="47.777577" lon="13.380363"><time>2026-04-24T21:07:08Z</time></trkpt><trkpt lat="47.777655" lon="13.380787"><time>2026-04-24T21:07:18Z</time></trkpt><trkpt lat="47.777638" lon="13.381137"><time>2026-04-24T21:07:28Z</time></trkpt><trkpt lat="47.777589" lon="13.381145"><time>2026-04-24T21:07:38Z</time></trkpt><trkpt lat="47.777441" lon="13.381607"><time>2026-04-24T21:07:48Z</time></trkpt><trkpt lat="47.777305" lon="13.381706"><time>2026-04-24T21:07:58Z</time></trkpt><trkpt lat="47.77701" lon="13.381667"><time>2026-04-24T21:08:08Z</time></trkpt><trkpt lat="47.776799" lon="13.381722"><time>2026-04-24T21:08:18Z</time></trkpt><trkpt lat="47.776543" lon="13.381904"><time>2026-04-24T21:08:28Z</time></trkpt><trkpt lat="47.776535" lon="13.38201"><time>2026-04-24T21:08:38Z</time></trkpt><trkpt lat="47.77617" lon="13.382259"><time>2026-04-24T21:08:48Z</time></trkpt><trkpt lat="47.775883" lon="13.382454"><time>2026-04-24T21:08:58Z</time></trkpt><trkpt lat="47.775752" lon="13.382062"><time>2026-04-24T21:09:08Z</time></trkpt><trkpt lat="47.775571" lon="13.38152"><time>2026-04-24T21:09:18Z</time></trkpt><trkpt lat="47.77551" lon="13.381341"><time>2026-04-24T21:09:28Z</time></trkpt><trkpt lat="47.775428" lon="13.381188"><time>2026-04-24T21:09:38Z</time></trkpt><trkpt lat="47.775063" lon="13.380527"><time>2026-04-24T21:09:48Z</time></trkpt><trkpt lat="47.774761" lon="13.380241"><time>2026-04-24T21:09:58Z</time></trkpt><trkpt lat="47.774735" lon="13.380072"><time>2026-04-24T21:10:08Z</time></trkpt><trkpt lat="47.774731" lon="13.379966"><time>2026-04-24T21:10:18Z</time></trkpt><trkpt lat="47.77478" lon="13.379828"><time>2026-04-24T21:10:28Z</time></trkpt><trkpt lat="47.775089" lon="13.379459"><time>2026-04-24T21:10:38Z</time></trkpt><trkpt lat="47.775242" lon="13.378814"><time>2026-04-24T21:10:48Z</time></trkpt><trkpt lat="47.77531" lon="13.378736"><time>2026-04-24T21:10:58Z</time></trkpt><trkpt lat="47.775564" lon="13.378277"><time>2026-04-24T21:11:08Z</time></trkpt><trkpt lat="47.775631" lon="13.378069"><time>2026-04-24T21:11:18Z</time></trkpt><trkpt lat="47.775654" lon="13.377526"><time>2026-04-24T21:11:28Z</time></trkpt><trkpt lat="47.775659" lon="13.37726"><time>2026-04-24T21:11:38Z</time></trkpt><trkpt lat="47.775619" lon="13.377144"><time>2026-04-24T21:11:48Z</time></trkpt><trkpt lat="47.775563" lon="13.377062"><time>2026-04-24T21:11:58Z</time></trkpt><trkpt lat="47.775488" lon="13.376975"><time>2026-04-24T21:12:08Z</time></trkpt><trkpt lat="47.775477" lon="13.376764"><time>2026-04-24T21:12:18Z</time></trkpt><trkpt lat="47.775391" lon="13.376518"><time>2026-04-24T21:12:28Z</time></trkpt><trkpt lat="47.775243" lon="13.376097"><time>2026-04-24T21:12:38Z</time></trkpt><trkpt lat="47.775069" lon="13.37584"><time>2026-04-24T21:12:48Z</time></trkpt><trkpt lat="47.774778" lon="13.375728"><time>2026-04-24T21:12:58Z</time></trkpt><trkpt lat="47.774618" lon="13.375513"><time>2026-04-24T21:13:08Z</time></trkpt><trkpt lat="47.77454" lon="13.375532"><time>2026-04-24T21:13:18Z</time></trkpt><trkpt lat="47.774555" lon="13.375355"><time>2026-04-24T21:13:28Z</time></trkpt><trkpt lat="47.774438" lon="13.374529"><time>2026-04-24T21:13:38Z</time></trkpt><trkpt lat="47.774442" lon="13.374269"><time>2026-04-24T21:13:48Z</time></trkpt><trkpt lat="47.774272" lon="13.373844"><time>2026-04-24T21:13:58Z</time></trkpt><trkpt lat="47.77424" lon="13.373704"><time>2026-04-24T21:14:08Z</time></trkpt><trkpt lat="47.774127" lon="13.373527"><time>2026-04-24T21:14:18Z</time></trkpt><trkpt lat="47.774001" lon="13.373402"><time>2026-04-24T21:14:28Z</time></trkpt><trkpt lat="47.773643" lon="13.373233"><time>2026-04-24T21:14:38Z</time></trkpt><trkpt lat="47.773339" lon="13.372901"><time>2026-04-24T21:14:48Z</time></trkpt><trkpt lat="47.773053" lon="13.371726"><time>2026-04-24T21:14:58Z</time></trkpt><trkpt lat="47.772932" lon="13.371423"><time>2026-04-24T21:15:08Z</time></trkpt><trkpt lat="47.772699" lon="13.371081"><time>2026-04-24T21:15:18Z</time></trkpt><trkpt lat="47.772533" lon="13.37092"><time>2026-04-24T21:15:28Z</time></trkpt><trkpt lat="47.77216" lon="13.370839"><time>2026-04-24T21:15:38Z</time></trkpt><trkpt lat="47.771506" lon="13.370908"><time>2026-04-24T21:15:48Z</time></trkpt><trkpt lat="47.77139" lon="13.370862"><time>2026-04-24T21:15:58Z</time></trkpt><trkpt lat="47.771189" lon="13.370585"><time>2026-04-24T21:16:08Z</time></trkpt><trkpt lat="47.771128" lon="13.370385"><time>2026-04-24T21:16:18Z</time></trkpt><trkpt lat="47.771016" lon="13.369707"><time>2026-04-24T21:16:28Z</time></trkpt><trkpt lat="47.770962" lon="13.369548"><time>2026-04-24T21:16:38Z</time></trkpt><trkpt lat="47.770723" lon="13.369164"><time>2026-04-24T21:16:48Z</time></trkpt><trkpt lat="47.7705" lon="13.368838"><time>2026-04-24T21:16:58Z</time></trkpt><trkpt lat="47.770431" lon="13.368742"><time>2026-04-24T21:17:08Z</time></trkpt><trkpt lat="47.770385" lon="13.368674"><time>2026-04-24T21:17:18Z</time></trkpt><trkpt lat="47.770186" lon="13.368403"><time>2026-04-24T21:17:28Z</time></trkpt><trkpt lat="47.769993" lon="13.368176"><time>2026-04-24T21:17:38Z</time></trkpt><trkpt lat="47.769594" lon="13.367937"><time>2026-04-24T21:17:48Z</time></trkpt><trkpt lat="47.769446" lon="13.367876"><time>2026-04-24T21:17:58Z</time></trkpt><trkpt lat="47.769433" lon="13.36787"><time>2026-04-24T21:18:08Z</time></trkpt><trkpt lat="47.769367" lon="13.367842"><time>2026-04-24T21:18:18Z</time></trkpt><trkpt lat="47.769253" lon="13.367807"><time>2026-04-24T21:18:28Z</time></trkpt><trkpt lat="47.769107" lon="13.367753"><time>2026-04-24T21:18:38Z</time></trkpt><trkpt lat="47.768978" lon="13.3677"><time>2026-04-24T21:18:48Z</time></trkpt><trkpt lat="47.768929" lon="13.36768"><time>2026-04-24T21:18:58Z</time></trkpt><trkpt lat="47.76866" lon="13.367572"><time>2026-04-24T21:19:08Z</time></trkpt><trkpt lat="47.768387" lon="13.367397"><time>2026-04-24T21:19:18Z</time></trkpt><trkpt lat="47.768287" lon="13.36732"><time>2026-04-24T21:19:28Z</time></trkpt><trkpt lat="47.768041" lon="13.366997"><time>2026-04-24T21:19:38Z</time></trkpt><trkpt lat="47.76776" lon="13.366598"><time>2026-04-24T21:19:48Z</time></trkpt><trkpt lat="47.767604" lon="13.366312"><time>2026-04-24T21:19:58Z</time></trkpt><trkpt lat="47.767475" lon="13.365949"><time>2026-04-24T21:20:08Z</time></trkpt><trkpt lat="47.767379" lon="13.365601"><time>2026-04-24T21:20:18Z</time></trkpt><trkpt lat="47.76717" lon="13.365454"><time>2026-04-24T21:20:28Z</time></trkpt><trkpt lat="47.766985" lon="13.365315"><time>2026-04-24T21:20:38Z</time></trkpt><trkpt lat="47.766976" lon="13.365224"><time>2026-04-24T21:20:48Z</time></trkpt><trkpt lat="47.766996" lon="13.365143"><time>2026-04-24T21:20:58Z</time></trkpt></trkseg></trk></gpx>