<?xml version="1.0" encoding="UTF-8" standalone="no" ?>

<gpx xmlns="http://www.topografix.com/GPX/1/1" xmlns:xsi="http://www.w3.org/2001/XMLSchema-instance" xsi:schemaLocation="http://www.topografix.com/GPX/1/1 http://www.topografix.com/GPX/1/1/gpx.xsd" version="1.1" creator="waymarkedtrails.org"><metadata><name>Rheinburgenweg 8. Etappe Rhens - Bad Salzig</name><copyright author="OpenStreetMap and Contributors"><license>https://www.openstreetmap.org/copyright</license></copyright><link href="https://hiking.waymarkedtrails.org/#route?id=2404563&amp;type=relation"><text>WaymarkedTrails</text></link><time>2026-08-24T20:08:48.778Z</time></metadata><trk><trkseg><trkpt lat="50.2806274" lon="7.6154709"/><trkpt lat="50.2805679" lon="7.6153241"/><trkpt lat="50.2805149" lon="7.6151912"/><trkpt lat="50.280422" lon="7.6149828"/><trkpt lat="50.2803925" lon="7.6149165"/><trkpt lat="50.2803545" lon="7.6148429"/><trkpt lat="50.2802551" lon="7.6147153"/><trkpt lat="50.2801605" lon="7.6145895"/><trkpt lat="50.280076" lon="7.6144307"/><trkpt lat="50.2800246" lon="7.6142675"/><trkpt lat="50.2799907" lon="7.6141031"/><trkpt lat="50.2798727" lon="7.6140752"/><trkpt lat="50.2797703" lon="7.6140415"/><trkpt lat="50.2797121" lon="7.6141938"/><trkpt lat="50.2795499" lon="7.6141336"/><trkpt lat="50.2794234" lon="7.6140974"/><trkpt lat="50.2793405" lon="7.6143599"/><trkpt lat="50.2792952" lon="7.6145245"/><trkpt lat="50.2792565" lon="7.6145553"/><trkpt lat="50.2791948" lon="7.6145123"/><trkpt lat="50.279044" lon="7.6144609"/><trkpt lat="50.2787871" lon="7.6143711"/><trkpt lat="50.278932" lon="7.613292"/><trkpt lat="50.2785773" lon="7.6131813"/><trkpt lat="50.278515" lon="7.6133011"/><trkpt lat="50.2784197" lon="7.613434"/><trkpt lat="50.2783356" lon="7.6135289"/><trkpt lat="50.2782611" lon="7.6136051"/><trkpt lat="50.2782148" lon="7.6136392"/><trkpt lat="50.2781544" lon="7.6136743"/><trkpt lat="50.2781007" lon="7.613696"/><trkpt lat="50.2780347" lon="7.6136946"/><trkpt lat="50.2779293" lon="7.6136659"/><trkpt lat="50.2778726" lon="7.6136432"/><trkpt lat="50.2778318" lon="7.613625"/><trkpt lat="50.2778118" lon="7.6138558"/><trkpt lat="50.2777359" lon="7.6142236"/><trkpt lat="50.2776784" lon="7.6146327"/><trkpt lat="50.2776131" lon="7.6149717"/><trkpt lat="50.2775089" lon="7.6152656"/><trkpt lat="50.2773047" lon="7.6157313"/><trkpt lat="50.2771667" lon="7.6159454"/><trkpt lat="50.2770091" lon="7.6162169"/><trkpt lat="50.2768967" lon="7.6163927"/><trkpt lat="50.2767878" lon="7.6165218"/><trkpt lat="50.2766658" lon="7.6166439"/><trkpt lat="50.2765987" lon="7.6166433"/><trkpt lat="50.2766832" lon="7.6167433"/><trkpt lat="50.2765182" lon="7.61737"/><trkpt lat="50.2763669" lon="7.6176837"/><trkpt lat="50.2761678" lon="7.6184847"/><trkpt lat="50.2760914" lon="7.6186738"/><trkpt lat="50.2757971" lon="7.6191209"/><trkpt lat="50.2756343" lon="7.6193286"/><trkpt lat="50.2754967" lon="7.6194267"/><trkpt lat="50.2752328" lon="7.6195966"/><trkpt lat="50.2752053" lon="7.6196586"/><trkpt lat="50.2751695" lon="7.6198053"/><trkpt lat="50.275115" lon="7.6197653"/><trkpt lat="50.2749577" lon="7.6195944"/><trkpt lat="50.2749338" lon="7.6195952"/><trkpt lat="50.2748098" lon="7.6196913"/><trkpt lat="50.2747619" lon="7.6197477"/><trkpt lat="50.2747754" lon="7.6198671"/><trkpt lat="50.2748752" lon="7.620398"/><trkpt lat="50.2750132" lon="7.6209809"/><trkpt lat="50.2750863" lon="7.6213314"/><trkpt lat="50.2751092" lon="7.6214679"/><trkpt lat="50.275114" lon="7.6215538"/><trkpt lat="50.2750907" lon="7.6216136"/><trkpt lat="50.2747803" lon="7.6221924"/><trkpt lat="50.2746344" lon="7.6224216"/><trkpt lat="50.2743894" lon="7.6227397"/><trkpt lat="50.2742282" lon="7.6229328"/><trkpt lat="50.2740812" lon="7.6230844"/><trkpt lat="50.2739617" lon="7.6232079"/><trkpt lat="50.2738174" lon="7.6233445"/><trkpt lat="50.273664" lon="7.6234866"/><trkpt lat="50.2735374" lon="7.6235876"/><trkpt lat="50.2733402" lon="7.6237019"/><trkpt lat="50.273324" lon="7.6237109"/><trkpt lat="50.2729825" lon="7.6238873"/><trkpt lat="50.2727168" lon="7.624014"/><trkpt lat="50.2724899" lon="7.624106"/><trkpt lat="50.2722687" lon="7.6241364"/><trkpt lat="50.2720202" lon="7.6241445"/><trkpt lat="50.2719186" lon="7.6241455"/><trkpt lat="50.271874" lon="7.6241728"/><trkpt lat="50.2718119" lon="7.6237853"/><trkpt lat="50.2717476" lon="7.6234739"/><trkpt lat="50.27177" lon="7.6233177"/><trkpt lat="50.2717726" lon="7.6231918"/><trkpt lat="50.2718089" lon="7.6230538"/><trkpt lat="50.2718233" lon="7.6229491"/><trkpt lat="50.2718253" lon="7.6228858"/><trkpt lat="50.2718024" lon="7.6226749"/><trkpt lat="50.2717713" lon="7.6224679"/><trkpt lat="50.2718208" lon="7.6221513"/><trkpt lat="50.271862" lon="7.6216577"/><trkpt lat="50.2718595" lon="7.6213269"/><trkpt lat="50.2718491" lon="7.621201"/><trkpt lat="50.2717797" lon="7.6209389"/><trkpt lat="50.2717064" lon="7.6207625"/><trkpt lat="50.2715351" lon="7.6203889"/><trkpt lat="50.2713898" lon="7.6201128"/><trkpt lat="50.2712211" lon="7.6197352"/><trkpt lat="50.2711095" lon="7.6194063"/><trkpt lat="50.270887" lon="7.6186501"/><trkpt lat="50.2708049" lon="7.6184591"/><trkpt lat="50.2707454" lon="7.6182483"/><trkpt lat="50.270656" lon="7.6180261"/><trkpt lat="50.2705948" lon="7.6177873"/><trkpt lat="50.2704926" lon="7.6176345"/><trkpt lat="50.2704153" lon="7.6174327"/><trkpt lat="50.2703645" lon="7.6172027"/><trkpt lat="50.2703097" lon="7.6170051"/><trkpt lat="50.2702718" lon="7.6168816"/><trkpt lat="50.2702463" lon="7.6167929"/><trkpt lat="50.2702082" lon="7.6165668"/><trkpt lat="50.2701827" lon="7.6162789"/><trkpt lat="50.2701427" lon="7.6161706"/><trkpt lat="50.2700919" lon="7.6160646"/><trkpt lat="50.2700648" lon="7.6160126"/><trkpt lat="50.2700388" lon="7.6159454"/><trkpt lat="50.2700003" lon="7.6157111"/><trkpt lat="50.2699419" lon="7.6155995"/><trkpt lat="50.2698397" lon="7.6153222"/><trkpt lat="50.269691" lon="7.6148981"/><trkpt lat="50.2695436" lon="7.6143324"/><trkpt lat="50.2693822" lon="7.6138301"/><trkpt lat="50.269291" lon="7.6135616"/><trkpt lat="50.2691935" lon="7.6132675"/><trkpt lat="50.2691027" lon="7.6130157"/><trkpt lat="50.2690835" lon="7.6129442"/><trkpt lat="50.269048" lon="7.61284"/><trkpt lat="50.2689849" lon="7.6126894"/><trkpt lat="50.2688747" lon="7.6124541"/><trkpt lat="50.2686262" lon="7.6119566"/><trkpt lat="50.2685807" lon="7.6118548"/><trkpt lat="50.2685388" lon="7.6117451"/><trkpt lat="50.2685046" lon="7.6115717"/><trkpt lat="50.2684752" lon="7.6113609"/><trkpt lat="50.2684202" lon="7.6109166"/><trkpt lat="50.2683119" lon="7.6105713"/><trkpt lat="50.268266" lon="7.6104251"/><trkpt lat="50.2680251" lon="7.6098662"/><trkpt lat="50.2679193" lon="7.6094752"/><trkpt lat="50.2676972" lon="7.6088128"/><trkpt lat="50.267465" lon="7.6082394"/><trkpt lat="50.2672994" lon="7.607669"/><trkpt lat="50.2671837" lon="7.6070494"/><trkpt lat="50.2671356" lon="7.6066228"/><trkpt lat="50.2670692" lon="7.6062727"/><trkpt lat="50.2668703" lon="7.6057233"/><trkpt lat="50.2665029" lon="7.6050372"/><trkpt lat="50.2664085" lon="7.6048717"/><trkpt lat="50.2660489" lon="7.6043272"/><trkpt lat="50.2655985" lon="7.6035616"/><trkpt lat="50.265119" lon="7.6027951"/><trkpt lat="50.2647362" lon="7.6018636"/><trkpt lat="50.2645173" lon="7.6013472"/><trkpt lat="50.2644315" lon="7.6010317"/><trkpt lat="50.264403" lon="7.6009267"/><trkpt lat="50.264339" lon="7.6005297"/><trkpt lat="50.2643294" lon="7.6000677"/><trkpt lat="50.2643222" lon="7.599704"/><trkpt lat="50.264329" lon="7.5993982"/><trkpt lat="50.2643543" lon="7.5990428"/><trkpt lat="50.2643538" lon="7.5987845"/><trkpt lat="50.2643108" lon="7.5984545"/><trkpt lat="50.2642447" lon="7.5980829"/><trkpt lat="50.2641519" lon="7.5975613"/><trkpt lat="50.2641264" lon="7.5974543"/><trkpt lat="50.2639776" lon="7.5970892"/><trkpt lat="50.2638808" lon="7.5968915"/><trkpt lat="50.2635921" lon="7.5963071"/><trkpt lat="50.2631488" lon="7.5954012"/><trkpt lat="50.2627537" lon="7.5947267"/><trkpt lat="50.2622044" lon="7.5939461"/><trkpt lat="50.2620254" lon="7.5936448"/><trkpt lat="50.2619044" lon="7.593411"/><trkpt lat="50.2614774" lon="7.5925502"/><trkpt lat="50.2611216" lon="7.5918299"/><trkpt lat="50.2610086" lon="7.5916458"/><trkpt lat="50.2609097" lon="7.5914814"/><trkpt lat="50.260846" lon="7.5913274"/><trkpt lat="50.2607063" lon="7.5909976"/><trkpt lat="50.2606029" lon="7.590659"/><trkpt lat="50.2604941" lon="7.5903053"/><trkpt lat="50.2602841" lon="7.5897859"/><trkpt lat="50.2602341" lon="7.5896604"/><trkpt lat="50.2601786" lon="7.5895349"/><trkpt lat="50.2599042" lon="7.589035"/><trkpt lat="50.2597582" lon="7.5888001"/><trkpt lat="50.2596806" lon="7.5886458"/><trkpt lat="50.2595632" lon="7.5884315"/><trkpt lat="50.2591749" lon="7.5878666"/><trkpt lat="50.2588893" lon="7.5875375"/><trkpt lat="50.2589343" lon="7.5874921"/><trkpt lat="50.2592457" lon="7.5870034"/><trkpt lat="50.2594471" lon="7.5867298"/><trkpt lat="50.2594996" lon="7.5865947"/><trkpt lat="50.2595448" lon="7.586388"/><trkpt lat="50.2595807" lon="7.586264"/><trkpt lat="50.2596496" lon="7.586071"/><trkpt lat="50.2596996" lon="7.5859724"/><trkpt lat="50.2597697" lon="7.5859126"/><trkpt lat="50.2598504" lon="7.5858966"/><trkpt lat="50.2600164" lon="7.585906"/><trkpt lat="50.260255" lon="7.5859807"/><trkpt lat="50.2604402" lon="7.5860903"/><trkpt lat="50.2607977" lon="7.586345"/><trkpt lat="50.2608849" lon="7.5863158"/><trkpt lat="50.2609268" lon="7.5862676"/><trkpt lat="50.2609381" lon="7.5862117"/><trkpt lat="50.2609298" lon="7.5861437"/><trkpt lat="50.2608899" lon="7.5860569"/><trkpt lat="50.2608391" lon="7.5859809"/><trkpt lat="50.2607483" lon="7.5858121"/><trkpt lat="50.2606671" lon="7.5855724"/><trkpt lat="50.2605979" lon="7.5851986"/><trkpt lat="50.2605242" lon="7.5848367"/><trkpt lat="50.2604319" lon="7.5845096"/><trkpt lat="50.2603839" lon="7.5843964"/><trkpt lat="50.2603202" lon="7.5842505"/><trkpt lat="50.2602618" lon="7.5841391"/><trkpt lat="50.2601381" lon="7.5838874"/><trkpt lat="50.2599951" lon="7.5836128"/><trkpt lat="50.2598652" lon="7.5833228"/><trkpt lat="50.259696" lon="7.5829381"/><trkpt lat="50.2595363" lon="7.5826264"/><trkpt lat="50.2594015" lon="7.5823603"/><trkpt lat="50.2593116" lon="7.5821119"/><trkpt lat="50.2591428" lon="7.5817704"/><trkpt lat="50.2589726" lon="7.581426"/><trkpt lat="50.2586284" lon="7.5807207"/><trkpt lat="50.258377" lon="7.5801996"/><trkpt lat="50.2581955" lon="7.5798087"/><trkpt lat="50.2581434" lon="7.5797446"/><trkpt lat="50.2580403" lon="7.579747"/><trkpt lat="50.2579079" lon="7.5797901"/><trkpt lat="50.2578243" lon="7.5798127"/><trkpt lat="50.2577297" lon="7.5797981"/><trkpt lat="50.2576328" lon="7.5797143"/><trkpt lat="50.2575044" lon="7.5795411"/><trkpt lat="50.2574029" lon="7.5793716"/><trkpt lat="50.2573526" lon="7.5792004"/><trkpt lat="50.2572332" lon="7.5787876"/><trkpt lat="50.2571883" lon="7.5785413"/><trkpt lat="50.2571833" lon="7.578493"/><trkpt lat="50.2571484" lon="7.5783744"/><trkpt lat="50.2570242" lon="7.5781024"/><trkpt lat="50.2567993" lon="7.5778882"/><trkpt lat="50.2566116" lon="7.5777672"/><trkpt lat="50.2562275" lon="7.5774621"/><trkpt lat="50.2560292" lon="7.5772563"/><trkpt lat="50.2558616" lon="7.577052"/><trkpt lat="50.2557332" lon="7.576897"/><trkpt lat="50.255617" lon="7.5767187"/><trkpt lat="50.2554493" lon="7.5764722"/><trkpt lat="50.2553188" lon="7.5762674"/><trkpt lat="50.2550834" lon="7.5759811"/><trkpt lat="50.2549019" lon="7.5757554"/><trkpt lat="50.254649" lon="7.5754848"/><trkpt lat="50.2543417" lon="7.5752761"/><trkpt lat="50.253902" lon="7.5749973"/><trkpt lat="50.2536544" lon="7.5748491"/><trkpt lat="50.2533527" lon="7.5747455"/><trkpt lat="50.25329" lon="7.5747006"/><trkpt lat="50.2532434" lon="7.5746173"/><trkpt lat="50.2530959" lon="7.5742785"/><trkpt lat="50.252991" lon="7.5739531"/><trkpt lat="50.2529351" lon="7.5736487"/><trkpt lat="50.252908" lon="7.5732735"/><trkpt lat="50.2529018" lon="7.5728605"/><trkpt lat="50.2529018" lon="7.5724303"/><trkpt lat="50.2528699" lon="7.5720856"/><trkpt lat="50.2528229" lon="7.5717799"/><trkpt lat="50.2527662" lon="7.5715288"/><trkpt lat="50.2527662" lon="7.5711589"/><trkpt lat="50.2527075" lon="7.5709938"/><trkpt lat="50.2526397" lon="7.5708828"/><trkpt lat="50.2524794" lon="7.5707533"/><trkpt lat="50.2523499" lon="7.5706054"/><trkpt lat="50.2522204" lon="7.570482"/><trkpt lat="50.2521588" lon="7.5703464"/><trkpt lat="50.2519985" lon="7.5702416"/><trkpt lat="50.2517704" lon="7.5700505"/><trkpt lat="50.2516101" lon="7.5697669"/><trkpt lat="50.2515315" lon="7.5693401"/><trkpt lat="50.2514138" lon="7.5692322"/><trkpt lat="50.2512927" lon="7.569085"/><trkpt lat="50.2511678" lon="7.5688989"/><trkpt lat="50.2510909" lon="7.5687653"/><trkpt lat="50.2509563" lon="7.5684893"/><trkpt lat="50.2508882" lon="7.5683995"/><trkpt lat="50.2508162" lon="7.5684282"/><trkpt lat="50.250636" lon="7.5684845"/><trkpt lat="50.250488" lon="7.5685154"/><trkpt lat="50.2503916" lon="7.5685215"/><trkpt lat="50.2503091" lon="7.568433"/><trkpt lat="50.2502627" lon="7.5684052"/><trkpt lat="50.2502021" lon="7.5683844"/><trkpt lat="50.2500758" lon="7.5684027"/><trkpt lat="50.2498777" lon="7.568466"/><trkpt lat="50.2498113" lon="7.5684929"/><trkpt lat="50.249749" lon="7.5685386"/><trkpt lat="50.2496865" lon="7.5686325"/><trkpt lat="50.2495845" lon="7.5687543"/><trkpt lat="50.2494149" lon="7.5687128"/><trkpt lat="50.2493177" lon="7.5687195"/><trkpt lat="50.2491687" lon="7.5687558"/><trkpt lat="50.2490762" lon="7.5688668"/><trkpt lat="50.2488734" lon="7.5691547"/><trkpt lat="50.2485415" lon="7.5693665"/><trkpt lat="50.2484124" lon="7.5695246"/><trkpt lat="50.2482878" lon="7.5696483"/><trkpt lat="50.2481013" lon="7.5696715"/><trkpt lat="50.24798" lon="7.5698045"/><trkpt lat="50.2476654" lon="7.57001"/><trkpt lat="50.2474708" lon="7.5700497"/><trkpt lat="50.2473633" lon="7.5700716"/><trkpt lat="50.2469698" lon="7.5702382"/><trkpt lat="50.2468852" lon="7.570279"/><trkpt lat="50.2466538" lon="7.57045"/><trkpt lat="50.2465197" lon="7.5705491"/><trkpt lat="50.2464151" lon="7.5706443"/><trkpt lat="50.2463667" lon="7.5706757"/><trkpt lat="50.2462387" lon="7.5707157"/><trkpt lat="50.2461818" lon="7.5707377"/><trkpt lat="50.2460234" lon="7.5707988"/><trkpt lat="50.2459386" lon="7.5710579"/><trkpt lat="50.2458993" lon="7.5712027"/><trkpt lat="50.2458671" lon="7.5713073"/><trkpt lat="50.2458311" lon="7.5714361"/><trkpt lat="50.2457522" lon="7.5714817"/><trkpt lat="50.245663" lon="7.5714951"/><trkpt lat="50.2455858" lon="7.5714951"/><trkpt lat="50.2455172" lon="7.5714817"/><trkpt lat="50.2454297" lon="7.5715219"/><trkpt lat="50.2453477" lon="7.571479"/><trkpt lat="50.2452788" lon="7.5714454"/><trkpt lat="50.2452509" lon="7.5715139"/><trkpt lat="50.2452389" lon="7.5716708"/><trkpt lat="50.2452227" lon="7.5718567"/><trkpt lat="50.2451474" lon="7.5718644"/><trkpt lat="50.2450452" lon="7.5718691"/><trkpt lat="50.2449551" lon="7.5720054"/><trkpt lat="50.2447807" lon="7.572184"/><trkpt lat="50.2445944" lon="7.5722921"/><trkpt lat="50.2444501" lon="7.572325"/><trkpt lat="50.2442303" lon="7.5722282"/><trkpt lat="50.2441702" lon="7.5722412"/><trkpt lat="50.2438984" lon="7.5719225"/><trkpt lat="50.2437936" lon="7.5722747"/><trkpt lat="50.2437531" lon="7.5724132"/><trkpt lat="50.2436269" lon="7.5723373"/><trkpt lat="50.2435479" lon="7.5722899"/><trkpt lat="50.243345" lon="7.5721972"/><trkpt lat="50.2428559" lon="7.5720749"/><trkpt lat="50.242486" lon="7.5719168"/><trkpt lat="50.2421396" lon="7.571933"/><trkpt lat="50.2416662" lon="7.5719008"/><trkpt lat="50.2415725" lon="7.5719178"/><trkpt lat="50.2414464" lon="7.5719504"/><trkpt lat="50.2413657" lon="7.5719913"/><trkpt lat="50.2412003" lon="7.5720004"/><trkpt lat="50.2410741" lon="7.5720003"/><trkpt lat="50.240945" lon="7.5720154"/><trkpt lat="50.2408114" lon="7.5720668"/><trkpt lat="50.2406981" lon="7.5720912"/><trkpt lat="50.2404705" lon="7.5722053"/><trkpt lat="50.240346" lon="7.5723261"/><trkpt lat="50.2402396" lon="7.5723394"/><trkpt lat="50.2401396" lon="7.5723725"/><trkpt lat="50.2400637" lon="7.5724851"/><trkpt lat="50.2398502" lon="7.5725388"/><trkpt lat="50.2396256" lon="7.572583"/><trkpt lat="50.2395061" lon="7.5726356"/><trkpt lat="50.2394308" lon="7.5727279"/><trkpt lat="50.2394029" lon="7.5728997"/><trkpt lat="50.2393467" lon="7.5729723"/><trkpt lat="50.2392105" lon="7.5731441"/><trkpt lat="50.2390951" lon="7.5732719"/><trkpt lat="50.238833" lon="7.5733509"/><trkpt lat="50.2385733" lon="7.5733547"/><trkpt lat="50.238532" lon="7.5733444"/><trkpt lat="50.2384579" lon="7.573437"/><trkpt lat="50.2383685" lon="7.5734281"/><trkpt lat="50.2382769" lon="7.5736153"/><trkpt lat="50.2381225" lon="7.5738427"/><trkpt lat="50.2380055" lon="7.5739731"/><trkpt lat="50.2378682" lon="7.574077"/><trkpt lat="50.2378161" lon="7.5741312"/><trkpt lat="50.237685" lon="7.5742324"/><trkpt lat="50.2375392" lon="7.574336"/><trkpt lat="50.2374118" lon="7.5744036"/><trkpt lat="50.2372932" lon="7.5745335"/><trkpt lat="50.2372122" lon="7.5747984"/><trkpt lat="50.2370679" lon="7.5749112"/><trkpt lat="50.2368886" lon="7.5750105"/><trkpt lat="50.2368357" lon="7.5751211"/><trkpt lat="50.2367976" lon="7.575084"/><trkpt lat="50.2367377" lon="7.5751626"/><trkpt lat="50.2366428" lon="7.5752996"/><trkpt lat="50.2365831" lon="7.5754107"/><trkpt lat="50.2365016" lon="7.5754407"/><trkpt lat="50.2364528" lon="7.5754799"/><trkpt lat="50.2364211" lon="7.5755305"/><trkpt lat="50.23641" lon="7.5755575"/><trkpt lat="50.2364033" lon="7.5755817"/><trkpt lat="50.236387" lon="7.5756036"/><trkpt lat="50.2363711" lon="7.5756213"/><trkpt lat="50.2363488" lon="7.575624"/><trkpt lat="50.236333" lon="7.5756334"/><trkpt lat="50.2363039" lon="7.575663"/><trkpt lat="50.236282" lon="7.5756745"/><trkpt lat="50.2362636" lon="7.5756922"/><trkpt lat="50.2361977" lon="7.5757914"/><trkpt lat="50.2361382" lon="7.5758187"/><trkpt lat="50.236107" lon="7.5758461"/><trkpt lat="50.2360727" lon="7.5758598"/><trkpt lat="50.2360244" lon="7.575899"/><trkpt lat="50.236012" lon="7.5759239"/><trkpt lat="50.2359842" lon="7.576056"/><trkpt lat="50.2359589" lon="7.5761511"/><trkpt lat="50.2359252" lon="7.5761964"/><trkpt lat="50.23582" lon="7.5762848"/><trkpt lat="50.2357694" lon="7.5763511"/><trkpt lat="50.2356921" lon="7.5763708"/><trkpt lat="50.2356453" lon="7.5764428"/><trkpt lat="50.2356185" lon="7.5764507"/><trkpt lat="50.2355004" lon="7.576377"/><trkpt lat="50.2354671" lon="7.5763573"/><trkpt lat="50.23539" lon="7.576599"/><trkpt lat="50.23507" lon="7.5765445"/><trkpt lat="50.2350246" lon="7.5767021"/><trkpt lat="50.2350097" lon="7.5767944"/><trkpt lat="50.2350003" lon="7.5768941"/><trkpt lat="50.2349978" lon="7.5769494"/><trkpt lat="50.2349945" lon="7.5770717"/><trkpt lat="50.2350036" lon="7.5771669"/><trkpt lat="50.2350771" lon="7.5774731"/><trkpt lat="50.2351265" lon="7.5776055"/><trkpt lat="50.23514" lon="7.5776381"/><trkpt lat="50.2352598" lon="7.5779338"/><trkpt lat="50.2352827" lon="7.5779873"/><trkpt lat="50.2350487" lon="7.5782901"/><trkpt lat="50.234864" lon="7.578529"/><trkpt lat="50.2348768" lon="7.5786097"/><trkpt lat="50.2348768" lon="7.5787167"/><trkpt lat="50.2348671" lon="7.5788233"/><trkpt lat="50.2348464" lon="7.5789351"/><trkpt lat="50.2348022" lon="7.5790837"/><trkpt lat="50.2346767" lon="7.5793276"/><trkpt lat="50.2345145" lon="7.579909"/><trkpt lat="50.234472" lon="7.5800518"/><trkpt lat="50.2344654" lon="7.5800739"/><trkpt lat="50.2344772" lon="7.5801722"/><trkpt lat="50.2344558" lon="7.5804429"/><trkpt lat="50.2344306" lon="7.5806943"/><trkpt lat="50.2343833" lon="7.5808386"/><trkpt lat="50.2341295" lon="7.5815775"/><trkpt lat="50.2340812" lon="7.5817181"/><trkpt lat="50.2339391" lon="7.5821537"/><trkpt lat="50.2336449" lon="7.5831456"/><trkpt lat="50.2336272" lon="7.5832051"/><trkpt lat="50.2336153" lon="7.5832477"/><trkpt lat="50.2334603" lon="7.5838053"/><trkpt lat="50.2333441" lon="7.5843458"/><trkpt lat="50.2333712" lon="7.5844697"/><trkpt lat="50.2333106" lon="7.5847891"/><trkpt lat="50.2332879" lon="7.5848986"/><trkpt lat="50.2332485" lon="7.585133"/><trkpt lat="50.2332254" lon="7.5852704"/><trkpt lat="50.2331756" lon="7.5857023"/><trkpt lat="50.2331565" lon="7.5858857"/><trkpt lat="50.2331441" lon="7.5860053"/><trkpt lat="50.2331391" lon="7.586076"/><trkpt lat="50.2330905" lon="7.5867703"/><trkpt lat="50.2330689" lon="7.5870779"/><trkpt lat="50.2330506" lon="7.5874715"/><trkpt lat="50.2330251" lon="7.5878887"/><trkpt lat="50.2329779" lon="7.5885559"/><trkpt lat="50.2329776" lon="7.5885604"/><trkpt lat="50.2329681" lon="7.5887585"/><trkpt lat="50.232944" lon="7.5892428"/><trkpt lat="50.2329318" lon="7.5894372"/><trkpt lat="50.2329285" lon="7.5896183"/><trkpt lat="50.23292" lon="7.5898221"/><trkpt lat="50.2329185" lon="7.5898824"/><trkpt lat="50.2329165" lon="7.5900144"/><trkpt lat="50.2329088" lon="7.5908066"/><trkpt lat="50.2328753" lon="7.5910483"/><trkpt lat="50.2328684" lon="7.5912438"/><trkpt lat="50.232868" lon="7.5912743"/><trkpt lat="50.2328683" lon="7.5913281"/><trkpt lat="50.2328709" lon="7.5914513"/><trkpt lat="50.2328915" lon="7.5922582"/><trkpt lat="50.2328955" lon="7.5927255"/><trkpt lat="50.2329073" lon="7.5927707"/><trkpt lat="50.232819" lon="7.5927958"/><trkpt lat="50.2328329" lon="7.593001"/><trkpt lat="50.2324856" lon="7.5930215"/><trkpt lat="50.232504" lon="7.5935224"/><trkpt lat="50.2325235" lon="7.5939226"/><trkpt lat="50.2324579" lon="7.5939208"/><trkpt lat="50.2316965" lon="7.5938966"/><trkpt lat="50.2312758" lon="7.5938941"/><trkpt lat="50.2310707" lon="7.5938819"/><trkpt lat="50.2309563" lon="7.593911"/><trkpt lat="50.2308681" lon="7.5939718"/><trkpt lat="50.23078" lon="7.5945426"/><trkpt lat="50.2306033" lon="7.5945345"/><trkpt lat="50.2303916" lon="7.5945607"/><trkpt lat="50.2303834" lon="7.5954276"/><trkpt lat="50.2298996" lon="7.5954203"/><trkpt lat="50.2298969" lon="7.5954811"/><trkpt lat="50.2298348" lon="7.5954752"/><trkpt lat="50.2298385" lon="7.5954407"/><trkpt lat="50.2297564" lon="7.5954137"/><trkpt lat="50.2297103" lon="7.5953935"/><trkpt lat="50.2296369" lon="7.5957786"/><trkpt lat="50.2296064" lon="7.5961627"/><trkpt lat="50.2295807" lon="7.596428"/><trkpt lat="50.2295703" lon="7.5965963"/><trkpt lat="50.2295755" lon="7.5966724"/><trkpt lat="50.2294806" lon="7.5970252"/><trkpt lat="50.2294596" lon="7.5971475"/><trkpt lat="50.2294028" lon="7.5974695"/><trkpt lat="50.2293415" lon="7.5975343"/><trkpt lat="50.2292802" lon="7.597599"/><trkpt lat="50.2291823" lon="7.5976289"/><trkpt lat="50.2290251" lon="7.5975592"/><trkpt lat="50.2289683" lon="7.5975282"/><trkpt lat="50.2289368" lon="7.597488"/><trkpt lat="50.2287345" lon="7.597328"/><trkpt lat="50.2284929" lon="7.5970057"/><trkpt lat="50.2281233" lon="7.596755"/><trkpt lat="50.2276783" lon="7.5964454"/><trkpt lat="50.2275279" lon="7.5962967"/><trkpt lat="50.2274809" lon="7.5961707"/><trkpt lat="50.227191" lon="7.5959546"/><trkpt lat="50.2268808" lon="7.5957541"/><trkpt lat="50.2264285" lon="7.5954634"/><trkpt lat="50.2262364" lon="7.5953791"/><trkpt lat="50.2258955" lon="7.5953694"/><trkpt lat="50.2254752" lon="7.5951794"/><trkpt lat="50.2254241" lon="7.595132"/><trkpt lat="50.225354" lon="7.5951005"/><trkpt lat="50.2252191" lon="7.5950287"/><trkpt lat="50.2249157" lon="7.5948774"/><trkpt lat="50.2248196" lon="7.5948814"/><trkpt lat="50.2246754" lon="7.5949404"/><trkpt lat="50.2245588" lon="7.5950503"/><trkpt lat="50.2244421" lon="7.5951925"/><trkpt lat="50.2244212" lon="7.5952699"/><trkpt lat="50.2244026" lon="7.5953293"/><trkpt lat="50.2243229" lon="7.5955216"/><trkpt lat="50.2244381" lon="7.5955246"/><trkpt lat="50.2244137" lon="7.5956656"/><trkpt lat="50.2245043" lon="7.5955865"/><trkpt lat="50.224472" lon="7.5957052"/><trkpt lat="50.2245361" lon="7.5956847"/><trkpt lat="50.2245073" lon="7.5957987"/><trkpt lat="50.2245722" lon="7.5957289"/><trkpt lat="50.2245836" lon="7.5958583"/><trkpt lat="50.2246527" lon="7.5958342"/><trkpt lat="50.2245728" lon="7.5959871"/><trkpt lat="50.2246437" lon="7.5959385"/><trkpt lat="50.2245845" lon="7.5960539"/><trkpt lat="50.2246656" lon="7.5960638"/><trkpt lat="50.2246086" lon="7.596231"/><trkpt lat="50.2247247" lon="7.5962063"/><trkpt lat="50.2247324" lon="7.596223"/><trkpt lat="50.2246563" lon="7.596363"/><trkpt lat="50.2246757" lon="7.5964053"/><trkpt lat="50.2248031" lon="7.5963552"/><trkpt lat="50.2247378" lon="7.5965691"/><trkpt lat="50.2248366" lon="7.596582"/><trkpt lat="50.2247714" lon="7.5966692"/><trkpt lat="50.2248545" lon="7.5966737"/><trkpt lat="50.2248102" lon="7.5967357"/><trkpt lat="50.224938" lon="7.5967614"/><trkpt lat="50.2249642" lon="7.5969282"/><trkpt lat="50.2248927" lon="7.5970633"/><trkpt lat="50.2248314" lon="7.5970875"/><trkpt lat="50.2247627" lon="7.5970797"/><trkpt lat="50.224672" lon="7.597302"/><trkpt lat="50.224662" lon="7.5974378"/><trkpt lat="50.2246604" lon="7.597459"/><trkpt lat="50.2244033" lon="7.5979059"/><trkpt lat="50.2243013" lon="7.5981202"/><trkpt lat="50.2242425" lon="7.5983554"/><trkpt lat="50.2242342" lon="7.5984499"/><trkpt lat="50.224235" lon="7.5985587"/><trkpt lat="50.224248" lon="7.5988049"/><trkpt lat="50.224242" lon="7.5997919"/><trkpt lat="50.2242327" lon="7.6003647"/><trkpt lat="50.2242744" lon="7.6007406"/><trkpt lat="50.224344" lon="7.6014493"/><trkpt lat="50.2243709" lon="7.601931"/><trkpt lat="50.2243977" lon="7.6024189"/><trkpt lat="50.2243915" lon="7.6026159"/><trkpt lat="50.2244534" lon="7.6026477"/><trkpt lat="50.2247117" lon="7.6027869"/><trkpt lat="50.2248065" lon="7.6028255"/><trkpt lat="50.2248597" lon="7.6028602"/><trkpt lat="50.2249354" lon="7.6029158"/><trkpt lat="50.2250035" lon="7.6029979"/><trkpt lat="50.2250498" lon="7.6030966"/><trkpt lat="50.2250877" lon="7.6032321"/><trkpt lat="50.2250992" lon="7.6033454"/><trkpt lat="50.2250939" lon="7.6034924"/><trkpt lat="50.2250788" lon="7.6036679"/><trkpt lat="50.2248784" lon="7.6050151"/><trkpt lat="50.2247998" lon="7.6055068"/><trkpt lat="50.2247199" lon="7.6059656"/><trkpt lat="50.2246733" lon="7.6063379"/><trkpt lat="50.2256086" lon="7.6066988"/><trkpt lat="50.225609" lon="7.606777"/><trkpt lat="50.2256367" lon="7.6069767"/><trkpt lat="50.2256806" lon="7.6073029"/><trkpt lat="50.2257222" lon="7.6075869"/><trkpt lat="50.2257445" lon="7.607854"/><trkpt lat="50.2257369" lon="7.6080285"/><trkpt lat="50.2257143" lon="7.6082781"/><trkpt lat="50.2256273" lon="7.6084667"/><trkpt lat="50.2255257" lon="7.6086408"/><trkpt lat="50.2253443" lon="7.608815"/><trkpt lat="50.2251702" lon="7.6089963"/><trkpt lat="50.2250624" lon="7.6090887"/><trkpt lat="50.2250179" lon="7.6091269"/><trkpt lat="50.2248002" lon="7.6093373"/><trkpt lat="50.2246769" lon="7.6095114"/><trkpt lat="50.2245996" lon="7.6096735"/><trkpt lat="50.2245698" lon="7.6097765"/><trkpt lat="50.2245095" lon="7.6100885"/><trkpt lat="50.2244302" lon="7.6103747"/><trkpt lat="50.2243142" lon="7.6105634"/><trkpt lat="50.22414" lon="7.6108318"/><trkpt lat="50.2239514" lon="7.6110784"/><trkpt lat="50.2237483" lon="7.611309"/><trkpt lat="50.2236508" lon="7.6113776"/><trkpt lat="50.2235084" lon="7.6113941"/><trkpt lat="50.223313" lon="7.6113686"/><trkpt lat="50.2230228" lon="7.6114194"/><trkpt lat="50.2227979" lon="7.6115427"/><trkpt lat="50.2225948" lon="7.6117096"/><trkpt lat="50.2225005" lon="7.6118982"/><trkpt lat="50.2224062" lon="7.6121739"/><trkpt lat="50.2223264" lon="7.6124568"/><trkpt lat="50.2222832" lon="7.612638"/><trkpt lat="50.2221973" lon="7.6128681"/><trkpt lat="50.2218853" lon="7.6133163"/><trkpt lat="50.2217585" lon="7.6134781"/><trkpt lat="50.2217118" lon="7.6136997"/><trkpt lat="50.2216637" lon="7.6137012"/><trkpt lat="50.2216277" lon="7.6134598"/><trkpt lat="50.2215847" lon="7.6133391"/><trkpt lat="50.2214413" lon="7.613059"/><trkpt lat="50.2213325" lon="7.6130082"/><trkpt lat="50.2211438" lon="7.6130009"/><trkpt lat="50.2208972" lon="7.6130154"/><trkpt lat="50.2206723" lon="7.6129502"/><trkpt lat="50.2204691" lon="7.6128123"/><trkpt lat="50.2203095" lon="7.612689"/><trkpt lat="50.2199105" lon="7.6125657"/><trkpt lat="50.2196494" lon="7.6125584"/><trkpt lat="50.2193954" lon="7.6126019"/><trkpt lat="50.219127" lon="7.6126962"/><trkpt lat="50.2189284" lon="7.6128868"/><trkpt lat="50.2188069" lon="7.6129929"/><trkpt lat="50.2186996" lon="7.6130956"/><trkpt lat="50.2186156" lon="7.6131388"/><trkpt lat="50.218478" lon="7.6131512"/><trkpt lat="50.2183024" lon="7.6131886"/><trkpt lat="50.2181313" lon="7.6131636"/><trkpt lat="50.218073" lon="7.6130765"/><trkpt lat="50.2179749" lon="7.6131387"/><trkpt lat="50.2177681" lon="7.6133174"/><trkpt lat="50.2175359" lon="7.6135069"/><trkpt lat="50.2172794" lon="7.6136957"/><trkpt lat="50.2171009" lon="7.6138321"/><trkpt lat="50.2168976" lon="7.6139277"/><trkpt lat="50.2168618" lon="7.6139418"/><trkpt lat="50.2168177" lon="7.6139592"/><trkpt lat="50.2167029" lon="7.6140276"/><trkpt lat="50.2164854" lon="7.6141509"/><trkpt lat="50.2161362" lon="7.6143584"/><trkpt lat="50.2160611" lon="7.6144232"/><trkpt lat="50.2156596" lon="7.6146375"/><trkpt lat="50.2149916" lon="7.6150127"/><trkpt lat="50.2145789" lon="7.6152245"/><trkpt lat="50.2142553" lon="7.6153442"/><trkpt lat="50.2140069" lon="7.6155213"/><trkpt lat="50.2138843" lon="7.6156158"/><trkpt lat="50.2138667" lon="7.6157328"/><trkpt lat="50.2138315" lon="7.6158823"/><trkpt lat="50.2138022" lon="7.6159872"/><trkpt lat="50.2137857" lon="7.6160539"/><trkpt lat="50.2136007" lon="7.6163151"/><trkpt lat="50.2135755" lon="7.6163938"/><trkpt lat="50.2133596" lon="7.6165864"/><trkpt lat="50.2132154" lon="7.6167989"/><trkpt lat="50.2131719" lon="7.6169216"/><trkpt lat="50.2131561" lon="7.6170067"/><trkpt lat="50.2131535" lon="7.6170749"/><trkpt lat="50.2131537" lon="7.6171986"/><trkpt lat="50.2130538" lon="7.617204"/><trkpt lat="50.2129779" lon="7.617185"/><trkpt lat="50.2129377" lon="7.6172193"/><trkpt lat="50.2128075" lon="7.6172201"/><trkpt lat="50.2126984" lon="7.6172792"/><trkpt lat="50.2126061" lon="7.6173513"/><trkpt lat="50.2121192" lon="7.617594"/><trkpt lat="50.2119849" lon="7.6176923"/><trkpt lat="50.2118464" lon="7.6177514"/><trkpt lat="50.2116618" lon="7.6178366"/><trkpt lat="50.211561" lon="7.6179481"/><trkpt lat="50.2114813" lon="7.6180727"/><trkpt lat="50.2114034" lon="7.618183"/><trkpt lat="50.2112061" lon="7.6184387"/><trkpt lat="50.2110886" lon="7.6187273"/><trkpt lat="50.2109665" lon="7.6188644"/><trkpt lat="50.2106857" lon="7.6191798"/><trkpt lat="50.2105556" lon="7.6194618"/><trkpt lat="50.2103206" lon="7.6198553"/><trkpt lat="50.2097959" lon="7.6202685"/><trkpt lat="50.2094518" lon="7.6205374"/><trkpt lat="50.2091873" lon="7.6208522"/><trkpt lat="50.2089943" lon="7.6211604"/><trkpt lat="50.2088935" lon="7.6215707"/><trkpt lat="50.2088767" lon="7.6216391"/><trkpt lat="50.208707" lon="7.6222163"/><trkpt lat="50.2085423" lon="7.6227918"/><trkpt lat="50.2084872" lon="7.6232115"/><trkpt lat="50.2084431" lon="7.6234205"/><trkpt lat="50.2084063" lon="7.6234782"/><trkpt lat="50.2082025" lon="7.6237129"/><trkpt lat="50.2080048" lon="7.6239785"/><trkpt lat="50.207921" lon="7.6240922"/><trkpt lat="50.2078318" lon="7.6242133"/><trkpt lat="50.2077256" lon="7.6243445"/><trkpt lat="50.2076564" lon="7.6244762"/><trkpt lat="50.2076436" lon="7.6245553"/><trkpt lat="50.2076449" lon="7.6246345"/><trkpt lat="50.2076412" lon="7.6247679"/><trkpt lat="50.2076188" lon="7.6248349"/><trkpt lat="50.2075738" lon="7.6248923"/><trkpt lat="50.20744" lon="7.6250635"/><trkpt lat="50.2073222" lon="7.6252176"/><trkpt lat="50.2071763" lon="7.6253978"/><trkpt lat="50.2070667" lon="7.6256075"/><trkpt lat="50.2070191" lon="7.625763"/><trkpt lat="50.2069736" lon="7.6258608"/><trkpt lat="50.2063545" lon="7.6257041"/><trkpt lat="50.2062625" lon="7.6256969"/><trkpt lat="50.2061812" lon="7.6258024"/><trkpt lat="50.2057525" lon="7.6264484"/><trkpt lat="50.2055445" lon="7.6267308"/><trkpt lat="50.2053363" lon="7.6269806"/><trkpt lat="50.2052876" lon="7.6270419"/><trkpt lat="50.205312" lon="7.6274901"/><trkpt lat="50.2051392" lon="7.6275311"/><trkpt lat="50.204857" lon="7.627489"/><trkpt lat="50.2045836" lon="7.6273848"/><trkpt lat="50.2045613" lon="7.627594"/><trkpt lat="50.2045785" lon="7.6277549"/><trkpt lat="50.2046309" lon="7.6279353"/><trkpt lat="50.2040206" lon="7.628506"/></trkseg></trk></gpx>