<?xml version="1.0" encoding="UTF-8" standalone="no" ?>

<gpx xmlns="http://www.topografix.com/GPX/1/1" xmlns:xsi="http://www.w3.org/2001/XMLSchema-instance" xsi:schemaLocation="http://www.topografix.com/GPX/1/1 http://www.topografix.com/GPX/1/1/gpx.xsd" version="1.1" creator="waymarkedtrails.org"><metadata><name>RheinBurgenWeg Rundtour - Stahlberg-Schleife</name><copyright author="OpenStreetMap and Contributors"><license>https://www.openstreetmap.org/copyright</license></copyright><link href="https://hiking.waymarkedtrails.org/#route?id=3979174&amp;type=relation"><text>WaymarkedTrails</text></link><time>2026-08-29T18:32:09.604Z</time></metadata><trk><trkseg><trkpt lat="50.0591833" lon="7.7247356"/><trkpt lat="50.0593571" lon="7.7247289"/><trkpt lat="50.0595631" lon="7.7242756"/><trkpt lat="50.0598338" lon="7.7236218"/><trkpt lat="50.0600449" lon="7.7230492"/><trkpt lat="50.0602535" lon="7.7225927"/><trkpt lat="50.0604746" lon="7.7222678"/><trkpt lat="50.060659" lon="7.7220267"/><trkpt lat="50.0607711" lon="7.721842"/><trkpt lat="50.0608186" lon="7.7218924"/><trkpt lat="50.0607323" lon="7.7220738"/><trkpt lat="50.0603824" lon="7.7225994"/><trkpt lat="50.0601892" lon="7.7234802"/><trkpt lat="50.0600171" lon="7.7242243"/><trkpt lat="50.0597255" lon="7.7248152"/><trkpt lat="50.0596202" lon="7.7252583"/><trkpt lat="50.0596131" lon="7.7254772"/><trkpt lat="50.0594797" lon="7.7257124"/><trkpt lat="50.0593743" lon="7.7259969"/><trkpt lat="50.0592992" lon="7.7265901"/><trkpt lat="50.0593153" lon="7.7270705"/><trkpt lat="50.059312" lon="7.7274182"/><trkpt lat="50.0592783" lon="7.7276359"/><trkpt lat="50.0591964" lon="7.727811"/><trkpt lat="50.0591964" lon="7.7280236"/><trkpt lat="50.0592382" lon="7.7282613"/><trkpt lat="50.059455" lon="7.729262"/><trkpt lat="50.0594839" lon="7.7295947"/><trkpt lat="50.0594823" lon="7.7298424"/><trkpt lat="50.0594277" lon="7.7301176"/><trkpt lat="50.0593249" lon="7.7304028"/><trkpt lat="50.0590133" lon="7.7310082"/><trkpt lat="50.0588473" lon="7.7313602"/><trkpt lat="50.0585898" lon="7.7324049"/><trkpt lat="50.0585499" lon="7.7327949"/><trkpt lat="50.0584105" lon="7.733663"/><trkpt lat="50.0583803" lon="7.7337488"/><trkpt lat="50.0582758" lon="7.7339805"/><trkpt lat="50.0582418" lon="7.734132"/><trkpt lat="50.0582795" lon="7.7347598"/><trkpt lat="50.0582625" lon="7.7353648"/><trkpt lat="50.058303" lon="7.7359683"/><trkpt lat="50.0582522" lon="7.7363867"/><trkpt lat="50.0582721" lon="7.736545"/><trkpt lat="50.0583828" lon="7.7367169"/><trkpt lat="50.0583215" lon="7.7370418"/><trkpt lat="50.0581985" lon="7.7372343"/><trkpt lat="50.0580077" lon="7.7373545"/><trkpt lat="50.0579796" lon="7.7373889"/><trkpt lat="50.0579242" lon="7.7375659"/><trkpt lat="50.0578984" lon="7.7376288"/><trkpt lat="50.0578731" lon="7.7376486"/><trkpt lat="50.057832" lon="7.73765"/><trkpt lat="50.0578026" lon="7.7376645"/><trkpt lat="50.0577836" lon="7.7377186"/><trkpt lat="50.057755" lon="7.7378066"/><trkpt lat="50.0577584" lon="7.7378972"/><trkpt lat="50.0578443" lon="7.7378242"/><trkpt lat="50.0579177" lon="7.7377239"/><trkpt lat="50.058072" lon="7.737615"/><trkpt lat="50.0582945" lon="7.7374206"/><trkpt lat="50.0585564" lon="7.7372851"/><trkpt lat="50.0587616" lon="7.7372257"/><trkpt lat="50.0589954" lon="7.7372657"/><trkpt lat="50.0592145" lon="7.7373351"/><trkpt lat="50.0593668" lon="7.7374161"/><trkpt lat="50.0594769" lon="7.7375245"/><trkpt lat="50.0595717" lon="7.7376756"/><trkpt lat="50.0595665" lon="7.7377312"/><trkpt lat="50.0595593" lon="7.737809"/><trkpt lat="50.0595313" lon="7.737866"/><trkpt lat="50.0597347" lon="7.738137"/><trkpt lat="50.0597817" lon="7.7381983"/><trkpt lat="50.0599851" lon="7.7383285"/><trkpt lat="50.0603025" lon="7.7385601"/><trkpt lat="50.0605666" lon="7.7385997"/><trkpt lat="50.0606987" lon="7.7385821"/><trkpt lat="50.0608704" lon="7.7384456"/><trkpt lat="50.0608836" lon="7.7385249"/><trkpt lat="50.0608151" lon="7.7386763"/><trkpt lat="50.0605662" lon="7.7388789"/><trkpt lat="50.0604504" lon="7.7389425"/><trkpt lat="50.0600047" lon="7.738931"/><trkpt lat="50.0594838" lon="7.7387978"/><trkpt lat="50.0594034" lon="7.7388424"/><trkpt lat="50.0591134" lon="7.7393477"/><trkpt lat="50.0590497" lon="7.7394808"/><trkpt lat="50.0590265" lon="7.739585"/><trkpt lat="50.0590323" lon="7.7399265"/><trkpt lat="50.0590207" lon="7.7400944"/><trkpt lat="50.0589629" lon="7.7404938"/><trkpt lat="50.0588934" lon="7.7408179"/><trkpt lat="50.0589111" lon="7.7412629"/><trkpt lat="50.0589354" lon="7.7414411"/><trkpt lat="50.0589678" lon="7.7420322"/><trkpt lat="50.0590458" lon="7.7424228"/><trkpt lat="50.05915" lon="7.742838"/><trkpt lat="50.059235" lon="7.7432388"/><trkpt lat="50.0592229" lon="7.7433603"/><trkpt lat="50.0592026" lon="7.7434089"/><trkpt lat="50.0591338" lon="7.7434534"/><trkpt lat="50.0589475" lon="7.7434696"/><trkpt lat="50.0583492" lon="7.7433235"/><trkpt lat="50.0580715" lon="7.7433653"/><trkpt lat="50.0579611" lon="7.7433577"/><trkpt lat="50.0577823" lon="7.7432283"/><trkpt lat="50.0576149" lon="7.7430267"/><trkpt lat="50.0575198" lon="7.7429772"/><trkpt lat="50.0574141" lon="7.7429445"/><trkpt lat="50.0575696" lon="7.7431468"/><trkpt lat="50.0577332" lon="7.7433561"/><trkpt lat="50.0579044" lon="7.7435082"/><trkpt lat="50.0579843" lon="7.7435577"/><trkpt lat="50.0581798" lon="7.7436054"/><trkpt lat="50.0584031" lon="7.7437063"/><trkpt lat="50.0589001" lon="7.7441191"/><trkpt lat="50.0591469" lon="7.7443764"/><trkpt lat="50.0594811" lon="7.7446522"/><trkpt lat="50.0596513" lon="7.7447184"/><trkpt lat="50.0598278" lon="7.744731"/><trkpt lat="50.0602124" lon="7.7441825"/><trkpt lat="50.0602872" lon="7.7441556"/><trkpt lat="50.0603565" lon="7.744143"/><trkpt lat="50.0604006" lon="7.7441525"/><trkpt lat="50.0612226" lon="7.7445843"/><trkpt lat="50.0615361" lon="7.7426453"/><trkpt lat="50.0617966" lon="7.7430655"/><trkpt lat="50.0618341" lon="7.7431223"/><trkpt lat="50.0628755" lon="7.744644"/><trkpt lat="50.0635036" lon="7.7443249"/><trkpt lat="50.0638329" lon="7.7434358"/><trkpt lat="50.0639254" lon="7.7434054"/><trkpt lat="50.065258" lon="7.7428897"/><trkpt lat="50.0664051" lon="7.7426475"/><trkpt lat="50.0665354" lon="7.7426344"/><trkpt lat="50.0667329" lon="7.7426148"/><trkpt lat="50.0667328" lon="7.7427041"/><trkpt lat="50.0668288" lon="7.7445689"/><trkpt lat="50.0668473" lon="7.7449217"/><trkpt lat="50.0668727" lon="7.7453478"/><trkpt lat="50.0669525" lon="7.7455704"/><trkpt lat="50.0669718" lon="7.7455741"/><trkpt lat="50.0673569" lon="7.7454992"/><trkpt lat="50.0681215" lon="7.7464301"/><trkpt lat="50.0677507" lon="7.7469913"/><trkpt lat="50.0676453" lon="7.7471919"/><trkpt lat="50.067536" lon="7.7473196"/><trkpt lat="50.067454" lon="7.7475993"/><trkpt lat="50.0673791" lon="7.7480329"/><trkpt lat="50.067301" lon="7.7484759"/><trkpt lat="50.0671659" lon="7.7491512"/><trkpt lat="50.0670709" lon="7.7494263"/><trkpt lat="50.0668958" lon="7.7496965"/><trkpt lat="50.0667207" lon="7.749859"/><trkpt lat="50.0665956" lon="7.7499141"/><trkpt lat="50.0664701" lon="7.7499208"/><trkpt lat="50.0663531" lon="7.749943"/><trkpt lat="50.0662564" lon="7.7500308"/><trkpt lat="50.0658481" lon="7.7502719"/><trkpt lat="50.0657254" lon="7.7503386"/><trkpt lat="50.0656313" lon="7.7504853"/><trkpt lat="50.0655485" lon="7.7506987"/><trkpt lat="50.0654829" lon="7.750912"/><trkpt lat="50.0654648" lon="7.7510235"/><trkpt lat="50.0654629" lon="7.7510365"/><trkpt lat="50.0654914" lon="7.7511876"/><trkpt lat="50.065577" lon="7.7514143"/><trkpt lat="50.0662299" lon="7.752906"/><trkpt lat="50.0661424" lon="7.7539699"/><trkpt lat="50.0661417" lon="7.7539815"/><trkpt lat="50.0661347" lon="7.7541012"/><trkpt lat="50.0660592" lon="7.7549637"/><trkpt lat="50.0660578" lon="7.7554837"/><trkpt lat="50.0660754" lon="7.7557688"/><trkpt lat="50.0661306" lon="7.7566638"/><trkpt lat="50.0661306" lon="7.757544"/><trkpt lat="50.0661268" lon="7.7575892"/><trkpt lat="50.0661212" lon="7.7577884"/><trkpt lat="50.0660544" lon="7.7585331"/><trkpt lat="50.0660289" lon="7.7588283"/><trkpt lat="50.0659694" lon="7.7591428"/><trkpt lat="50.0658055" lon="7.7595196"/><trkpt lat="50.0657112" lon="7.7596963"/><trkpt lat="50.0655772" lon="7.760058"/><trkpt lat="50.0651422" lon="7.7606409"/><trkpt lat="50.0649083" lon="7.7609954"/><trkpt lat="50.0648651" lon="7.7611688"/><trkpt lat="50.0648812" lon="7.7614744"/><trkpt lat="50.064951" lon="7.7618051"/><trkpt lat="50.0650095" lon="7.7619333"/><trkpt lat="50.0650859" lon="7.7630076"/><trkpt lat="50.0651457" lon="7.7641517"/><trkpt lat="50.0651696" lon="7.7645314"/><trkpt lat="50.0650886" lon="7.764524"/><trkpt lat="50.0649867" lon="7.7644954"/><trkpt lat="50.0648302" lon="7.7644484"/><trkpt lat="50.0645654" lon="7.7643577"/><trkpt lat="50.0644543" lon="7.7643361"/><trkpt lat="50.0643818" lon="7.7643496"/><trkpt lat="50.0643885" lon="7.7645202"/><trkpt lat="50.06433" lon="7.7647958"/><trkpt lat="50.0642714" lon="7.7652899"/><trkpt lat="50.0642764" lon="7.7656258"/><trkpt lat="50.0642991" lon="7.7658521"/><trkpt lat="50.0643138" lon="7.7660674"/><trkpt lat="50.0643232" lon="7.7661656"/><trkpt lat="50.0643144" lon="7.7662604"/><trkpt lat="50.0642861" lon="7.7663477"/><trkpt lat="50.0642371" lon="7.7664866"/><trkpt lat="50.0641356" lon="7.7666135"/><trkpt lat="50.0641084" lon="7.7666416"/><trkpt lat="50.0640753" lon="7.7666581"/><trkpt lat="50.064011" lon="7.7666423"/><trkpt lat="50.0639276" lon="7.7665159"/><trkpt lat="50.0638415" lon="7.7663079"/><trkpt lat="50.0637797" lon="7.7661477"/><trkpt lat="50.0636852" lon="7.7659606"/><trkpt lat="50.0635966" lon="7.7658377"/><trkpt lat="50.0634682" lon="7.7656375"/><trkpt lat="50.0634216" lon="7.7655006"/><trkpt lat="50.0633894" lon="7.7654115"/><trkpt lat="50.0633792" lon="7.7653235"/><trkpt lat="50.0633778" lon="7.7652262"/><trkpt lat="50.0633883" lon="7.7651336"/><trkpt lat="50.0633353" lon="7.764951"/><trkpt lat="50.0632812" lon="7.7648257"/><trkpt lat="50.063191" lon="7.7646253"/><trkpt lat="50.0631165" lon="7.7646045"/><trkpt lat="50.0629036" lon="7.764645"/><trkpt lat="50.0627508" lon="7.7647391"/><trkpt lat="50.0625194" lon="7.7648687"/><trkpt lat="50.0624597" lon="7.7652036"/><trkpt lat="50.0623738" lon="7.7653911"/><trkpt lat="50.0621874" lon="7.765745"/><trkpt lat="50.0621113" lon="7.7656656"/><trkpt lat="50.0620529" lon="7.7655859"/><trkpt lat="50.0619328" lon="7.7652813"/><trkpt lat="50.0617747" lon="7.764893"/><trkpt lat="50.0616252" lon="7.7643208"/><trkpt lat="50.0616033" lon="7.7641052"/><trkpt lat="50.0615997" lon="7.7639019"/><trkpt lat="50.0615992" lon="7.7636608"/><trkpt lat="50.0615733" lon="7.7633811"/><trkpt lat="50.0615066" lon="7.7632389"/><trkpt lat="50.0615139" lon="7.763579"/><trkpt lat="50.061461" lon="7.7638025"/><trkpt lat="50.0614351" lon="7.7639964"/><trkpt lat="50.061466" lon="7.76421"/><trkpt lat="50.0614929" lon="7.7644057"/><trkpt lat="50.0615143" lon="7.7646108"/><trkpt lat="50.0615261" lon="7.7646904"/><trkpt lat="50.0615516" lon="7.7648224"/><trkpt lat="50.061556" lon="7.7648653"/><trkpt lat="50.061553" lon="7.7648828"/><trkpt lat="50.0615447" lon="7.7648919"/><trkpt lat="50.0615309" lon="7.7648909"/><trkpt lat="50.0615128" lon="7.7648715"/><trkpt lat="50.0614851" lon="7.7648261"/><trkpt lat="50.061478" lon="7.7648405"/><trkpt lat="50.061482" lon="7.7650898"/><trkpt lat="50.0613636" lon="7.7650216"/><trkpt lat="50.0612879" lon="7.7647916"/><trkpt lat="50.0612417" lon="7.7648284"/><trkpt lat="50.0612237" lon="7.7647899"/><trkpt lat="50.0612199" lon="7.7647846"/><trkpt lat="50.0612153" lon="7.7647849"/><trkpt lat="50.0612135" lon="7.7647917"/><trkpt lat="50.0612149" lon="7.7648004"/><trkpt lat="50.0612267" lon="7.7648346"/><trkpt lat="50.0612304" lon="7.7648529"/><trkpt lat="50.0612159" lon="7.7648988"/><trkpt lat="50.0612869" lon="7.7650984"/><trkpt lat="50.061284" lon="7.7651427"/><trkpt lat="50.0612799" lon="7.765182"/><trkpt lat="50.0612794" lon="7.7652088"/><trkpt lat="50.0612825" lon="7.765231"/><trkpt lat="50.0612842" lon="7.7652418"/><trkpt lat="50.0612772" lon="7.7652518"/><trkpt lat="50.0612684" lon="7.7652477"/><trkpt lat="50.0612328" lon="7.7651588"/><trkpt lat="50.0611741" lon="7.7652204"/><trkpt lat="50.0612013" lon="7.7652806"/><trkpt lat="50.0611473" lon="7.7653341"/><trkpt lat="50.061065" lon="7.7652126"/><trkpt lat="50.0610081" lon="7.764986"/><trkpt lat="50.0609991" lon="7.7649684"/><trkpt lat="50.0609876" lon="7.7649591"/><trkpt lat="50.0609048" lon="7.7649178"/><trkpt lat="50.0608848" lon="7.7648874"/><trkpt lat="50.0607962" lon="7.7646609"/><trkpt lat="50.0607187" lon="7.764456"/><trkpt lat="50.0606288" lon="7.7641571"/><trkpt lat="50.0606145" lon="7.7641171"/><trkpt lat="50.0606051" lon="7.7640855"/><trkpt lat="50.0605686" lon="7.7641456"/><trkpt lat="50.0605531" lon="7.7641738"/><trkpt lat="50.0605514" lon="7.7642023"/><trkpt lat="50.0605591" lon="7.7642485"/><trkpt lat="50.0605618" lon="7.7643051"/><trkpt lat="50.0605635" lon="7.7643402"/><trkpt lat="50.0605637" lon="7.7643932"/><trkpt lat="50.0605611" lon="7.7644378"/><trkpt lat="50.0605552" lon="7.7644688"/><trkpt lat="50.0605411" lon="7.764507"/><trkpt lat="50.0606863" lon="7.7649502"/><trkpt lat="50.0609877" lon="7.7656282"/><trkpt lat="50.061083" lon="7.7658919"/><trkpt lat="50.0611385" lon="7.7660272"/><trkpt lat="50.0612022" lon="7.7661549"/><trkpt lat="50.0612786" lon="7.7662928"/><trkpt lat="50.0613505" lon="7.7664087"/><trkpt lat="50.0614801" lon="7.7666065"/><trkpt lat="50.0613778" lon="7.7667567"/><trkpt lat="50.061365" lon="7.7667877"/><trkpt lat="50.0611894" lon="7.7668601"/><trkpt lat="50.0611002" lon="7.7669265"/><trkpt lat="50.0608596" lon="7.7667465"/><trkpt lat="50.060652" lon="7.7663825"/><trkpt lat="50.0606611" lon="7.7662973"/><trkpt lat="50.0606362" lon="7.7662266"/><trkpt lat="50.0605995" lon="7.766192"/><trkpt lat="50.0605672" lon="7.7662008"/><trkpt lat="50.0605143" lon="7.7661525"/><trkpt lat="50.060464" lon="7.7660439"/><trkpt lat="50.0602944" lon="7.765741"/><trkpt lat="50.0600825" lon="7.7653947"/><trkpt lat="50.0599253" lon="7.7651135"/><trkpt lat="50.0598476" lon="7.7649346"/><trkpt lat="50.0598512" lon="7.7648445"/><trkpt lat="50.0598228" lon="7.7647512"/><trkpt lat="50.0597508" lon="7.7645514"/><trkpt lat="50.059718" lon="7.7645785"/><trkpt lat="50.0596309" lon="7.7644933"/><trkpt lat="50.0595405" lon="7.764419"/><trkpt lat="50.059462" lon="7.7643544"/><trkpt lat="50.0594198" lon="7.7643733"/><trkpt lat="50.059403" lon="7.7644422"/><trkpt lat="50.0594249" lon="7.7644933"/><trkpt lat="50.0596046" lon="7.7647023"/><trkpt lat="50.0596421" lon="7.7648274"/><trkpt lat="50.0596478" lon="7.7649063"/><trkpt lat="50.0596534" lon="7.7649829"/><trkpt lat="50.0596304" lon="7.7650521"/><trkpt lat="50.059582" lon="7.7652192"/><trkpt lat="50.0595345" lon="7.7653461"/><trkpt lat="50.0595226" lon="7.765419"/><trkpt lat="50.0594533" lon="7.7654635"/><trkpt lat="50.0594648" lon="7.7656616"/><trkpt lat="50.0593983" lon="7.7655143"/><trkpt lat="50.0594269" lon="7.7657455"/><trkpt lat="50.0594158" lon="7.7658106"/><trkpt lat="50.059348" lon="7.7655864"/><trkpt lat="50.0593304" lon="7.7655835"/><trkpt lat="50.0593357" lon="7.7657044"/><trkpt lat="50.0593326" lon="7.7660736"/><trkpt lat="50.059338" lon="7.7662478"/><trkpt lat="50.0593697" lon="7.7664847"/><trkpt lat="50.0593716" lon="7.7665569"/><trkpt lat="50.059367" lon="7.766596"/><trkpt lat="50.059242" lon="7.7663697"/><trkpt lat="50.0590963" lon="7.7661615"/><trkpt lat="50.0588394" lon="7.765723"/><trkpt lat="50.0589228" lon="7.766094"/><trkpt lat="50.0589347" lon="7.7661612"/><trkpt lat="50.0589568" lon="7.7662766"/><trkpt lat="50.0589675" lon="7.7663318"/><trkpt lat="50.0590089" lon="7.7664734"/><trkpt lat="50.0590117" lon="7.7664992"/><trkpt lat="50.0590094" lon="7.7665222"/><trkpt lat="50.0590029" lon="7.7665345"/><trkpt lat="50.0589893" lon="7.7665417"/><trkpt lat="50.0589668" lon="7.7665494"/><trkpt lat="50.0589482" lon="7.7665481"/><trkpt lat="50.0589372" lon="7.7665411"/><trkpt lat="50.0589277" lon="7.766528"/><trkpt lat="50.0589198" lon="7.7665036"/><trkpt lat="50.0588411" lon="7.7662267"/><trkpt lat="50.0588074" lon="7.766112"/><trkpt lat="50.0587957" lon="7.7660784"/><trkpt lat="50.0587796" lon="7.7660201"/><trkpt lat="50.0587685" lon="7.7659893"/><trkpt lat="50.0587482" lon="7.7659387"/><trkpt lat="50.0587338" lon="7.7659317"/><trkpt lat="50.0587228" lon="7.7659389"/><trkpt lat="50.058719" lon="7.7659601"/><trkpt lat="50.0587423" lon="7.7660375"/><trkpt lat="50.0587473" lon="7.766072"/><trkpt lat="50.0587513" lon="7.7660934"/><trkpt lat="50.0587568" lon="7.7661893"/><trkpt lat="50.0587606" lon="7.7662237"/><trkpt lat="50.0587614" lon="7.7662371"/><trkpt lat="50.0587614" lon="7.7662496"/><trkpt lat="50.058759" lon="7.7662538"/><trkpt lat="50.0587545" lon="7.7662501"/><trkpt lat="50.0587477" lon="7.7662393"/><trkpt lat="50.0587108" lon="7.7661476"/><trkpt lat="50.0586821" lon="7.7660397"/><trkpt lat="50.0585526" lon="7.7657294"/><trkpt lat="50.0584615" lon="7.7655491"/><trkpt lat="50.0583453" lon="7.7653662"/><trkpt lat="50.0583041" lon="7.7654325"/><trkpt lat="50.0582093" lon="7.7652128"/><trkpt lat="50.0581111" lon="7.7649781"/><trkpt lat="50.0580025" lon="7.7648065"/><trkpt lat="50.0579346" lon="7.7647634"/><trkpt lat="50.0579506" lon="7.7648062"/><trkpt lat="50.0579838" lon="7.7648869"/><trkpt lat="50.0580009" lon="7.764931"/><trkpt lat="50.0580215" lon="7.7651008"/><trkpt lat="50.0579125" lon="7.764988"/><trkpt lat="50.0577923" lon="7.765093"/><trkpt lat="50.0577662" lon="7.765024"/><trkpt lat="50.0577366" lon="7.764854"/><trkpt lat="50.057689" lon="7.7647853"/><trkpt lat="50.0576473" lon="7.7647829"/><trkpt lat="50.0576254" lon="7.764752"/><trkpt lat="50.0576155" lon="7.7647236"/><trkpt lat="50.0575727" lon="7.7645297"/><trkpt lat="50.0574711" lon="7.7641946"/><trkpt lat="50.0573485" lon="7.7639054"/><trkpt lat="50.0572062" lon="7.7637535"/><trkpt lat="50.057081" lon="7.7635768"/><trkpt lat="50.0568093" lon="7.7628897"/><trkpt lat="50.0564944" lon="7.7620086"/><trkpt lat="50.0563547" lon="7.7615969"/><trkpt lat="50.0562224" lon="7.7613554"/><trkpt lat="50.0560875" lon="7.7610443"/><trkpt lat="50.0559803" lon="7.7606999"/><trkpt lat="50.0558894" lon="7.7602996"/><trkpt lat="50.0557866" lon="7.7599593"/><trkpt lat="50.0556869" lon="7.7594711"/><trkpt lat="50.0556682" lon="7.7591912"/><trkpt lat="50.0556106" lon="7.758937"/><trkpt lat="50.0554565" lon="7.7587132"/><trkpt lat="50.0552447" lon="7.7584805"/><trkpt lat="50.0550246" lon="7.7576299"/><trkpt lat="50.0549183" lon="7.7573316"/><trkpt lat="50.0545999" lon="7.7567745"/><trkpt lat="50.0544542" lon="7.7564713"/><trkpt lat="50.0541764" lon="7.7562687"/><trkpt lat="50.0539357" lon="7.7559978"/><trkpt lat="50.0538754" lon="7.7554708"/><trkpt lat="50.0539124" lon="7.7547832"/><trkpt lat="50.0537889" lon="7.7543558"/><trkpt lat="50.0536131" lon="7.7535559"/><trkpt lat="50.0535156" lon="7.7534043"/><trkpt lat="50.0531842" lon="7.7532285"/><trkpt lat="50.0528759" lon="7.7530317"/><trkpt lat="50.0528451" lon="7.752868"/><trkpt lat="50.0529059" lon="7.7527374"/><trkpt lat="50.0530492" lon="7.7526002"/><trkpt lat="50.0531714" lon="7.7523235"/><trkpt lat="50.0532839" lon="7.7518815"/><trkpt lat="50.0532765" lon="7.7515771"/><trkpt lat="50.0532768" lon="7.75143"/><trkpt lat="50.0532586" lon="7.7507794"/><trkpt lat="50.0532312" lon="7.7505249"/><trkpt lat="50.0532178" lon="7.7504052"/><trkpt lat="50.0530057" lon="7.7478297"/><trkpt lat="50.0529131" lon="7.7472557"/><trkpt lat="50.0527891" lon="7.7468099"/><trkpt lat="50.0526334" lon="7.7463389"/><trkpt lat="50.0525159" lon="7.7459779"/><trkpt lat="50.0524664" lon="7.7458197"/><trkpt lat="50.0524015" lon="7.7456627"/><trkpt lat="50.0518777" lon="7.7445684"/><trkpt lat="50.0515003" lon="7.7438492"/><trkpt lat="50.0512232" lon="7.7431405"/><trkpt lat="50.0511656" lon="7.7429275"/><trkpt lat="50.0509981" lon="7.7423591"/><trkpt lat="50.0509641" lon="7.7420421"/><trkpt lat="50.050932" lon="7.7418699"/><trkpt lat="50.0508394" lon="7.7416662"/><trkpt lat="50.0508563" lon="7.7415875"/><trkpt lat="50.0508983" lon="7.7414674"/><trkpt lat="50.0509421" lon="7.741423"/><trkpt lat="50.0509858" lon="7.7413786"/><trkpt lat="50.0511542" lon="7.7412724"/><trkpt lat="50.051303" lon="7.7411931"/><trkpt lat="50.0512947" lon="7.7411671"/><trkpt lat="50.0513164" lon="7.7409431"/><trkpt lat="50.0512572" lon="7.7398927"/><trkpt lat="50.0512591" lon="7.7390994"/><trkpt lat="50.0512337" lon="7.7382414"/><trkpt lat="50.0511964" lon="7.7373629"/><trkpt lat="50.0510984" lon="7.7369625"/><trkpt lat="50.0511062" lon="7.736688"/><trkpt lat="50.0511608" lon="7.7365435"/><trkpt lat="50.0512254" lon="7.7367604"/><trkpt lat="50.0512861" lon="7.7370675"/><trkpt lat="50.0513971" lon="7.7375258"/><trkpt lat="50.0514302" lon="7.737788"/><trkpt lat="50.0514828" lon="7.738131"/><trkpt lat="50.0515709" lon="7.7388177"/><trkpt lat="50.0516022" lon="7.7391631"/><trkpt lat="50.051683" lon="7.739527"/><trkpt lat="50.0518178" lon="7.7399448"/><trkpt lat="50.0519796" lon="7.7403559"/><trkpt lat="50.0520807" lon="7.7406861"/><trkpt lat="50.0520941" lon="7.7410029"/><trkpt lat="50.0521278" lon="7.7413062"/><trkpt lat="50.0522424" lon="7.7416499"/><trkpt lat="50.0523974" lon="7.7419936"/><trkpt lat="50.0526872" lon="7.7422834"/><trkpt lat="50.0529096" lon="7.7424788"/><trkpt lat="50.0530193" lon="7.7425665"/><trkpt lat="50.0531457" lon="7.7426419"/><trkpt lat="50.0532877" lon="7.7427182"/><trkpt lat="50.0534282" lon="7.7427845"/><trkpt lat="50.0535853" lon="7.7428573"/><trkpt lat="50.0536144" lon="7.74277"/><trkpt lat="50.0536111" lon="7.7426665"/><trkpt lat="50.0535917" lon="7.7425307"/><trkpt lat="50.0535982" lon="7.7423981"/><trkpt lat="50.0536338" lon="7.7422041"/><trkpt lat="50.0536144" lon="7.7421265"/><trkpt lat="50.0535529" lon="7.7421685"/><trkpt lat="50.0535109" lon="7.7421653"/><trkpt lat="50.0535109" lon="7.7421265"/><trkpt lat="50.0535368" lon="7.7420391"/><trkpt lat="50.0535238" lon="7.7418031"/><trkpt lat="50.0535335" lon="7.7415994"/><trkpt lat="50.0535529" lon="7.7413859"/><trkpt lat="50.0535723" lon="7.7411757"/><trkpt lat="50.0535297" lon="7.7411224"/><trkpt lat="50.0535995" lon="7.7407861"/><trkpt lat="50.0536407" lon="7.7404829"/><trkpt lat="50.0536412" lon="7.7403295"/><trkpt lat="50.053624" lon="7.7402785"/><trkpt lat="50.0536603" lon="7.7400637"/><trkpt lat="50.0536849" lon="7.7399034"/><trkpt lat="50.0538191" lon="7.7394544"/><trkpt lat="50.0538546" lon="7.7391803"/><trkpt lat="50.0539019" lon="7.738777"/><trkpt lat="50.0539622" lon="7.7385888"/><trkpt lat="50.0540095" lon="7.7384033"/><trkpt lat="50.05406" lon="7.7382576"/><trkpt lat="50.0541151" lon="7.7381318"/><trkpt lat="50.0541824" lon="7.7379269"/><trkpt lat="50.0542256" lon="7.7377533"/><trkpt lat="50.0543168" lon="7.7373903"/><trkpt lat="50.054331" lon="7.7372339"/><trkpt lat="50.0543461" lon="7.7371059"/><trkpt lat="50.0543955" lon="7.7368239"/><trkpt lat="50.05451" lon="7.7366222"/><trkpt lat="50.0546956" lon="7.7364158"/><trkpt lat="50.0547692" lon="7.7363142"/><trkpt lat="50.0548409" lon="7.7361617"/><trkpt lat="50.0549586" lon="7.7360326"/><trkpt lat="50.0550904" lon="7.7359556"/><trkpt lat="50.0554479" lon="7.7358712"/><trkpt lat="50.0556534" lon="7.735763"/><trkpt lat="50.0557924" lon="7.7356549"/><trkpt lat="50.055871" lon="7.7355853"/><trkpt lat="50.0559023" lon="7.7355096"/><trkpt lat="50.0559082" lon="7.7354125"/><trkpt lat="50.0558901" lon="7.7348416"/><trkpt lat="50.055895" lon="7.7346701"/><trkpt lat="50.0558901" lon="7.734506"/><trkpt lat="50.0559919" lon="7.7340987"/><trkpt lat="50.0560916" lon="7.7337257"/><trkpt lat="50.0561538" lon="7.7334496"/><trkpt lat="50.0562218" lon="7.7332043"/><trkpt lat="50.0562829" lon="7.733025"/><trkpt lat="50.0563433" lon="7.7329506"/><trkpt lat="50.0563889" lon="7.7329244"/><trkpt lat="50.0564511" lon="7.7329216"/><trkpt lat="50.0565784" lon="7.7328981"/><trkpt lat="50.0566514" lon="7.7328622"/><trkpt lat="50.0567168" lon="7.7328031"/><trkpt lat="50.0568796" lon="7.7325694"/><trkpt lat="50.0569132" lon="7.7325082"/><trkpt lat="50.0569304" lon="7.7324331"/><trkpt lat="50.0569463" lon="7.7322154"/><trkpt lat="50.0569821" lon="7.731902"/><trkpt lat="50.05705" lon="7.7316385"/><trkpt lat="50.0571154" lon="7.7314265"/><trkpt lat="50.0572612" lon="7.7310376"/><trkpt lat="50.0573709" lon="7.7307767"/><trkpt lat="50.0576347" lon="7.7302017"/><trkpt lat="50.0577484" lon="7.7299601"/><trkpt lat="50.0577967" lon="7.7297453"/><trkpt lat="50.0578207" lon="7.7296194"/><trkpt lat="50.0578312" lon="7.7294775"/><trkpt lat="50.0578009" lon="7.7290241"/><trkpt lat="50.0578414" lon="7.7288496"/><trkpt lat="50.0578672" lon="7.7286893"/><trkpt lat="50.0578953" lon="7.7284578"/><trkpt lat="50.0578917" lon="7.7281207"/><trkpt lat="50.0578947" lon="7.7279404"/><trkpt lat="50.057917" lon="7.7278088"/><trkpt lat="50.0579585" lon="7.7276829"/><trkpt lat="50.058036" lon="7.727522"/><trkpt lat="50.0581198" lon="7.7272308"/><trkpt lat="50.0581842" lon="7.7269208"/><trkpt lat="50.058232" lon="7.726653"/><trkpt lat="50.0582839" lon="7.7263981"/><trkpt lat="50.0583347" lon="7.7262382"/><trkpt lat="50.058422" lon="7.7260086"/><trkpt lat="50.0584974" lon="7.7258751"/><trkpt lat="50.0585922" lon="7.7257571"/><trkpt lat="50.0587562" lon="7.7254783"/><trkpt lat="50.0588665" lon="7.7252619"/><trkpt lat="50.0589056" lon="7.7251939"/><trkpt lat="50.0589651" lon="7.7251002"/><trkpt lat="50.0591112" lon="7.7247913"/><trkpt lat="50.0591833" lon="7.7247356"/></trkseg></trk></gpx>