<?xml version="1.0" encoding="UTF-8" standalone="no" ?>

<gpx xmlns="http://www.topografix.com/GPX/1/1" xmlns:xsi="http://www.w3.org/2001/XMLSchema-instance" xsi:schemaLocation="http://www.topografix.com/GPX/1/1 http://www.topografix.com/GPX/1/1/gpx.xsd" version="1.1" creator="waymarkedtrails.org"><metadata><name>VulkaMaar-Pfad</name><copyright author="OpenStreetMap and Contributors"><license>https://www.openstreetmap.org/copyright</license></copyright><link href="https://hiking.waymarkedtrails.org/#route?id=14259306&amp;type=relation"><text>WaymarkedTrails</text></link><time>2026-09-03T21:14:55.995Z</time></metadata><trk><trkseg><trkpt lat="50.0916272" lon="6.8144114"/><trkpt lat="50.091593" lon="6.8142275"/><trkpt lat="50.0915493" lon="6.8140165"/><trkpt lat="50.0915063" lon="6.813817"/><trkpt lat="50.0914666" lon="6.8135865"/><trkpt lat="50.0914789" lon="6.8134672"/><trkpt lat="50.0915008" lon="6.8133831"/><trkpt lat="50.0915196" lon="6.8133425"/><trkpt lat="50.0914521" lon="6.813248"/><trkpt lat="50.0914325" lon="6.8131287"/><trkpt lat="50.091447" lon="6.8130146"/><trkpt lat="50.0915002" lon="6.8129143"/><trkpt lat="50.0915767" lon="6.8126966"/><trkpt lat="50.0916101" lon="6.8126196"/><trkpt lat="50.0917014" lon="6.8124088"/><trkpt lat="50.0919819" lon="6.8124703"/><trkpt lat="50.0920525" lon="6.8125454"/><trkpt lat="50.0921963" lon="6.8123785"/><trkpt lat="50.0922457" lon="6.8123466"/><trkpt lat="50.092349" lon="6.8122738"/><trkpt lat="50.0924926" lon="6.8121727"/><trkpt lat="50.0926544" lon="6.812125"/><trkpt lat="50.0928314" lon="6.8121047"/><trkpt lat="50.0928376" lon="6.8121792"/><trkpt lat="50.0928453" lon="6.812257"/><trkpt lat="50.0928799" lon="6.8126065"/><trkpt lat="50.0928733" lon="6.8127062"/><trkpt lat="50.0931694" lon="6.8126806"/><trkpt lat="50.0934073" lon="6.8126447"/><trkpt lat="50.0934898" lon="6.8126746"/><trkpt lat="50.0935692" lon="6.8127277"/><trkpt lat="50.093753" lon="6.812915"/><trkpt lat="50.0937849" lon="6.8129359"/><trkpt lat="50.0938101" lon="6.8129148"/><trkpt lat="50.0938486" lon="6.812832"/><trkpt lat="50.0938648" lon="6.8127909"/><trkpt lat="50.0939233" lon="6.812642"/><trkpt lat="50.0939428" lon="6.8125642"/><trkpt lat="50.0939486" lon="6.8124974"/><trkpt lat="50.0939502" lon="6.8123189"/><trkpt lat="50.0939171" lon="6.8118824"/><trkpt lat="50.0939115" lon="6.8116819"/><trkpt lat="50.0939278" lon="6.8115692"/><trkpt lat="50.093976" lon="6.8115049"/><trkpt lat="50.09405" lon="6.8114995"/><trkpt lat="50.0940976" lon="6.8115159"/><trkpt lat="50.0941404" lon="6.8115456"/><trkpt lat="50.0941839" lon="6.8116001"/><trkpt lat="50.0942787" lon="6.8117618"/><trkpt lat="50.0944007" lon="6.8119287"/><trkpt lat="50.0944513" lon="6.8120782"/><trkpt lat="50.0945399" lon="6.8122049"/><trkpt lat="50.0946672" lon="6.8124017"/><trkpt lat="50.0947589" lon="6.8125491"/><trkpt lat="50.0948134" lon="6.8126152"/><trkpt lat="50.0948916" lon="6.8126625"/><trkpt lat="50.0950062" lon="6.8127005"/><trkpt lat="50.0951891" lon="6.8128111"/><trkpt lat="50.0954339" lon="6.8133768"/><trkpt lat="50.0955926" lon="6.813585"/><trkpt lat="50.0962782" lon="6.8136211"/><trkpt lat="50.0965381" lon="6.813487"/><trkpt lat="50.0966826" lon="6.8135165"/><trkpt lat="50.0969355" lon="6.8138893"/><trkpt lat="50.0970181" lon="6.8139188"/><trkpt lat="50.0971145" lon="6.8138732"/><trkpt lat="50.097454" lon="6.8130874"/><trkpt lat="50.0977407" lon="6.8122586"/><trkpt lat="50.0978856" lon="6.8121806"/><trkpt lat="50.0981004" lon="6.8119769"/><trkpt lat="50.0982313" lon="6.8120057"/><trkpt lat="50.098505" lon="6.8119311"/><trkpt lat="50.098715" lon="6.8119257"/><trkpt lat="50.0988268" lon="6.8117809"/><trkpt lat="50.0988802" lon="6.8115261"/><trkpt lat="50.0989386" lon="6.8113705"/><trkpt lat="50.099016" lon="6.8112928"/><trkpt lat="50.099095" lon="6.8112289"/><trkpt lat="50.0992015" lon="6.8111857"/><trkpt lat="50.0993908" lon="6.8108906"/><trkpt lat="50.0996867" lon="6.810727"/><trkpt lat="50.0998264" lon="6.8107"/><trkpt lat="50.0999434" lon="6.8107536"/><trkpt lat="50.1001461" lon="6.810904"/><trkpt lat="50.100356" lon="6.8109523"/><trkpt lat="50.1004234" lon="6.8109146"/><trkpt lat="50.1004799" lon="6.8108209"/><trkpt lat="50.1004936" lon="6.8105607"/><trkpt lat="50.1005349" lon="6.8104454"/><trkpt lat="50.1006385" lon="6.8102789"/><trkpt lat="50.1007675" lon="6.8101528"/><trkpt lat="50.1008583" lon="6.8099653"/><trkpt lat="50.1009014" lon="6.8098687"/><trkpt lat="50.1008466" lon="6.8097183"/><trkpt lat="50.1008002" lon="6.8094367"/><trkpt lat="50.1006849" lon="6.8091765"/><trkpt lat="50.1004974" lon="6.8087822"/><trkpt lat="50.1003941" lon="6.8085462"/><trkpt lat="50.1003924" lon="6.8086588"/><trkpt lat="50.1004103" lon="6.8089264"/><trkpt lat="50.1004313" lon="6.8092451"/><trkpt lat="50.1004438" lon="6.8095165"/><trkpt lat="50.1004033" lon="6.8096999"/><trkpt lat="50.1003264" lon="6.809488"/><trkpt lat="50.1003062" lon="6.8094686"/><trkpt lat="50.1003041" lon="6.8096529"/><trkpt lat="50.1002979" lon="6.8097605"/><trkpt lat="50.1002918" lon="6.8098696"/><trkpt lat="50.100279" lon="6.8099898"/><trkpt lat="50.1002374" lon="6.8100626"/><trkpt lat="50.1001636" lon="6.8101027"/><trkpt lat="50.1000727" lon="6.8100845"/><trkpt lat="50.0999372" lon="6.8100116"/><trkpt lat="50.0998008" lon="6.8099461"/><trkpt lat="50.099646" lon="6.8099595"/><trkpt lat="50.0995084" lon="6.8099055"/><trkpt lat="50.0994043" lon="6.8098155"/><trkpt lat="50.0992896" lon="6.8098122"/><trkpt lat="50.0992395" lon="6.8096929"/><trkpt lat="50.0991697" lon="6.8095252"/><trkpt lat="50.0992079" lon="6.8094341"/><trkpt lat="50.0991886" lon="6.809107"/><trkpt lat="50.0991967" lon="6.8088412"/><trkpt lat="50.099176" lon="6.8086749"/><trkpt lat="50.0990728" lon="6.8082887"/><trkpt lat="50.0990573" lon="6.8080714"/><trkpt lat="50.0990676" lon="6.8078783"/><trkpt lat="50.0991274" lon="6.8076279"/><trkpt lat="50.0992409" lon="6.8073731"/><trkpt lat="50.0993882" lon="6.8071075"/><trkpt lat="50.0993952" lon="6.8070023"/><trkpt lat="50.0993258" lon="6.8063398"/><trkpt lat="50.0992851" lon="6.805986"/><trkpt lat="50.0992095" lon="6.8056509"/><trkpt lat="50.0991306" lon="6.8053604"/><trkpt lat="50.0985568" lon="6.8036902"/><trkpt lat="50.0982429" lon="6.8027414"/><trkpt lat="50.0981374" lon="6.8024032"/><trkpt lat="50.0979524" lon="6.8018801"/><trkpt lat="50.0978411" lon="6.8016471"/><trkpt lat="50.0974917" lon="6.8011626"/><trkpt lat="50.0974361" lon="6.8010861"/><trkpt lat="50.0974049" lon="6.8009449"/><trkpt lat="50.0974229" lon="6.8008396"/><trkpt lat="50.0974195" lon="6.8007797"/><trkpt lat="50.0973445" lon="6.800409"/><trkpt lat="50.0972214" lon="6.7998578"/><trkpt lat="50.0971724" lon="6.7996596"/><trkpt lat="50.0969987" lon="6.7987588"/><trkpt lat="50.096844" lon="6.7979695"/><trkpt lat="50.0965022" lon="6.796543"/><trkpt lat="50.0963131" lon="6.7957826"/><trkpt lat="50.0962195" lon="6.7953878"/><trkpt lat="50.0961254" lon="6.7949479"/><trkpt lat="50.0960684" lon="6.7945569"/><trkpt lat="50.0960416" lon="6.7944759"/><trkpt lat="50.0959979" lon="6.7944501"/><trkpt lat="50.0959406" lon="6.7944799"/><trkpt lat="50.0958685" lon="6.7945906"/><trkpt lat="50.0958296" lon="6.7948163"/><trkpt lat="50.0958263" lon="6.7951424"/><trkpt lat="50.0958781" lon="6.7960487"/><trkpt lat="50.0958781" lon="6.7965208"/><trkpt lat="50.0959111" lon="6.7967954"/><trkpt lat="50.0959111" lon="6.796907"/><trkpt lat="50.0958983" lon="6.7969503"/><trkpt lat="50.0958828" lon="6.7969798"/><trkpt lat="50.0958587" lon="6.7969986"/><trkpt lat="50.0957383" lon="6.7964258"/><trkpt lat="50.0955578" lon="6.7959044"/><trkpt lat="50.0954183" lon="6.7952925"/><trkpt lat="50.0953065" lon="6.7948694"/><trkpt lat="50.0952634" lon="6.7945862"/><trkpt lat="50.0952424" lon="6.7943541"/><trkpt lat="50.0952588" lon="6.7938958"/><trkpt lat="50.0952613" lon="6.7937267"/><trkpt lat="50.0952827" lon="6.7936185"/><trkpt lat="50.0953307" lon="6.7934347"/><trkpt lat="50.0953849" lon="6.7933687"/><trkpt lat="50.0956007" lon="6.7931504"/><trkpt lat="50.0958722" lon="6.7927561"/><trkpt lat="50.09593" lon="6.7926115"/><trkpt lat="50.096092" lon="6.7922126"/><trkpt lat="50.0961407" lon="6.7920667"/><trkpt lat="50.0962101" lon="6.7919743"/><trkpt lat="50.0962747" lon="6.7919671"/><trkpt lat="50.096384" lon="6.7920313"/><trkpt lat="50.0965694" lon="6.7921707"/><trkpt lat="50.0966562" lon="6.7922062"/><trkpt lat="50.0967101" lon="6.7921594"/><trkpt lat="50.0967177" lon="6.7920981"/><trkpt lat="50.0966891" lon="6.7920188"/><trkpt lat="50.0966722" lon="6.7918477"/><trkpt lat="50.0966759" lon="6.791679"/><trkpt lat="50.0967013" lon="6.7913947"/><trkpt lat="50.0967344" lon="6.7912245"/><trkpt lat="50.0967623" lon="6.7911199"/><trkpt lat="50.0968252" lon="6.7910581"/><trkpt lat="50.0970912" lon="6.7913771"/><trkpt lat="50.0970441" lon="6.7911943"/><trkpt lat="50.0969953" lon="6.7909746"/><trkpt lat="50.0969694" lon="6.7907213"/><trkpt lat="50.0969779" lon="6.7904605"/><trkpt lat="50.097161" lon="6.7899103"/><trkpt lat="50.0980271" lon="6.7894479"/><trkpt lat="50.0981704" lon="6.7894739"/><trkpt lat="50.0986612" lon="6.7901624"/><trkpt lat="50.0988302" lon="6.7904313"/><trkpt lat="50.0990065" lon="6.7905799"/><trkpt lat="50.0992254" lon="6.7906852"/><trkpt lat="50.0993424" lon="6.7907436"/><trkpt lat="50.0994079" lon="6.7906542"/><trkpt lat="50.0994055" lon="6.7905353"/><trkpt lat="50.0993627" lon="6.7904258"/><trkpt lat="50.0992745" lon="6.7903051"/><trkpt lat="50.099128" lon="6.7900915"/><trkpt lat="50.0989989" lon="6.7897402"/><trkpt lat="50.0987491" lon="6.7889705"/><trkpt lat="50.0985208" lon="6.7884647"/><trkpt lat="50.0983719" lon="6.7880366"/><trkpt lat="50.0983609" lon="6.7878835"/><trkpt lat="50.0983978" lon="6.7877442"/><trkpt lat="50.0985209" lon="6.7875878"/><trkpt lat="50.0987075" lon="6.7873245"/><trkpt lat="50.0988919" lon="6.7871183"/><trkpt lat="50.0990756" lon="6.7869602"/><trkpt lat="50.0997915" lon="6.7870334"/><trkpt lat="50.1000436" lon="6.7870952"/><trkpt lat="50.1001711" lon="6.7871548"/><trkpt lat="50.1003019" lon="6.7873551"/><trkpt lat="50.1004405" lon="6.7876114"/><trkpt lat="50.100594" lon="6.7879515"/><trkpt lat="50.1007832" lon="6.7882489"/><trkpt lat="50.1009501" lon="6.7884885"/><trkpt lat="50.1010311" lon="6.7886581"/><trkpt lat="50.1011697" lon="6.7887998"/><trkpt lat="50.1016446" lon="6.7891381"/><trkpt lat="50.1021747" lon="6.7895928"/><trkpt lat="50.1024616" lon="6.7896925"/><trkpt lat="50.1027769" lon="6.7895959"/><trkpt lat="50.1030914" lon="6.7893327"/><trkpt lat="50.1033438" lon="6.7892752"/><trkpt lat="50.1036912" lon="6.7892921"/><trkpt lat="50.1043323" lon="6.7894452"/><trkpt lat="50.1044234" lon="6.7894631"/><trkpt lat="50.1044533" lon="6.7894487"/><trkpt lat="50.1044992" lon="6.7894085"/><trkpt lat="50.104528" lon="6.7893491"/><trkpt lat="50.1045383" lon="6.7892796"/><trkpt lat="50.1045429" lon="6.7892254"/><trkpt lat="50.1045337" lon="6.7891605"/><trkpt lat="50.1045124" lon="6.7890875"/><trkpt lat="50.1042369" lon="6.7884793"/><trkpt lat="50.1042091" lon="6.7883791"/><trkpt lat="50.1041735" lon="6.788255"/><trkpt lat="50.1042131" lon="6.7880216"/><trkpt lat="50.1043783" lon="6.7876595"/><trkpt lat="50.1044884" lon="6.7872813"/><trkpt lat="50.1045279" lon="6.786525"/><trkpt lat="50.104509" lon="6.7861951"/><trkpt lat="50.1045035" lon="6.7860563"/><trkpt lat="50.1044972" lon="6.7858949"/><trkpt lat="50.1045137" lon="6.7855516"/><trkpt lat="50.1045719" lon="6.7850651"/><trkpt lat="50.1049511" lon="6.7838186"/><trkpt lat="50.105321" lon="6.7827082"/><trkpt lat="50.1054967" lon="6.7821998"/><trkpt lat="50.1057193" lon="6.7821066"/><trkpt lat="50.1060239" lon="6.7823132"/><trkpt lat="50.1065253" lon="6.7828543"/><trkpt lat="50.1065235" lon="6.782743"/><trkpt lat="50.1063196" lon="6.7822724"/><trkpt lat="50.1062298" lon="6.7820205"/><trkpt lat="50.1061649" lon="6.7815835"/><trkpt lat="50.1061121" lon="6.7812965"/><trkpt lat="50.1060179" lon="6.7806336"/><trkpt lat="50.1060328" lon="6.7805277"/><trkpt lat="50.10608" lon="6.7804606"/><trkpt lat="50.1062924" lon="6.7803318"/><trkpt lat="50.1064945" lon="6.7803045"/><trkpt lat="50.107068" lon="6.7803113"/><trkpt lat="50.1073349" lon="6.7803696"/><trkpt lat="50.1075763" lon="6.7805482"/><trkpt lat="50.107657" lon="6.7801926"/><trkpt lat="50.1072777" lon="6.7796722"/><trkpt lat="50.1067394" lon="6.7791492"/><trkpt lat="50.1066799" lon="6.7790248"/><trkpt lat="50.106681" lon="6.7788837"/><trkpt lat="50.1070591" lon="6.7778903"/><trkpt lat="50.1072167" lon="6.7777554"/><trkpt lat="50.1073653" lon="6.7776981"/><trkpt lat="50.1075304" lon="6.7776809"/><trkpt lat="50.1077279" lon="6.777667"/><trkpt lat="50.1083274" lon="6.7777351"/><trkpt lat="50.108428" lon="6.7777328"/><trkpt lat="50.1085394" lon="6.7777066"/><trkpt lat="50.1087451" lon="6.7774732"/><trkpt lat="50.1087064" lon="6.7773558"/><trkpt lat="50.1085458" lon="6.7771775"/><trkpt lat="50.1084922" lon="6.7770248"/><trkpt lat="50.1085487" lon="6.776958"/><trkpt lat="50.1087015" lon="6.7767599"/><trkpt lat="50.1101891" lon="6.7736383"/><trkpt lat="50.1106563" lon="6.7729241"/><trkpt lat="50.1107764" lon="6.7727657"/><trkpt lat="50.1110001" lon="6.7727502"/><trkpt lat="50.1112295" lon="6.7728143"/><trkpt lat="50.1114073" lon="6.7728543"/><trkpt lat="50.1115227" lon="6.7730093"/><trkpt lat="50.1116918" lon="6.7734044"/><trkpt lat="50.1117528" lon="6.7744147"/><trkpt lat="50.1119486" lon="6.7753749"/><trkpt lat="50.1122747" lon="6.7758821"/><trkpt lat="50.1127266" lon="6.7762218"/><trkpt lat="50.1130899" lon="6.7763334"/><trkpt lat="50.1135027" lon="6.7761274"/><trkpt lat="50.1138054" lon="6.775827"/><trkpt lat="50.1142059" lon="6.7752984"/><trkpt lat="50.1143383" lon="6.7750903"/><trkpt lat="50.114792" lon="6.7736682"/><trkpt lat="50.115071" lon="6.7726775"/><trkpt lat="50.1151754" lon="6.7724213"/><trkpt lat="50.1152261" lon="6.7723405"/><trkpt lat="50.115326" lon="6.7722269"/><trkpt lat="50.1154591" lon="6.7719467"/><trkpt lat="50.1155265" lon="6.7717623"/><trkpt lat="50.1156605" lon="6.771298"/><trkpt lat="50.115811" lon="6.7706676"/><trkpt lat="50.1160054" lon="6.7702008"/><trkpt lat="50.1160945" lon="6.7688147"/><trkpt lat="50.1159068" lon="6.7667155"/><trkpt lat="50.1158902" lon="6.76653"/><trkpt lat="50.1159016" lon="6.7662908"/><trkpt lat="50.1159293" lon="6.7660869"/><trkpt lat="50.1159532" lon="6.7659528"/><trkpt lat="50.1159981" lon="6.7657597"/><trkpt lat="50.116017" lon="6.7656578"/><trkpt lat="50.1160186" lon="6.7654781"/><trkpt lat="50.1160065" lon="6.7651213"/><trkpt lat="50.1160011" lon="6.764851"/><trkpt lat="50.1160177" lon="6.7644899"/><trkpt lat="50.1160501" lon="6.7642036"/><trkpt lat="50.1159979" lon="6.7642657"/><trkpt lat="50.1159463" lon="6.7643757"/><trkpt lat="50.1159016" lon="6.7645822"/><trkpt lat="50.1158638" lon="6.7648236"/><trkpt lat="50.1158053" lon="6.7651374"/><trkpt lat="50.1157417" lon="6.7653091"/><trkpt lat="50.1156539" lon="6.7654351"/><trkpt lat="50.1155937" lon="6.76547"/><trkpt lat="50.1154048" lon="6.7655004"/><trkpt lat="50.1152037" lon="6.7655862"/><trkpt lat="50.1151351" lon="6.7656152"/><trkpt lat="50.1149786" lon="6.7657158"/><trkpt lat="50.1150613" lon="6.7665414"/><trkpt lat="50.1151047" lon="6.7676426"/><trkpt lat="50.114926" lon="6.7685521"/><trkpt lat="50.1148176" lon="6.7693821"/><trkpt lat="50.1147839" lon="6.7694082"/><trkpt lat="50.1147002" lon="6.7695847"/><trkpt lat="50.1145391" lon="6.7700987"/><trkpt lat="50.1142914" lon="6.7707596"/><trkpt lat="50.1141978" lon="6.7711287"/><trkpt lat="50.113877" lon="6.7724624"/><trkpt lat="50.1136928" lon="6.7726611"/><trkpt lat="50.1135338" lon="6.7726108"/><trkpt lat="50.1135058" lon="6.772527"/><trkpt lat="50.1134927" lon="6.7722739"/><trkpt lat="50.1135213" lon="6.771995"/><trkpt lat="50.113519" lon="6.7713156"/><trkpt lat="50.1134574" lon="6.7708602"/><trkpt lat="50.1134455" lon="6.7705193"/><trkpt lat="50.1134444" lon="6.7701964"/><trkpt lat="50.1133907" lon="6.7698386"/><trkpt lat="50.1133386" lon="6.7696363"/><trkpt lat="50.1133447" lon="6.7695151"/><trkpt lat="50.1134256" lon="6.7692751"/><trkpt lat="50.1134411" lon="6.7691852"/><trkpt lat="50.113434" lon="6.7690712"/><trkpt lat="50.1132468" lon="6.7684413"/><trkpt lat="50.1131953" lon="6.7681393"/><trkpt lat="50.1131796" lon="6.7678414"/><trkpt lat="50.1131657" lon="6.7677541"/><trkpt lat="50.1131357" lon="6.7677195"/><trkpt lat="50.1131008" lon="6.7677316"/><trkpt lat="50.1130764" lon="6.7677921"/><trkpt lat="50.1130593" lon="6.7679183"/><trkpt lat="50.1130176" lon="6.7680783"/><trkpt lat="50.112924" lon="6.7682977"/><trkpt lat="50.1128345" lon="6.7684318"/><trkpt lat="50.1126769" lon="6.7685414"/><trkpt lat="50.1125191" lon="6.7686138"/><trkpt lat="50.1122967" lon="6.7686676"/><trkpt lat="50.1120512" lon="6.768631"/><trkpt lat="50.1119309" lon="6.7685915"/><trkpt lat="50.1118688" lon="6.7685172"/><trkpt lat="50.1118185" lon="6.7683375"/><trkpt lat="50.1117789" lon="6.7681186"/><trkpt lat="50.111781" lon="6.7678684"/><trkpt lat="50.111858" lon="6.7675038"/><trkpt lat="50.1119254" lon="6.7671999"/><trkpt lat="50.1119469" lon="6.7670337"/><trkpt lat="50.1119504" lon="6.7669549"/><trkpt lat="50.1119512" lon="6.7668271"/><trkpt lat="50.1119728" lon="6.7667986"/><trkpt lat="50.112004" lon="6.7668204"/><trkpt lat="50.1120277" lon="6.766906"/><trkpt lat="50.1120772" lon="6.7670689"/><trkpt lat="50.1121085" lon="6.7671311"/><trkpt lat="50.112158" lon="6.7671563"/><trkpt lat="50.1122115" lon="6.7671504"/><trkpt lat="50.1122539" lon="6.7671126"/><trkpt lat="50.1122894" lon="6.7670253"/><trkpt lat="50.1123163" lon="6.7668808"/><trkpt lat="50.1123237" lon="6.7666868"/><trkpt lat="50.1122566" lon="6.7665439"/><trkpt lat="50.1121957" lon="6.7664492"/><trkpt lat="50.1121752" lon="6.766377"/><trkpt lat="50.1121588" lon="6.7662421"/><trkpt lat="50.1120901" lon="6.7650687"/><trkpt lat="50.1119852" lon="6.7639967"/><trkpt lat="50.1119586" lon="6.7631011"/><trkpt lat="50.111959" lon="6.7625769"/><trkpt lat="50.1119491" lon="6.7624439"/><trkpt lat="50.111894" lon="6.7621514"/><trkpt lat="50.1116515" lon="6.7611175"/><trkpt lat="50.1111486" lon="6.7585436"/><trkpt lat="50.1110703" lon="6.7583089"/><trkpt lat="50.1078621" lon="6.7558702"/><trkpt lat="50.1078327" lon="6.7558637"/><trkpt lat="50.1078099" lon="6.7558701"/><trkpt lat="50.1077568" lon="6.7558074"/><trkpt lat="50.1076076" lon="6.7556902"/><trkpt lat="50.1072437" lon="6.755522"/><trkpt lat="50.1070089" lon="6.7553852"/><trkpt lat="50.1067944" lon="6.7552157"/><trkpt lat="50.1065253" lon="6.7548231"/><trkpt lat="50.1064744" lon="6.7547206"/><trkpt lat="50.1063381" lon="6.7543638"/><trkpt lat="50.1062687" lon="6.7542286"/><trkpt lat="50.1062069" lon="6.7541529"/><trkpt lat="50.1061136" lon="6.7540605"/><trkpt lat="50.1059868" lon="6.7539684"/><trkpt lat="50.1057397" lon="6.7538101"/><trkpt lat="50.1058861" lon="6.7541685"/><trkpt lat="50.1060385" lon="6.7545759"/><trkpt lat="50.1062556" lon="6.7553067"/><trkpt lat="50.1063015" lon="6.7555341"/><trkpt lat="50.1063263" lon="6.7557723"/><trkpt lat="50.1063614" lon="6.7562281"/><trkpt lat="50.1063849" lon="6.7565553"/><trkpt lat="50.1063898" lon="6.7569033"/><trkpt lat="50.106394" lon="6.7573196"/><trkpt lat="50.1063929" lon="6.7576894"/><trkpt lat="50.1063691" lon="6.7580567"/><trkpt lat="50.1063428" lon="6.7584503"/><trkpt lat="50.1063145" lon="6.7590157"/><trkpt lat="50.1063363" lon="6.7592915"/><trkpt lat="50.1064373" lon="6.7598275"/><trkpt lat="50.1065243" lon="6.7603373"/><trkpt lat="50.1066101" lon="6.7607792"/><trkpt lat="50.1067187" lon="6.7610734"/><trkpt lat="50.1070498" lon="6.7616886"/><trkpt lat="50.107068" lon="6.7619025"/><trkpt lat="50.1070158" lon="6.7619676"/><trkpt lat="50.1066587" lon="6.7623792"/><trkpt lat="50.1065761" lon="6.7624246"/><trkpt lat="50.1065133" lon="6.7624354"/><trkpt lat="50.1064932" lon="6.7624388"/><trkpt lat="50.1058222" lon="6.7623184"/><trkpt lat="50.1057841" lon="6.7622887"/><trkpt lat="50.1057595" lon="6.7622362"/><trkpt lat="50.1057479" lon="6.7621611"/><trkpt lat="50.1057407" lon="6.7617335"/><trkpt lat="50.1056736" lon="6.7617564"/><trkpt lat="50.1051832" lon="6.762137"/><trkpt lat="50.1048549" lon="6.7624403"/><trkpt lat="50.1047298" lon="6.7625598"/><trkpt lat="50.1046415" lon="6.7625584"/><trkpt lat="50.1045826" lon="6.762507"/><trkpt lat="50.104498" lon="6.7622753"/><trkpt lat="50.1044404" lon="6.7622756"/><trkpt lat="50.1042846" lon="6.7627201"/><trkpt lat="50.1041841" lon="6.7629921"/><trkpt lat="50.1041418" lon="6.7630648"/><trkpt lat="50.1036047" lon="6.7636191"/><trkpt lat="50.1035876" lon="6.7636368"/><trkpt lat="50.1035118" lon="6.7636317"/><trkpt lat="50.1034571" lon="6.7636329"/><trkpt lat="50.103344" lon="6.7635007"/><trkpt lat="50.1032258" lon="6.7634403"/><trkpt lat="50.1030938" lon="6.7634224"/><trkpt lat="50.1029286" lon="6.7634791"/><trkpt lat="50.1026088" lon="6.763869"/><trkpt lat="50.1022682" lon="6.7643908"/><trkpt lat="50.1018865" lon="6.7647346"/><trkpt lat="50.1014972" lon="6.7649931"/><trkpt lat="50.1012313" lon="6.7650812"/><trkpt lat="50.1008137" lon="6.7652368"/><trkpt lat="50.1003631" lon="6.7653536"/><trkpt lat="50.0999557" lon="6.7653536"/><trkpt lat="50.099705" lon="6.7653767"/><trkpt lat="50.0992785" lon="6.7653707"/><trkpt lat="50.0988236" lon="6.7652952"/><trkpt lat="50.0984205" lon="6.7652216"/><trkpt lat="50.0980149" lon="6.7649901"/><trkpt lat="50.0975656" lon="6.7645901"/><trkpt lat="50.0974766" lon="6.7645083"/><trkpt lat="50.097417" lon="6.7644494"/><trkpt lat="50.0973619" lon="6.7644296"/><trkpt lat="50.097334" lon="6.7644538"/><trkpt lat="50.0973116" lon="6.7645051"/><trkpt lat="50.0973003" lon="6.7646187"/><trkpt lat="50.0972526" lon="6.7650672"/><trkpt lat="50.0972359" lon="6.7651722"/><trkpt lat="50.097217" lon="6.7651854"/><trkpt lat="50.0971933" lon="6.765181"/><trkpt lat="50.0971763" lon="6.7651574"/><trkpt lat="50.0971705" lon="6.765084"/><trkpt lat="50.0971747" lon="6.7649505"/><trkpt lat="50.0971617" lon="6.7647188"/><trkpt lat="50.0971558" lon="6.7644511"/><trkpt lat="50.0970711" lon="6.7642247"/><trkpt lat="50.0970481" lon="6.7641319"/><trkpt lat="50.0970992" lon="6.7640181"/><trkpt lat="50.097055" lon="6.7639068"/><trkpt lat="50.0969878" lon="6.7637583"/><trkpt lat="50.0969042" lon="6.7635977"/><trkpt lat="50.0967843" lon="6.7634344"/><trkpt lat="50.096381" lon="6.763039"/><trkpt lat="50.096204" lon="6.7628638"/><trkpt lat="50.0960782" lon="6.7626839"/><trkpt lat="50.0959706" lon="6.7625068"/><trkpt lat="50.0958882" lon="6.7623402"/><trkpt lat="50.0958178" lon="6.7621825"/><trkpt lat="50.0957555" lon="6.761996"/><trkpt lat="50.0956885" lon="6.7617562"/><trkpt lat="50.0956405" lon="6.7614438"/><trkpt lat="50.095541" lon="6.7607518"/><trkpt lat="50.0954642" lon="6.7602916"/><trkpt lat="50.095383" lon="6.7598685"/><trkpt lat="50.0952935" lon="6.7594929"/><trkpt lat="50.0952455" lon="6.7592811"/><trkpt lat="50.095186" lon="6.7593305"/><trkpt lat="50.0951367" lon="6.7591373"/><trkpt lat="50.0951111" lon="6.7590262"/><trkpt lat="50.0949872" lon="6.758577"/><trkpt lat="50.0949167" lon="6.758318"/><trkpt lat="50.0948289" lon="6.7580365"/><trkpt lat="50.094767" lon="6.7578542"/><trkpt lat="50.0946108" lon="6.7574598"/><trkpt lat="50.0945935" lon="6.757414"/><trkpt lat="50.0944357" lon="6.7570181"/><trkpt lat="50.0943035" lon="6.7567052"/><trkpt lat="50.0942646" lon="6.7566096"/><trkpt lat="50.0942347" lon="6.7565262"/><trkpt lat="50.0940908" lon="6.7561241"/><trkpt lat="50.0938909" lon="6.7554634"/><trkpt lat="50.0937927" lon="6.755124"/><trkpt lat="50.0937668" lon="6.7550073"/><trkpt lat="50.093745" lon="6.7548468"/><trkpt lat="50.0937383" lon="6.7548043"/><trkpt lat="50.0937321" lon="6.7547646"/><trkpt lat="50.0937069" lon="6.7546733"/><trkpt lat="50.0936721" lon="6.7545996"/><trkpt lat="50.0935881" lon="6.7544823"/><trkpt lat="50.0933702" lon="6.7541978"/><trkpt lat="50.0931836" lon="6.7539856"/><trkpt lat="50.0928898" lon="6.7537055"/><trkpt lat="50.0926773" lon="6.7534988"/><trkpt lat="50.0925412" lon="6.753349"/><trkpt lat="50.0923863" lon="6.7531881"/><trkpt lat="50.0923726" lon="6.753235"/><trkpt lat="50.0923252" lon="6.7533088"/><trkpt lat="50.0921506" lon="6.7532605"/><trkpt lat="50.0919768" lon="6.7532672"/><trkpt lat="50.0919397" lon="6.7532737"/><trkpt lat="50.0917913" lon="6.7532996"/><trkpt lat="50.0910631" lon="6.7533979"/><trkpt lat="50.0907015" lon="6.7534814"/><trkpt lat="50.0900072" lon="6.7543174"/><trkpt lat="50.0895336" lon="6.7542654"/><trkpt lat="50.0890234" lon="6.7544341"/><trkpt lat="50.0888442" lon="6.7545296"/><trkpt lat="50.0887523" lon="6.7545826"/><trkpt lat="50.0887133" lon="6.7547894"/><trkpt lat="50.0887703" lon="6.7548998"/><trkpt lat="50.0886025" lon="6.7559202"/><trkpt lat="50.0884466" lon="6.7562139"/><trkpt lat="50.0880281" lon="6.7568444"/><trkpt lat="50.0873688" lon="6.7578375"/><trkpt lat="50.0871108" lon="6.7577454"/><trkpt lat="50.0867709" lon="6.7574478"/><trkpt lat="50.0867318" lon="6.7574136"/><trkpt lat="50.0862899" lon="6.7576354"/><trkpt lat="50.0863242" lon="6.7580077"/><trkpt lat="50.0862304" lon="6.7580735"/><trkpt lat="50.0861615" lon="6.7581995"/><trkpt lat="50.0860421" lon="6.758436"/><trkpt lat="50.085991" lon="6.7585477"/><trkpt lat="50.085763" lon="6.759074"/><trkpt lat="50.0854402" lon="6.7596735"/><trkpt lat="50.0854317" lon="6.7597731"/><trkpt lat="50.0851168" lon="6.759749"/><trkpt lat="50.0850685" lon="6.7597421"/><trkpt lat="50.0842166" lon="6.7595401"/><trkpt lat="50.0842154" lon="6.759926"/><trkpt lat="50.084244" lon="6.7609376"/><trkpt lat="50.0846668" lon="6.7609473"/><trkpt lat="50.0850226" lon="6.7609328"/><trkpt lat="50.0854227" lon="6.7626677"/><trkpt lat="50.0859238" lon="6.7639548"/><trkpt lat="50.0858245" lon="6.764516"/><trkpt lat="50.0858304" lon="6.7646183"/><trkpt lat="50.0858041" lon="6.7646994"/><trkpt lat="50.0856693" lon="6.7657006"/><trkpt lat="50.0856607" lon="6.7658838"/><trkpt lat="50.085665" lon="6.7660697"/><trkpt lat="50.0857313" lon="6.7665426"/><trkpt lat="50.0857281" lon="6.766636"/><trkpt lat="50.0857142" lon="6.7667345"/><trkpt lat="50.0856909" lon="6.76683"/><trkpt lat="50.0856468" lon="6.7669396"/><trkpt lat="50.0854048" lon="6.7673854"/><trkpt lat="50.0862537" lon="6.7681323"/><trkpt lat="50.0863181" lon="6.768216"/><trkpt lat="50.0866138" lon="6.7686669"/><trkpt lat="50.0868069" lon="6.7684283"/><trkpt lat="50.0871658" lon="6.7680288"/><trkpt lat="50.0869707" lon="6.7709175"/><trkpt lat="50.0869329" lon="6.7717543"/><trkpt lat="50.0869434" lon="6.771993"/><trkpt lat="50.0869203" lon="6.7724881"/><trkpt lat="50.086869" lon="6.7726509"/><trkpt lat="50.0868938" lon="6.7729251"/><trkpt lat="50.0869186" lon="6.7731958"/><trkpt lat="50.0865467" lon="6.7731235"/><trkpt lat="50.0863722" lon="6.7731021"/><trkpt lat="50.0861786" lon="6.7731275"/><trkpt lat="50.0857932" lon="6.7732079"/><trkpt lat="50.0854627" lon="6.7733447"/><trkpt lat="50.0851287" lon="6.7737758"/><trkpt lat="50.0851174" lon="6.7739857"/><trkpt lat="50.0851412" lon="6.7742027"/><trkpt lat="50.0847782" lon="6.7746176"/><trkpt lat="50.0844965" lon="6.7749455"/><trkpt lat="50.0842896" lon="6.7752648"/><trkpt lat="50.0842256" lon="6.7754082"/><trkpt lat="50.08416" lon="6.7756056"/><trkpt lat="50.08407" lon="6.7760083"/><trkpt lat="50.0838792" lon="6.7766432"/><trkpt lat="50.0836986" lon="6.777054"/><trkpt lat="50.0833621" lon="6.777432"/><trkpt lat="50.0833024" lon="6.7775519"/><trkpt lat="50.0829533" lon="6.7776441"/><trkpt lat="50.0826423" lon="6.7778389"/><trkpt lat="50.0823303" lon="6.7779937"/><trkpt lat="50.0821346" lon="6.7782104"/><trkpt lat="50.0820045" lon="6.7784234"/><trkpt lat="50.0819452" lon="6.7786369"/><trkpt lat="50.081948" lon="6.7787917"/><trkpt lat="50.0821613" lon="6.7793876"/><trkpt lat="50.0822984" lon="6.7798007"/><trkpt lat="50.0823007" lon="6.7799552"/><trkpt lat="50.0822385" lon="6.7800854"/><trkpt lat="50.0821493" lon="6.7801997"/><trkpt lat="50.08207" lon="6.7803481"/><trkpt lat="50.0819499" lon="6.7804852"/><trkpt lat="50.0818139" lon="6.7804717"/><trkpt lat="50.0816301" lon="6.7805027"/><trkpt lat="50.0814003" lon="6.7805134"/><trkpt lat="50.0812099" lon="6.7804857"/><trkpt lat="50.0811989" lon="6.7804823"/><trkpt lat="50.0811592" lon="6.7805009"/><trkpt lat="50.0811192" lon="6.7805566"/><trkpt lat="50.0810904" lon="6.7805655"/><trkpt lat="50.0811264" lon="6.7804458"/><trkpt lat="50.0809216" lon="6.7804956"/><trkpt lat="50.0805743" lon="6.7804131"/><trkpt lat="50.0804564" lon="6.7803401"/><trkpt lat="50.0803174" lon="6.780248"/><trkpt lat="50.079822" lon="6.7805599"/><trkpt lat="50.0791188" lon="6.7810594"/><trkpt lat="50.0788429" lon="6.7812127"/><trkpt lat="50.0787616" lon="6.7813453"/><trkpt lat="50.0789159" lon="6.7814569"/><trkpt lat="50.0790091" lon="6.7815901"/><trkpt lat="50.0790097" lon="6.7817744"/><trkpt lat="50.0789541" lon="6.781957"/><trkpt lat="50.0786303" lon="6.7821716"/><trkpt lat="50.0782364" lon="6.7825213"/><trkpt lat="50.0779102" lon="6.7825316"/><trkpt lat="50.0776803" lon="6.7824403"/><trkpt lat="50.0774916" lon="6.7825288"/><trkpt lat="50.0772562" lon="6.7824905"/><trkpt lat="50.0771151" lon="6.7826715"/><trkpt lat="50.0770567" lon="6.7821667"/><trkpt lat="50.0769731" lon="6.7818351"/><trkpt lat="50.0768859" lon="6.7816253"/><trkpt lat="50.0767475" lon="6.7813315"/><trkpt lat="50.0766983" lon="6.781127"/><trkpt lat="50.0767192" lon="6.7808669"/><trkpt lat="50.0767715" lon="6.7806487"/><trkpt lat="50.0769616" lon="6.7804272"/><trkpt lat="50.0772006" lon="6.7802085"/><trkpt lat="50.0772544" lon="6.7801593"/><trkpt lat="50.077452" lon="6.7799888"/><trkpt lat="50.0777662" lon="6.7794443"/><trkpt lat="50.077805" lon="6.7792793"/><trkpt lat="50.0778156" lon="6.7791308"/><trkpt lat="50.0780615" lon="6.7788563"/><trkpt lat="50.0782073" lon="6.7786064"/><trkpt lat="50.0782226" lon="6.7785357"/><trkpt lat="50.0778913" lon="6.7787821"/><trkpt lat="50.0777204" lon="6.7788363"/><trkpt lat="50.0775456" lon="6.7787909"/><trkpt lat="50.0773669" lon="6.778771"/><trkpt lat="50.0771584" lon="6.7787699"/><trkpt lat="50.0766597" lon="6.778759"/><trkpt lat="50.0764855" lon="6.7787552"/><trkpt lat="50.0763716" lon="6.7787836"/><trkpt lat="50.0762164" lon="6.7788538"/><trkpt lat="50.0761463" lon="6.7789253"/><trkpt lat="50.0760921" lon="6.7789807"/><trkpt lat="50.0760086" lon="6.7791701"/><trkpt lat="50.0759208" lon="6.7794404"/><trkpt lat="50.0756034" lon="6.7802766"/><trkpt lat="50.0755537" lon="6.7803873"/><trkpt lat="50.0755176" lon="6.7807041"/><trkpt lat="50.075359" lon="6.7814857"/><trkpt lat="50.0752818" lon="6.7819065"/><trkpt lat="50.0752818" lon="6.7822538"/><trkpt lat="50.0753119" lon="6.782835"/><trkpt lat="50.0754105" lon="6.7832558"/><trkpt lat="50.0754574" lon="6.7835375"/><trkpt lat="50.0755831" lon="6.7836977"/><trkpt lat="50.075581" lon="6.7838028"/><trkpt lat="50.075523" lon="6.7842476"/><trkpt lat="50.0755664" lon="6.7845991"/><trkpt lat="50.0755895" lon="6.7848597"/><trkpt lat="50.0755198" lon="6.7851882"/><trkpt lat="50.0754528" lon="6.7852305"/><trkpt lat="50.0753996" lon="6.785243"/><trkpt lat="50.0752882" lon="6.7859911"/><trkpt lat="50.0752879" lon="6.7868113"/><trkpt lat="50.0752645" lon="6.7870193"/><trkpt lat="50.0751877" lon="6.7872911"/><trkpt lat="50.0750046" lon="6.7876117"/><trkpt lat="50.0748591" lon="6.7877584"/><trkpt lat="50.0747426" lon="6.7879733"/><trkpt lat="50.0746832" lon="6.7884605"/><trkpt lat="50.0746738" lon="6.7889003"/><trkpt lat="50.0746361" lon="6.7891074"/><trkpt lat="50.0742799" lon="6.7896104"/><trkpt lat="50.0741518" lon="6.7901546"/><trkpt lat="50.0740893" lon="6.790507"/><trkpt lat="50.0740869" lon="6.7914744"/><trkpt lat="50.0740931" lon="6.7926712"/><trkpt lat="50.0741099" lon="6.7939067"/><trkpt lat="50.0742422" lon="6.7954581"/><trkpt lat="50.0742218" lon="6.7956669"/><trkpt lat="50.0742369" lon="6.7963193"/><trkpt lat="50.0742869" lon="6.7971897"/><trkpt lat="50.0744911" lon="6.796836"/><trkpt lat="50.0745455" lon="6.7967874"/><trkpt lat="50.0746313" lon="6.7967601"/><trkpt lat="50.0748226" lon="6.7967284"/><trkpt lat="50.0749426" lon="6.7966593"/><trkpt lat="50.0750102" lon="6.7968196"/><trkpt lat="50.0749819" lon="6.7970511"/><trkpt lat="50.074965" lon="6.7973851"/><trkpt lat="50.0749407" lon="6.7979046"/><trkpt lat="50.074965" lon="6.7981909"/><trkpt lat="50.075016" lon="6.7984838"/><trkpt lat="50.0750596" lon="6.7987812"/><trkpt lat="50.0751172" lon="6.7992307"/><trkpt lat="50.0751834" lon="6.7996918"/><trkpt lat="50.0752173" lon="6.7999468"/><trkpt lat="50.0752439" lon="6.8003076"/><trkpt lat="50.0752454" lon="6.8005938"/><trkpt lat="50.0752496" lon="6.8007854"/><trkpt lat="50.0752559" lon="6.8009245"/><trkpt lat="50.0752809" lon="6.8011354"/><trkpt lat="50.0752641" lon="6.8012211"/><trkpt lat="50.0752234" lon="6.8013063"/><trkpt lat="50.0751171" lon="6.8013933"/><trkpt lat="50.0750841" lon="6.801355"/><trkpt lat="50.0750764" lon="6.8012788"/><trkpt lat="50.0750726" lon="6.8011833"/><trkpt lat="50.0750559" lon="6.8010525"/><trkpt lat="50.0750275" lon="6.800989"/><trkpt lat="50.0749955" lon="6.801068"/><trkpt lat="50.07496" lon="6.8010063"/><trkpt lat="50.0749423" lon="6.8010083"/><trkpt lat="50.0748932" lon="6.8011084"/><trkpt lat="50.0748306" lon="6.801242"/><trkpt lat="50.0746897" lon="6.8013931"/><trkpt lat="50.0745357" lon="6.8016477"/><trkpt lat="50.0745433" lon="6.8016821"/><trkpt lat="50.0745536" lon="6.8017292"/><trkpt lat="50.0745773" lon="6.8018179"/><trkpt lat="50.0745042" lon="6.8019581"/><trkpt lat="50.0742258" lon="6.8020965"/><trkpt lat="50.0739794" lon="6.8022259"/><trkpt lat="50.0737267" lon="6.8024717"/><trkpt lat="50.0736964" lon="6.8024066"/><trkpt lat="50.0736684" lon="6.8023449"/><trkpt lat="50.0735716" lon="6.8021067"/><trkpt lat="50.0734513" lon="6.8020212"/><trkpt lat="50.0733174" lon="6.8020225"/><trkpt lat="50.0731513" lon="6.8020669"/><trkpt lat="50.0729811" lon="6.8020603"/><trkpt lat="50.072981" lon="6.8021052"/><trkpt lat="50.0730141" lon="6.8022948"/><trkpt lat="50.0730488" lon="6.802361"/><trkpt lat="50.0732533" lon="6.8024339"/><trkpt lat="50.0733953" lon="6.8025254"/><trkpt lat="50.073566" lon="6.8028172"/><trkpt lat="50.0737057" lon="6.8033613"/><trkpt lat="50.0738379" lon="6.8038591"/><trkpt lat="50.074216" lon="6.8041562"/><trkpt lat="50.0745219" lon="6.8041019"/><trkpt lat="50.0744427" lon="6.8042937"/><trkpt lat="50.074316" lon="6.8044224"/><trkpt lat="50.0740681" lon="6.8045082"/><trkpt lat="50.0738037" lon="6.8043966"/><trkpt lat="50.0736347" lon="6.8042677"/><trkpt lat="50.0735068" lon="6.8041066"/><trkpt lat="50.0734295" lon="6.8039603"/><trkpt lat="50.0733318" lon="6.80385"/><trkpt lat="50.073279" lon="6.8038562"/><trkpt lat="50.0732402" lon="6.8039183"/><trkpt lat="50.0732398" lon="6.8040393"/><trkpt lat="50.0732099" lon="6.8042569"/><trkpt lat="50.0732308" lon="6.8044825"/><trkpt lat="50.07328" lon="6.8046201"/><trkpt lat="50.0733469" lon="6.8047207"/><trkpt lat="50.0736795" lon="6.8048728"/><trkpt lat="50.0736755" lon="6.8049367"/><trkpt lat="50.0733786" lon="6.8051131"/><trkpt lat="50.0731373" lon="6.8051768"/><trkpt lat="50.0730427" lon="6.8051633"/><trkpt lat="50.0729653" lon="6.805112"/><trkpt lat="50.0728974" lon="6.805106"/><trkpt lat="50.0728575" lon="6.8051386"/><trkpt lat="50.0728595" lon="6.8051978"/><trkpt lat="50.0729002" lon="6.8052882"/><trkpt lat="50.0729513" lon="6.8053761"/><trkpt lat="50.0729939" lon="6.8055124"/><trkpt lat="50.0730181" lon="6.8056585"/><trkpt lat="50.0730765" lon="6.8060103"/><trkpt lat="50.0732308" lon="6.8067999"/><trkpt lat="50.0736363" lon="6.8081711"/><trkpt lat="50.0739845" lon="6.8093474"/><trkpt lat="50.0742834" lon="6.8109223"/><trkpt lat="50.0744532" lon="6.810891"/><trkpt lat="50.0756292" lon="6.8106338"/><trkpt lat="50.0757631" lon="6.8113046"/><trkpt lat="50.0759117" lon="6.8121156"/><trkpt lat="50.0759884" lon="6.8124866"/><trkpt lat="50.0761516" lon="6.813356"/><trkpt lat="50.0760288" lon="6.8141282"/><trkpt lat="50.0759833" lon="6.8144654"/><trkpt lat="50.0759391" lon="6.8151368"/><trkpt lat="50.0759375" lon="6.8157587"/><trkpt lat="50.0759282" lon="6.815949"/><trkpt lat="50.0758977" lon="6.8161965"/><trkpt lat="50.0758676" lon="6.8162993"/><trkpt lat="50.0757541" lon="6.8166671"/><trkpt lat="50.0755721" lon="6.8169598"/><trkpt lat="50.0754482" lon="6.8173128"/><trkpt lat="50.0753109" lon="6.8179812"/><trkpt lat="50.0752274" lon="6.8184653"/><trkpt lat="50.0751504" lon="6.8187309"/><trkpt lat="50.0750043" lon="6.8190744"/><trkpt lat="50.074872" lon="6.8193311"/><trkpt lat="50.0746952" lon="6.8195597"/><trkpt lat="50.0744796" lon="6.8197929"/><trkpt lat="50.0744142" lon="6.8201489"/><trkpt lat="50.0743189" lon="6.8204604"/><trkpt lat="50.0742002" lon="6.821045"/><trkpt lat="50.0740656" lon="6.8213914"/><trkpt lat="50.0738089" lon="6.821805"/><trkpt lat="50.073736" lon="6.8220843"/><trkpt lat="50.0738127" lon="6.8223386"/><trkpt lat="50.07384" lon="6.8223943"/><trkpt lat="50.0738691" lon="6.8221788"/><trkpt lat="50.0739303" lon="6.8219502"/><trkpt lat="50.0739989" lon="6.8218399"/><trkpt lat="50.0740503" lon="6.8218245"/><trkpt lat="50.0741026" lon="6.8218088"/><trkpt lat="50.0743113" lon="6.8217214"/><trkpt lat="50.0744033" lon="6.8217831"/><trkpt lat="50.0744533" lon="6.8219091"/><trkpt lat="50.0744671" lon="6.8221144"/><trkpt lat="50.0745032" lon="6.8223101"/><trkpt lat="50.0745859" lon="6.8224818"/><trkpt lat="50.0746452" lon="6.8226012"/><trkpt lat="50.0747408" lon="6.8227916"/><trkpt lat="50.0748518" lon="6.8228131"/><trkpt lat="50.0749448" lon="6.8226801"/><trkpt lat="50.0750343" lon="6.8224563"/><trkpt lat="50.0752064" lon="6.8218662"/><trkpt lat="50.0753054" lon="6.8218421"/><trkpt lat="50.0754293" lon="6.8219588"/><trkpt lat="50.0755016" lon="6.8218876"/><trkpt lat="50.0755799" lon="6.8218837"/><trkpt lat="50.0756583" lon="6.8218566"/><trkpt lat="50.0758274" lon="6.8216777"/><trkpt lat="50.0759157" lon="6.8216756"/><trkpt lat="50.0759974" lon="6.8217802"/><trkpt lat="50.0760766" lon="6.8217505"/><trkpt lat="50.0764664" lon="6.8217446"/><trkpt lat="50.0769243" lon="6.8220111"/><trkpt lat="50.0774958" lon="6.8225958"/><trkpt lat="50.0776047" lon="6.822552"/><trkpt lat="50.0777092" lon="6.8226816"/><trkpt lat="50.0781809" lon="6.8229123"/><trkpt lat="50.078236" lon="6.8228479"/><trkpt lat="50.0782016" lon="6.8226653"/><trkpt lat="50.0782187" lon="6.8223919"/><trkpt lat="50.0782515" lon="6.8220162"/><trkpt lat="50.0783531" lon="6.8218258"/><trkpt lat="50.0783495" lon="6.821598"/><trkpt lat="50.0782772" lon="6.8213271"/><trkpt lat="50.0783531" lon="6.8204552"/><trkpt lat="50.0784667" lon="6.8202057"/><trkpt lat="50.0785837" lon="6.8198734"/><trkpt lat="50.0787351" lon="6.8195676"/><trkpt lat="50.0788436" lon="6.8193608"/><trkpt lat="50.0789486" lon="6.8192269"/><trkpt lat="50.0790604" lon="6.8189909"/><trkpt lat="50.0791439" lon="6.8189217"/><trkpt lat="50.079193" lon="6.8188809"/><trkpt lat="50.0794495" lon="6.8188246"/><trkpt lat="50.0795992" lon="6.8188675"/><trkpt lat="50.079773" lon="6.8188112"/><trkpt lat="50.0799176" lon="6.8187147"/><trkpt lat="50.0801724" lon="6.8187066"/><trkpt lat="50.0803565" lon="6.8187415"/><trkpt lat="50.0803979" lon="6.8186796"/><trkpt lat="50.0803669" lon="6.8185511"/><trkpt lat="50.0802619" lon="6.8183445"/><trkpt lat="50.0802601" lon="6.8181165"/><trkpt lat="50.0798488" lon="6.8173494"/><trkpt lat="50.0797163" lon="6.8170032"/><trkpt lat="50.0796406" lon="6.8165579"/><trkpt lat="50.0796148" lon="6.8160671"/><trkpt lat="50.0796732" lon="6.8156006"/><trkpt lat="50.0800123" lon="6.8146189"/><trkpt lat="50.0801148" lon="6.8144108"/><trkpt lat="50.0802533" lon="6.8142325"/><trkpt lat="50.0803733" lon="6.8141446"/><trkpt lat="50.0805123" lon="6.8141241"/><trkpt lat="50.0808367" lon="6.8139282"/><trkpt lat="50.0809711" lon="6.8137805"/><trkpt lat="50.0811225" lon="6.8135592"/><trkpt lat="50.0812344" lon="6.8134063"/><trkpt lat="50.081311" lon="6.8132789"/><trkpt lat="50.0813792" lon="6.8131552"/><trkpt lat="50.0812699" lon="6.8131271"/><trkpt lat="50.0814114" lon="6.8129597"/><trkpt lat="50.0815379" lon="6.8130763"/><trkpt lat="50.0823428" lon="6.8129774"/><trkpt lat="50.0824124" lon="6.8128053"/><trkpt lat="50.0825493" lon="6.8126502"/><trkpt lat="50.0827106" lon="6.8125955"/><trkpt lat="50.0828281" lon="6.8126555"/><trkpt lat="50.0830035" lon="6.812601"/><trkpt lat="50.0833961" lon="6.8126609"/><trkpt lat="50.0835606" lon="6.812549"/><trkpt lat="50.0838659" lon="6.8124786"/><trkpt lat="50.0839452" lon="6.8123791"/><trkpt lat="50.0840089" lon="6.8120277"/><trkpt lat="50.0841672" lon="6.8118643"/><trkpt lat="50.0843909" lon="6.8116844"/><trkpt lat="50.0846956" lon="6.8116173"/><trkpt lat="50.0852238" lon="6.8115773"/><trkpt lat="50.0853787" lon="6.8115706"/><trkpt lat="50.0858125" lon="6.8117387"/><trkpt lat="50.086024" lon="6.8119828"/><trkpt lat="50.0862464" lon="6.8121129"/><trkpt lat="50.0863918" lon="6.8123094"/><trkpt lat="50.0865121" lon="6.8125739"/><trkpt lat="50.0866205" lon="6.8130565"/><trkpt lat="50.0866801" lon="6.8135635"/><trkpt lat="50.0867044" lon="6.8140791"/><trkpt lat="50.0867117" lon="6.8144521"/><trkpt lat="50.0866592" lon="6.8147798"/><trkpt lat="50.0865691" lon="6.8151737"/><trkpt lat="50.0864919" lon="6.8154568"/><trkpt lat="50.086464" lon="6.8155801"/><trkpt lat="50.0864155" lon="6.8157554"/><trkpt lat="50.0863746" lon="6.8158345"/><trkpt lat="50.0863682" lon="6.815875"/><trkpt lat="50.0864836" lon="6.815901"/><trkpt lat="50.0866144" lon="6.8159332"/><trkpt lat="50.0867358" lon="6.8159718"/><trkpt lat="50.0868918" lon="6.8159763"/><trkpt lat="50.0870206" lon="6.8159546"/><trkpt lat="50.0871273" lon="6.8160458"/><trkpt lat="50.0872064" lon="6.8161585"/><trkpt lat="50.0873538" lon="6.8163041"/><trkpt lat="50.0874983" lon="6.8165187"/><trkpt lat="50.0876298" lon="6.8166467"/><trkpt lat="50.0877778" lon="6.8167539"/><trkpt lat="50.0879001" lon="6.8168547"/><trkpt lat="50.088" lon="6.8169215"/><trkpt lat="50.088092" lon="6.8168949"/><trkpt lat="50.0881432" lon="6.8168564"/><trkpt lat="50.0881614" lon="6.816785"/><trkpt lat="50.0881495" lon="6.8166091"/><trkpt lat="50.0881185" lon="6.8163302"/><trkpt lat="50.0880704" lon="6.8158903"/><trkpt lat="50.0881013" lon="6.8154343"/><trkpt lat="50.0881633" lon="6.8151929"/><trkpt lat="50.088208" lon="6.8150212"/><trkpt lat="50.0882665" lon="6.8147584"/><trkpt lat="50.0883457" lon="6.8146082"/><trkpt lat="50.0883973" lon="6.8145706"/><trkpt lat="50.0884593" lon="6.8146028"/><trkpt lat="50.0885068" lon="6.8147161"/><trkpt lat="50.0885178" lon="6.8147423"/><trkpt lat="50.0885935" lon="6.8150212"/><trkpt lat="50.0886658" lon="6.8152358"/><trkpt lat="50.0888035" lon="6.8154665"/><trkpt lat="50.0888978" lon="6.8155393"/><trkpt lat="50.0890058" lon="6.8155169"/><trkpt lat="50.0891443" lon="6.8154141"/><trkpt lat="50.0893364" lon="6.8152811"/><trkpt lat="50.0895596" lon="6.8152265"/><trkpt lat="50.0897603" lon="6.8151115"/><trkpt lat="50.089931" lon="6.8150236"/><trkpt lat="50.0903413" lon="6.814816"/><trkpt lat="50.0904577" lon="6.8146266"/><trkpt lat="50.0905876" lon="6.8146039"/><trkpt lat="50.0907308" lon="6.8146565"/><trkpt lat="50.0909188" lon="6.8147313"/><trkpt lat="50.0911145" lon="6.8147973"/><trkpt lat="50.0912751" lon="6.8148226"/><trkpt lat="50.0913133" lon="6.8148121"/><trkpt lat="50.0913521" lon="6.8148224"/><trkpt lat="50.091384" lon="6.8148272"/><trkpt lat="50.0914106" lon="6.8148222"/><trkpt lat="50.0914343" lon="6.8148048"/><trkpt lat="50.0914715" lon="6.8147552"/><trkpt lat="50.0914913" lon="6.8147015"/><trkpt lat="50.0915274" lon="6.8145946"/><trkpt lat="50.0915554" lon="6.8145114"/><trkpt lat="50.0915672" lon="6.8144822"/><trkpt lat="50.0915866" lon="6.814443"/><trkpt lat="50.0916272" lon="6.8144114"/></trkseg></trk></gpx>